{
  "type": "FeatureCollection",
  "name": "ativacao_geocientifica_rio_verde_fase3_2",
  "features": [
    {
      "type": "Feature",
      "properties": {
        "id": "ATV-RV-001",
        "municipio": "Rio Verde de Mato Grosso",
        "codigo_ibge": "5007406",
        "classificacao": "Ativação geocientífica continuada e documentada",
        "pioneirismo": "Primeira edição documentada do HidroGeoDia em Mato Grosso do Sul",
        "marcos_documentados": 3,
        "anos": "2016 | 2025 | 2026",
        "marco_2016": "47ª OfiCiência com expedição paleontológica e geológica e oficinas experimentais",
        "marco_2025": "I HidroGeoDia com formação continuada de professores, palestras e visitas de campo",
        "marco_2026": "Publicação científica derivada na Revista Espaço Pedagógico",
        "regra_indice": "Qualificador territorial separado. Não altera o IPG geológico e reforça a prioridade de validação de campo.",
        "limite_metodologico": "Inventário estadual de ações de extensão ainda incompleto. Ausência de registro em outros municípios não significa ausência de atividade.",
        "fonte_2016": "https://www.ufms.br/47a-oficiencia-sera-em-rio-verde-de-mato-grosso/",
        "fonte_2025": "https://cdn.diariodoestadoms.com.br/upload/dn_arquivo/2025/03/jornal-25-de-marco-de-2025-comprimido.pdf",
        "fonte_2026": "https://doi.org/10.5335/rep.v33.17418",
        "versao_metodo": "Fase 3.2, Atlas v1.7.0"
      },
      "geometry": {
        "type": "Point",
        "coordinates": [
          -54.8434,
          -18.9249
        ]
      }
    }
  ]
}