<?xml version="1.0" encoding="UTF-8"?><kml xmlns="http://www.opengis.net/kml/2.2"><Document><name>Atlas Interativo MS v1.7.0</name><Style id="ipg"><LineStyle><color>ff73516a</color><width>1</width></LineStyle><PolyStyle><color>996a5173</color></PolyStyle></Style><Style id="site"><IconStyle><scale>0.7</scale></IconStyle></Style><Style id="activation"><IconStyle><scale>1.1</scale></IconStyle></Style><Placemark><name>IPG--29-21</name><styleUrl>#ipg</styleUrl><description>IPG 30.46 | baixo | Temas 3 | Complexos 1 | Potencial geocientífico territorial documentado. Não demonstra valor internacional, viabilidade, governança ou reconhecimento UNESCO</description><Polygon><outerBoundaryIs><LinearRing><coordinates>-57.38158427315931,-17.640584336814847,0 -57.460878763598586,-17.594957804029857,0 -57.54167404402263,-17.637912933055922,0 -57.543220418572275,-17.726526721756077,0 -57.46389028341317,-17.772189600268007,0 -57.38304940783371,-17.729202276000354,0 -57.38158427315931,-17.640584336814847,0</coordinates></LinearRing></outerBoundaryIs></Polygon></Placemark><Placemark><name>IPG--25-11</name><styleUrl>#ipg</styleUrl><description>IPG 64.3 | alto | Temas 6 | Complexos 3 | Potencial geocientífico territorial documentado. Não demonstra valor internacional, viabilidade, governança ou reconhecimento UNESCO</description><Polygon><outerBoundaryIs><LinearRing><coordinates>-57.565604099061076,-18.966885620202227,0 -57.645432580232615,-18.92117214120035,0 -57.72695094915335,-18.964003101500342,0 -57.728689771849076,-19.05258087113478,0 -57.64882347303113,-19.098332290525576,0 -57.56725615705243,-19.055467929467678,0 -57.565604099061076,-18.966885620202227,0</coordinates></LinearRing></outerBoundaryIs></Polygon></Placemark><Placemark><name>IPG--24-9</name><styleUrl>#ipg</styleUrl><description>IPG 20.53 | baixo | Temas 1 | Complexos 1 | Potencial geocientífico territorial documentado. Não demonstra valor internacional, viabilidade, governança ou reconhecimento UNESCO</description><Polygon><outerBoundaryIs><LinearRing><coordinates>-57.570581897167536,-19.23262748290769,0 -57.65053001022553,-19.186909811878596,0 -57.73219017690561,-19.229731311012788,0 -57.733951801962775,-19.318304079590074,0 -57.65396537029382,-19.364059993934234,0 -57.572255619865544,-19.32120482552213,0 -57.570581897167536,-19.23262748290769,0</coordinates></LinearRing></outerBoundaryIs></Polygon></Placemark><Placemark><name>IPG--24-10</name><styleUrl>#ipg</styleUrl><description>IPG 52.34 | médio | Temas 3 | Complexos 2 | Potencial geocientífico territorial documentado. Não demonstra valor internacional, viabilidade, governança ou reconhecimento UNESCO</description><Polygon><outerBoundaryIs><LinearRing><coordinates>-57.48734626167586,-19.101147561973377,0 -57.56725615705243,-19.055467929467678,0 -57.64882347303113,-19.098332290525576,0 -57.65053001022553,-19.186909811878596,0 -57.570581897167536,-19.23262748290769,0 -57.48896545269647,-19.189729523404356,0 -57.48734626167586,-19.101147561973377,0</coordinates></LinearRing></outerBoundaryIs></Polygon></Placemark><Placemark><name>IPG--24-12</name><styleUrl>#ipg</styleUrl><description>IPG 24.13 | baixo | Temas 2 | Complexos 1 | Potencial geocientífico territorial documentado. Não demonstra valor internacional, viabilidade, governança ou reconhecimento UNESCO</description><Polygon><outerBoundaryIs><LinearRing><coordinates>-57.321313239984576,-18.838046019812573,0 -57.401147007066704,-18.79244185241614,0 -57.48253074228709,-18.835391432744537,0 -57.484128926029676,-18.92397856589036,0 -57.404257146330686,-18.96962036405401,0 -57.322825184414015,-18.926637328061005,0 -57.321313239984576,-18.838046019812573,0</coordinates></LinearRing></outerBoundaryIs></Polygon></Placemark><Placemark><name>IPG--22-6</name><styleUrl>#ipg</styleUrl><description>IPG 32.2 | baixo | Temas 2 | Complexos 1 | Potencial geocientífico territorial documentado. Não demonstra valor internacional, viabilidade, governança ou reconhecimento UNESCO</description><Polygon><outerBoundaryIs><LinearRing><coordinates>-57.49716743402224,-19.632615934260226,0 -57.577320444837575,-19.586927707569988,0 -57.65917444107298,-19.6297738532772,0 -57.660925824899735,-19.71834229282877,0 -57.58073358357593,-19.764069166292668,0 -57.49882917663266,-19.721188881884192,0 -57.49716743402224,-19.632615934260226,0</coordinates></LinearRing></outerBoundaryIs></Polygon></Placemark><Placemark><name>IPG--22-7</name><styleUrl>#ipg</styleUrl><description>IPG 20.53 | baixo | Temas 1 | Complexos 1 | Potencial geocientífico territorial documentado. Não demonstra valor internacional, viabilidade, governança ou reconhecimento UNESCO</description><Polygon><outerBoundaryIs><LinearRing><coordinates>-57.41375147376445,-19.50111563859905,0 -57.49386535602252,-19.455465852199385,0 -57.57562487300218,-19.49835488863471,0 -57.577320444837575,-19.586927707569988,0 -57.49716743402224,-19.632615934260226,0 -57.41535796804901,-19.589692830390547,0 -57.41375147376445,-19.50111563859905,0</coordinates></LinearRing></outerBoundaryIs></Polygon></Placemark><Placemark><name>IPG--22-13</name><styleUrl>#ipg</styleUrl><description>IPG 24.13 | baixo | Temas 2 | Complexos 1 | Potencial geocientífico territorial documentado. Não demonstra valor internacional, viabilidade, governança ou reconhecimento UNESCO</description><Polygon><outerBoundaryIs><LinearRing><coordinates>-56.916335455321494,-18.711132964965437,0 -56.996216767047585,-18.665709518937852,0 -57.0774243573317,-18.70885236194546,0 -57.07879786694797,-18.797452213021455,0 -56.99887806065716,-18.842912873447272,0 -56.9176232298367,-18.799736398318963,0 -56.916335455321494,-18.711132964965437,0</coordinates></LinearRing></outerBoundaryIs></Polygon></Placemark><Placemark><name>IPG--22-21</name><styleUrl>#ipg</styleUrl><description>IPG 24.8 | baixo | Temas 2 | Complexos 1 | Potencial geocientífico territorial documentado. Não demonstra valor internacional, viabilidade, governança ou reconhecimento UNESCO</description><Polygon><outerBoundaryIs><LinearRing><coordinates>-56.26096263677564,-17.655241698833898,0 -56.34054000337208,-17.610108739169508,0 -56.42105082842104,-17.65358094947503,0 -56.42202806585386,-17.742219083579,0 -56.34241310472969,-17.787387656714955,0 -56.261858494108836,-17.743882413802478,0 -56.26096263677564,-17.655241698833898,0</coordinates></LinearRing></outerBoundaryIs></Polygon></Placemark><Placemark><name>IPG--20-10</name><styleUrl>#ipg</styleUrl><description>IPG 33.09 | baixo | Temas 3 | Complexos 1 | Potencial geocientífico territorial documentado. Não demonstra valor internacional, viabilidade, governança ou reconhecimento UNESCO</description><Polygon><outerBoundaryIs><LinearRing><coordinates>-56.84143607897362,-19.110927301368324,0 -56.92152045723338,-19.06553601703669,0 -57.00291381202674,-19.108704582118968,0 -57.00427081067696,-19.197298463059614,0 -56.92414701997652,-19.24272735578851,0 -56.84270563366369,-19.199524688437066,0 -56.84143607897362,-19.110927301368324,0</coordinates></LinearRing></outerBoundaryIs></Polygon></Placemark><Placemark><name>IPG--19-11</name><styleUrl>#ipg</styleUrl><description>IPG 45.06 | médio | Temas 3 | Complexos 1 | Potencial geocientífico territorial documentado. Não demonstra valor internacional, viabilidade, governança ou reconhecimento UNESCO</description><Polygon><outerBoundaryIs><LinearRing><coordinates>-56.59752099607255,-18.981077217026147,0 -56.67760941804584,-18.935795614763784,0 -56.75886839551123,-18.979081449817794,0 -56.76008625157222,-19.06768296848852,0 -56.67995823246595,-19.113001866516946,0 -56.598651946036426,-19.06968187955859,0 -56.59752099607255,-18.981077217026147,0</coordinates></LinearRing></outerBoundaryIs></Polygon></Placemark><Placemark><name>IPG--19-12</name><styleUrl>#ipg</styleUrl><description>IPG 43.32 | médio | Temas 3 | Complexos 1 | Potencial geocientífico territorial documentado. Não demonstra valor internacional, viabilidade, governança ou reconhecimento UNESCO</description><Polygon><outerBoundaryIs><LinearRing><coordinates>-56.51522489272878,-18.849107258011426,0 -56.595273831049404,-18.803862748429314,0 -56.676442664914035,-18.847189923698988,0 -56.67760941804584,-18.935795614763784,0 -56.59752099607254,-18.981077217026147,0 -56.51630529660151,-18.93771596520314,0 -56.51522489272878,-18.849107258011426,0</coordinates></LinearRing></outerBoundaryIs></Polygon></Placemark><Placemark><name>IPG--18-6</name><styleUrl>#ipg</styleUrl><description>IPG 16.36 | muito baixo | Temas 1 | Complexos 1 | Potencial geocientífico territorial documentado. Não demonstra valor internacional, viabilidade, governança ou reconhecimento UNESCO</description><Polygon><outerBoundaryIs><LinearRing><coordinates>-56.849136541038725,-19.642488815035666,0 -56.929468910409774,-19.597091634943382,0 -57.011144663379376,-19.64024492544635,0 -57.01253732412701,-19.728829975159876,0 -56.932164499847595,-19.774265365854397,0 -56.850439460009,-19.731077424596258,0 -56.849136541038725,-19.642488815035666,0</coordinates></LinearRing></outerBoundaryIs></Polygon></Placemark><Placemark><name>IPG--18-11</name><styleUrl>#ipg</styleUrl><description>IPG 38.8 | baixo | Temas 3 | Complexos 1 | Potencial geocientífico territorial documentado. Não demonstra valor internacional, viabilidade, governança ou reconhecimento UNESCO</description><Polygon><outerBoundaryIs><LinearRing><coordinates>-56.43617352182286,-18.982925171200034,0 -56.51630529660151,-18.93771596520314,0 -56.59752099607254,-18.981077217026147,0 -56.598651946036426,-19.06968187955859,0 -56.51848027962977,-19.114928271944063,0 -56.4372175471126,-19.071532744842127,0 -56.43617352182286,-18.982925171200034,0</coordinates></LinearRing></outerBoundaryIs></Polygon></Placemark><Placemark><name>IPG--18-15</name><styleUrl>#ipg</styleUrl><description>IPG 24.8 | baixo | Temas 2 | Complexos 1 | Potencial geocientífico territorial documentado. Não demonstra valor internacional, viabilidade, governança ou reconhecimento UNESCO</description><Polygon><outerBoundaryIs><LinearRing><coordinates>-56.108336679764356,-18.45446446526021,0 -56.18831005290814,-18.40940198118649,0 -56.26917044392053,-18.45292669712102,0 -56.27010273683202,-18.54154779637387,0 -56.190089939841236,-18.58664665860231,0 -56.109184267464784,-18.543087973691325,0 -56.108336679764356,-18.45446446526021,0</coordinates></LinearRing></outerBoundaryIs></Polygon></Placemark><Placemark><name>IPG--18-17</name><styleUrl>#ipg</styleUrl><description>IPG 27.42 | baixo | Temas 2 | Complexos 1 | Potencial geocientífico territorial documentado. Não demonstra valor internacional, viabilidade, governança ou reconhecimento UNESCO</description><Polygon><outerBoundaryIs><LinearRing><coordinates>-55.94523439015558,-18.18996670868058,0 -56.02512927405476,-18.144976379877438,0 -56.10581619847096,-18.188581889619496,0 -56.10665265533769,-18.277211472803785,0 -56.02671858684725,-18.322237779268132,0 -55.94598724045437,-18.2785984555651,0 -55.94523439015558,-18.18996670868058,0</coordinates></LinearRing></outerBoundaryIs></Polygon></Placemark><Placemark><name>IPG--15-0</name><styleUrl>#ipg</styleUrl><description>IPG 32.2 | baixo | Temas 2 | Complexos 1 | Potencial geocientífico territorial documentado. Não demonstra valor internacional, viabilidade, governança ou reconhecimento UNESCO</description><Polygon><outerBoundaryIs><LinearRing><coordinates>-56.86106638620491,-20.43974401675075,0 -56.94178323472249,-20.394336023329533,0 -57.02389620427215,-20.43746775738145,0 -57.02534353008622,-20.526042894217483,0 -56.944584632726524,-20.57149001331438,0 -56.86242044817479,-20.52832279686879,0 -56.86106638620491,-20.43974401675075,0</coordinates></LinearRing></outerBoundaryIs></Polygon></Placemark><Placemark><name>IPG--15-8</name><styleUrl>#ipg</styleUrl><description>IPG 50.15 | médio | Temas 6 | Complexos 1 | Potencial geocientífico territorial documentado. Não demonstra valor internacional, viabilidade, governança ou reconhecimento UNESCO</description><Polygon><outerBoundaryIs><LinearRing><coordinates>-56.198294847519435,-19.38415918812015,0 -56.27867939130915,-19.339056706624046,0 -56.36003669030695,-19.382521383051817,0 -56.36105697093821,-19.471123345076837,0 -56.28063129573544,-19.51626329311018,0 -56.199226464299315,-19.472763741327576,0 -56.198294847519435,-19.38415918812015,0</coordinates></LinearRing></outerBoundaryIs></Polygon></Placemark><Placemark><name>IPG--15-9</name><styleUrl>#ipg</styleUrl><description>IPG 44.99 | médio | Temas 5 | Complexos 1 | Potencial geocientífico territorial documentado. Não demonstra valor internacional, viabilidade, governança ou reconhecimento UNESCO</description><Polygon><outerBoundaryIs><LinearRing><coordinates>-56.11610013735413,-19.252010878046985,0 -56.19644366882372,-19.206945658595806,0 -56.27770975633501,-19.250451209417136,0 -56.27867939130914,-19.339056706624046,0 -56.198294847519435,-19.38415918812015,0 -56.116981674434236,-19.340618839327206,0 -56.11610013735413,-19.252010878046985,0</coordinates></LinearRing></outerBoundaryIs></Polygon></Placemark><Placemark><name>IPG--14-0</name><styleUrl>#ipg</styleUrl><description>IPG 24.7 | baixo | Temas 1 | Complexos 1 | Potencial geocientífico territorial documentado. Não demonstra valor internacional, viabilidade, governança ou reconhecimento UNESCO</description><Polygon><outerBoundaryIs><LinearRing><coordinates>-56.69823613126753,-20.441868555215883,0 -56.77899968360072,-20.396534665501502,0 -56.86106638620491,-20.43974401675075,0 -56.86242044817479,-20.52832279686879,0 -56.781614530843015,-20.573695699365263,0 -56.69949690699937,-20.530450735910552,0 -56.69823613126753,-20.441868555215883,0</coordinates></LinearRing></outerBoundaryIs></Polygon></Placemark><Placemark><name>IPG--14-17</name><styleUrl>#ipg</styleUrl><description>IPG 30.46 | baixo | Temas 3 | Complexos 1 | Potencial geocientífico territorial documentado. Não demonstra valor internacional, viabilidade, governança ou reconhecimento UNESCO</description><Polygon><outerBoundaryIs><LinearRing><coordinates>-55.30290768779311,-18.194048346844248,0 -55.38296918015548,-18.14934613968241,0 -55.4634892973904,-18.193246588688424,0 -55.46399125936162,-18.28188346038718,0 -55.38388945961247,-18.3266212052258,0 -55.30332600201998,-18.282686471331214,0 -55.30290768779311,-18.194048346844248,0</coordinates></LinearRing></outerBoundaryIs></Polygon></Placemark><Placemark><name>IPG--13--4</name><styleUrl>#ipg</styleUrl><description>IPG 54.97 | médio | Temas 5 | Complexos 2 | Potencial geocientífico territorial documentado. Não demonstra valor internacional, viabilidade, governança ou reconhecimento UNESCO</description><Polygon><outerBoundaryIs><LinearRing><coordinates>-56.86927760512585,-20.971205013064726,0 -56.95025926287777,-20.925788490543223,0 -57.03267298689748,-20.96890675079768,0 -57.03415757450607,-21.0574775025943,0 -56.95313278416403,-21.10293376900963,0 -56.870666528232604,-21.0597794657386,0 -56.86927760512585,-20.971205013064726,0</coordinates></LinearRing></outerBoundaryIs></Polygon></Placemark><Placemark><name>IPG--13--2</name><styleUrl>#ipg</styleUrl><description>IPG 32.2 | baixo | Temas 2 | Complexos 1 | Potencial geocientífico territorial documentado. Não demonstra valor internacional, viabilidade, governança ou reconhecimento UNESCO</description><Polygon><outerBoundaryIs><LinearRing><coordinates>-56.70203458293845,-20.70761263862788,0 -56.782930310785716,-20.662274968056018,0 -56.865145889467726,-20.705477871821394,0 -56.86651730338746,-20.794054265587388,0 -56.785578666833466,-20.83943125638928,0 -56.7033115153638,-20.7961924596648,0 -56.70203458293845,-20.70761263862788,0</coordinates></LinearRing></outerBoundaryIs></Polygon></Placemark><Placemark><name>IPG--13--1</name><styleUrl>#ipg</styleUrl><description>IPG 49.7 | médio | Temas 3 | Complexos 2 | Potencial geocientífico territorial documentado. Não demonstra valor internacional, viabilidade, governança ou reconhecimento UNESCO</description><Polygon><outerBoundaryIs><LinearRing><coordinates>-56.61864397428793,-20.575749297061567,0 -56.69949690699937,-20.530450735910552,0 -56.781614530843015,-20.573695699365263,0 -56.782930310785716,-20.662274968056018,0 -56.70203458293845,-20.70761263862788,0 -56.61986586100588,-20.66433185778863,0 -56.61864397428793,-20.575749297061567,0</coordinates></LinearRing></outerBoundaryIs></Polygon></Placemark><Placemark><name>IPG--12--5</name><styleUrl>#ipg</styleUrl><description>IPG 20.53 | baixo | Temas 1 | Complexos 1 | Potencial geocientífico territorial documentado. Não demonstra valor internacional, viabilidade, governança ou reconhecimento UNESCO</description><Polygon><outerBoundaryIs><LinearRing><coordinates>-56.78959344519915,-21.105160808726236,0 -56.870666528232604,-21.0597794657386,0 -56.95313278416403,-21.10293376900963,0 -56.95457866055325,-21.191505591327886,0 -56.8734620080177,-21.236926776406825,0 -56.790943038288454,-21.19373622282359,0 -56.78959344519915,-21.105160808726236,0</coordinates></LinearRing></outerBoundaryIs></Polygon></Placemark><Placemark><name>IPG--12-5</name><styleUrl>#ipg</styleUrl><description>IPG 27.42 | baixo | Temas 2 | Complexos 1 | Potencial geocientífico territorial documentado. Não demonstra valor internacional, viabilidade, governança ou reconhecimento UNESCO</description><Polygon><outerBoundaryIs><LinearRing><coordinates>-55.95930280512323,-19.785062047270078,0 -56.039946565018866,-19.740067536386686,0 -56.121446957142844,-19.783637443569685,0 -56.12235161033525,-19.87223727106454,0 -56.0416654547961,-19.91726952709082,0 -55.96011703549525,-19.873664138524635,0 -55.95930280512323,-19.785062047270078,0</coordinates></LinearRing></outerBoundaryIs></Polygon></Placemark><Placemark><name>IPG--11--4</name><styleUrl>#ipg</styleUrl><description>IPG 40.53 | médio | Temas 2 | Complexos 1 | Potencial geocientífico territorial documentado. Não demonstra valor internacional, viabilidade, governança ou reconhecimento UNESCO</description><Polygon><outerBoundaryIs><LinearRing><coordinates>-56.54248516168639,-20.975341971239637,0 -56.623562748042424,-20.930075192628376,0 -56.70588165047293,-20.9733500886698,0 -56.70717488601875,-21.061927995684538,0 -56.626053519265874,-21.107234288459903,0 -56.543682688199105,-21.06392308601982,0 -56.54248516168639,-20.975341971239637,0</coordinates></LinearRing></outerBoundaryIs></Polygon></Placemark><Placemark><name>IPG--11--3</name><styleUrl>#ipg</styleUrl><description>IPG 63.83 | alto | Temas 5 | Complexos 3 | Potencial geocientífico territorial documentado. Não demonstra valor internacional, viabilidade, governança ou reconhecimento UNESCO</description><Polygon><outerBoundaryIs><LinearRing><coordinates>-56.45907131372573,-20.84340542831353,0 -56.5401052358358,-20.798177951922018,0 -56.62232523221466,-20.841494756037374,0 -56.623562748042424,-20.930075192628376,0 -56.54248516168639,-20.975341971239637,0 -56.46021371500965,-20.931988937238778,0 -56.45907131372573,-20.84340542831353,0</coordinates></LinearRing></outerBoundaryIs></Polygon></Placemark><Placemark><name>IPG--11-7</name><styleUrl>#ipg</styleUrl><description>IPG 37.25 | baixo | Temas 4 | Complexos 1 | Potencial geocientífico territorial documentado. Não demonstra valor internacional, viabilidade, governança ou reconhecimento UNESCO</description><Polygon><outerBoundaryIs><LinearRing><coordinates>-55.633130237113726,-19.521636200618218,0 -55.713734128455286,-19.4767902388564,0 -55.79500569159705,-19.520516830182412,0 -55.79572019858304,-19.609124758034223,0 -55.71507385961106,-19.654007939736776,0 -55.63375545645859,-19.61024590212558,0 -55.633130237113726,-19.521636200618218,0</coordinates></LinearRing></outerBoundaryIs></Polygon></Placemark><Placemark><name>IPG--11-20</name><styleUrl>#ipg</styleUrl><description>IPG 34.34 | baixo | Temas 3 | Complexos 1 | Potencial geocientífico territorial documentado. Não demonstra valor internacional, viabilidade, governança ou reconhecimento UNESCO</description><Polygon><outerBoundaryIs><LinearRing><coordinates>-54.580104778016604,-17.79694141395643,0 -54.6601686869265,-17.75256092128055,0 -54.740314340360285,-17.79679665606438,0 -54.74043736248294,-17.88544719831192,0 -54.660332717225984,-17.92986229981841,0 -54.580145785615116,-17.88559218149417,0 -54.580104778016604,-17.79694141395643,0</coordinates></LinearRing></outerBoundaryIs></Polygon></Placemark><Placemark><name>IPG--10--7</name><styleUrl>#ipg</styleUrl><description>IPG 36.36 | baixo | Temas 2 | Complexos 1 | Potencial geocientífico territorial documentado. Não demonstra valor internacional, viabilidade, governança ou reconhecimento UNESCO</description><Polygon><outerBoundaryIs><LinearRing><coordinates>-56.6298292655335,-21.37296923216668,0 -56.71108746408088,-21.32765868118569,0 -56.79365932901271,-21.370885693112896,0 -56.79502606174713,-21.459459848367292,0 -56.71372341072812,-21.5048104373727,0 -56.63109846968417,-21.461546758328154,0 -56.6298292655335,-21.37296923216668,0</coordinates></LinearRing></outerBoundaryIs></Polygon></Placemark><Placemark><name>IPG--10--6</name><styleUrl>#ipg</styleUrl><description>IPG 54.08 | médio | Temas 4 | Complexos 2 | Potencial geocientífico territorial documentado. Não demonstra valor internacional, viabilidade, governança ou reconhecimento UNESCO</description><Polygon><outerBoundaryIs><LinearRing><coordinates>-56.54609294524095,-21.24108377368169,0 -56.627306806624176,-21.195813046805284,0 -56.709777776063945,-21.239082242400432,0 -56.71108746408088,-21.32765868118569,0 -56.6298292655335,-21.37296923216668,0 -56.54730570681154,-21.32966344572681,0 -56.54609294524095,-21.24108377368169,0</coordinates></LinearRing></outerBoundaryIs></Polygon></Placemark><Placemark><name>IPG--10--5</name><styleUrl>#ipg</styleUrl><description>IPG 70.37 | alto | Temas 5 | Complexos 2 | Potencial geocientífico territorial documentado. Não demonstra valor internacional, viabilidade, governança ou reconhecimento UNESCO</description><Polygon><outerBoundaryIs><LinearRing><coordinates>-56.462513047578824,-21.109154202007712,0 -56.543682688199105,-21.06392308601982,0 -56.626053519265874,-21.107234288459903,0 -56.627306806624176,-21.195813046805284,0 -56.54609294524095,-21.24108377368169,0 -56.46367000837415,-21.19773605703196,0 -56.462513047578824,-21.109154202007712,0</coordinates></LinearRing></outerBoundaryIs></Polygon></Placemark><Placemark><name>IPG--10--4</name><styleUrl>#ipg</styleUrl><description>IPG 62.95 | alto | Temas 4 | Complexos 2 | Potencial geocientífico territorial documentado. Não demonstra valor internacional, viabilidade, governança ou reconhecimento UNESCO</description><Polygon><outerBoundaryIs><LinearRing><coordinates>-56.379088177677005,-20.97718065485483,0 -56.46021371500965,-20.931988937238778,0 -56.54248516168639,-20.975341971239637,0 -56.543682688199105,-21.06392308601982,0 -56.462513047578824,-21.109154202007712,0 -56.380189975272124,-21.0657647307888,0 -56.379088177677005,-20.97718065485483,0</coordinates></LinearRing></outerBoundaryIs></Polygon></Placemark><Placemark><name>IPG--9--8</name><styleUrl>#ipg</styleUrl><description>IPG 32.2 | baixo | Temas 2 | Complexos 1 | Potencial geocientífico territorial documentado. Não demonstra valor internacional, viabilidade, governança ou reconhecimento UNESCO</description><Polygon><outerBoundaryIs><LinearRing><coordinates>-56.549746574425185,-21.506821694207137,0 -56.63109846968417,-21.461546758328154,0 -56.71372341072812,-21.5048104373727,0 -56.71504970354343,-21.59338585390106,0 -56.63365290968408,-21.638700925531886,0 -56.55097471212786,-21.595400369849525,0 -56.549746574425185,-21.506821694207137,0</coordinates></LinearRing></outerBoundaryIs></Polygon></Placemark><Placemark><name>IPG--9--5</name><styleUrl>#ipg</styleUrl><description>IPG 36.36 | baixo | Temas 2 | Complexos 1 | Potencial geocientífico territorial documentado. Não demonstra valor internacional, viabilidade, governança ou reconhecimento UNESCO</description><Polygon><outerBoundaryIs><LinearRing><coordinates>-56.298972071510775,-21.110920543624918,0 -56.380189975272124,-21.0657647307888,0 -56.462513047578824,-21.109154202007712,0 -56.46367000837415,-21.19773605703196,0 -56.38240755924605,-21.242931364221608,0 -56.30003268651089,-21.199505247723614,0 -56.298972071510775,-21.110920543624918,0</coordinates></LinearRing></outerBoundaryIs></Polygon></Placemark><Placemark><name>IPG--9-15</name><styleUrl>#ipg</styleUrl><description>IPG 44.05 | médio | Temas 3 | Complexos 1 | Potencial geocientífico territorial documentado. Não demonstra valor internacional, viabilidade, governança ou reconhecimento UNESCO</description><Polygon><outerBoundaryIs><LinearRing><coordinates>-54.660833627823436,-18.461714134117674,0 -54.741187065823354,-18.41730450686556,0 -54.821667258028654,-18.461494442563872,0 -54.821836820092805,-18.550128965424353,0 -54.741441410518995,-18.594573966612497,0 -54.6609184095513,-18.550349001206662,0 -54.660833627823436,-18.461714134117674,0</coordinates></LinearRing></outerBoundaryIs></Polygon></Placemark><Placemark><name>IPG--9-16</name><styleUrl>#ipg</styleUrl><description>IPG 64.21 | alto | Temas 4 | Complexos 2 | Potencial geocientífico territorial documentado. Não demonstra valor internacional, viabilidade, governança ou reconhecimento UNESCO</description><Polygon><outerBoundaryIs><LinearRing><coordinates>-54.580353576059785,-18.328812961131714,0 -54.660665179774284,-18.284438508527145,0 -54.74106073040739,-18.32866684318085,0 -54.741187065823354,-18.41730450686556,0 -54.660833627823436,-18.461714134117674,0 -54.58039568809547,-18.41745085345169,0 -54.580353576059785,-18.328812961131714,0</coordinates></LinearRing></outerBoundaryIs></Polygon></Placemark><Placemark><name>IPG--9-17</name><styleUrl>#ipg</styleUrl><description>IPG 63.68 | alto | Temas 4 | Complexos 3 | Potencial geocientífico territorial documentado. Não demonstra valor internacional, viabilidade, governança ou reconhecimento UNESCO</description><Polygon><outerBoundaryIs><LinearRing><coordinates>-54.5,-18.195870538658838,0 -54.58026990742653,-18.151531062022375,0 -54.66058151143735,-18.19579765060789,0 -54.660665179774284,-18.284438508527145,0 -54.580353576059785,-18.328812961131714,0 -54.5,-18.28451151047337,0 -54.5,-18.195870538658838,0</coordinates></LinearRing></outerBoundaryIs></Polygon></Placemark><Placemark><name>IPG--9-18</name><styleUrl>#ipg</styleUrl><description>IPG 38.6 | baixo | Temas 3 | Complexos 1 | Potencial geocientífico territorial documentado. Não demonstra valor internacional, viabilidade, governança ou reconhecimento UNESCO</description><Polygon><outerBoundaryIs><LinearRing><coordinates>-54.41977165016865,-18.062886955809365,0 -54.5,-18.018582257066235,0 -54.58022834983135,-18.062886955809365,0 -54.58026990742653,-18.151531062022375,0 -54.5,-18.195870538658838,0 -54.41973009257347,-18.151531062022375,0 -54.41977165016865,-18.062886955809365,0</coordinates></LinearRing></outerBoundaryIs></Polygon></Placemark><Placemark><name>IPG--8--7</name><styleUrl>#ipg</styleUrl><description>IPG 43.47 | médio | Temas 3 | Complexos 2 | Potencial geocientífico territorial documentado. Não demonstra valor internacional, viabilidade, governança ou reconhecimento UNESCO</description><Polygon><outerBoundaryIs><LinearRing><coordinates>-56.30216735908883,-21.37667337184791,0 -56.38352337418868,-21.331514020957115,0 -56.46599859349356,-21.374898460362143,0 -56.46717024791589,-21.463479107890404,0 -56.38576912210291,-21.508678262612616,0 -56.30324144426198,-21.465256891166575,0 -56.30216735908883,-21.37667337184791,0</coordinates></LinearRing></outerBoundaryIs></Polygon></Placemark><Placemark><name>IPG--8-8</name><styleUrl>#ipg</styleUrl><description>IPG 37.25 | baixo | Temas 3 | Complexos 1 | Potencial geocientífico territorial documentado. Não demonstra valor internacional, viabilidade, governança ou reconhecimento UNESCO</description><Polygon><outerBoundaryIs><LinearRing><coordinates>-55.06609899627336,-19.39145506570886,0 -55.146793328437745,-19.346867520051152,0 -55.22784149141997,-19.3908594715892,0 -55.22824085430963,-19.479474626106082,0 -55.14750331627564,-19.524098842824543,0 -55.066409618668935,-19.480071162643544,0 -55.06609899627336,-19.39145506570886,0</coordinates></LinearRing></outerBoundaryIs></Polygon></Placemark><Placemark><name>IPG--8-10</name><styleUrl>#ipg</styleUrl><description>IPG 46.29 | médio | Temas 3 | Complexos 2 | Potencial geocientífico territorial documentado. Não demonstra valor internacional, viabilidade, governança ou reconhecimento UNESCO</description><Polygon><outerBoundaryIs><LinearRing><coordinates>-54.903696563663004,-19.1260425914987,0 -54.98430488706414,-19.081527778038744,0 -55.06517516041552,-19.125598004244104,0 -55.0654817709321,-19.214218536206985,0 -54.98483051057595,-19.258769614325544,0 -54.9039155747751,-19.21466382494269,0 -54.903696563663004,-19.1260425914987,0</coordinates></LinearRing></outerBoundaryIs></Polygon></Placemark><Placemark><name>IPG--8-11</name><styleUrl>#ipg</styleUrl><description>IPG 41.32 | médio | Temas 3 | Complexos 1 | Potencial geocientífico territorial documentado. Não demonstra valor internacional, viabilidade, governança ou reconhecimento UNESCO</description><Polygon><outerBoundaryIs><LinearRing><coordinates>-54.82269586624814,-18.99327409803854,0 -54.90326138832422,-18.948795346993265,0 -54.98404378422488,-18.992904482300556,0 -54.98430488706414,-19.081527778038744,0 -54.903696563663004,-19.1260425914987,0 -54.82286993719127,-19.08189797614479,0 -54.82269586624814,-18.99327409803854,0</coordinates></LinearRing></outerBoundaryIs></Polygon></Placemark><Placemark><name>IPG--8-12</name><styleUrl>#ipg</styleUrl><description>IPG 48.73 | médio | Temas 3 | Complexos 1 | Potencial geocientífico territorial documentado. Não demonstra valor internacional, viabilidade, governança ou reconhecimento UNESCO</description><Polygon><outerBoundaryIs><LinearRing><coordinates>-54.74182713520673,-18.860464232761448,0 -54.82234999234961,-18.81602134251912,0 -54.90304521879718,-18.860169236528552,0 -54.90326138832422,-18.948795346993265,0 -54.82269586624814,-18.99327409803854,0 -54.74195683834331,-18.949090807372748,0 -54.74182713520673,-18.860464232761448,0</coordinates></LinearRing></outerBoundaryIs></Polygon></Placemark><Placemark><name>IPG--8-13</name><styleUrl>#ipg</styleUrl><description>IPG 41.32 | médio | Temas 3 | Complexos 1 | Potencial geocientífico territorial documentado. Não demonstra valor internacional, viabilidade, governança ou reconhecimento UNESCO</description><Polygon><outerBoundaryIs><LinearRing><coordinates>-54.66108909350415,-18.727613092509785,0 -54.741569422852955,-18.683205862086464,0 -54.82217818519637,-18.727392365699124,0 -54.82234999234961,-18.81602134251912,0 -54.74182713520673,-18.860464232761448,0 -54.6611749977861,-18.8162424161376,0 -54.66108909350415,-18.727613092509785,0</coordinates></LinearRing></outerBoundaryIs></Polygon></Placemark><Placemark><name>IPG--8-14</name><styleUrl>#ipg</styleUrl><description>IPG 42.4 | médio | Temas 3 | Complexos 1 | Potencial geocientífico territorial documentado. Não demonstra valor internacional, viabilidade, governança ou reconhecimento UNESCO</description><Polygon><outerBoundaryIs><LinearRing><coordinates>-54.58048047012455,-18.59472077217155,0 -54.6609184095513,-18.550349001206662,0 -54.741441410518995,-18.594573966612497,0 -54.741569422852955,-18.683205862086464,0 -54.66108909350415,-18.727613092509785,0 -54.58052314113605,-18.683352897988453,0 -54.58048047012455,-18.59472077217155,0</coordinates></LinearRing></outerBoundaryIs></Polygon></Placemark><Placemark><name>IPG--8-15</name><styleUrl>#ipg</styleUrl><description>IPG 45.49 | médio | Temas 3 | Complexos 1 | Potencial geocientífico territorial documentado. Não demonstra valor internacional, viabilidade, governança ou reconhecimento UNESCO</description><Polygon><outerBoundaryIs><LinearRing><coordinates>-54.5,-18.46178736469977,0 -54.58039568809547,-18.41745085345169,0 -54.660833627823436,-18.461714134117674,0 -54.6609184095513,-18.550349001206662,0 -54.58048047012455,-18.59472077217155,0 -54.5,-18.550422346531963,0 -54.5,-18.46178736469977,0</coordinates></LinearRing></outerBoundaryIs></Polygon></Placemark><Placemark><name>IPG--7--13</name><styleUrl>#ipg</styleUrl><description>IPG 37.86 | baixo | Temas 4 | Complexos 1 | Potencial geocientífico territorial documentado. Não demonstra valor internacional, viabilidade, governança ou reconhecimento UNESCO</description><Polygon><outerBoundaryIs><LinearRing><coordinates>-56.64144569011527,-22.170159917828563,0 -56.72312502799911,-22.12483501490021,0 -56.80616838335564,-22.168045714142142,0 -56.80758750486099,-22.256618769010863,0 -56.725862015073865,-22.301984654115213,0 -56.64276354540776,-22.258736425863827,0 -56.64144569011527,-22.170159917828563,0</coordinates></LinearRing></outerBoundaryIs></Polygon></Placemark><Placemark><name>IPG--7-4</name><styleUrl>#ipg</styleUrl><description>IPG 23.51 | baixo | Temas 2 | Complexos 1 | Potencial geocientífico territorial documentado. Não demonstra valor internacional, viabilidade, governança ou reconhecimento UNESCO</description><Polygon><outerBoundaryIs><LinearRing><coordinates>-55.230263705090636,-19.922530672489266,0 -55.31117709268668,-19.877869716593075,0 -55.392544332356046,-19.921779069688828,0 -55.39304520056697,-20.01038548543193,0 -55.312087776725875,-20.055083816489276,0 -55.23067351762021,-20.01113828441314,0 -55.230263705090636,-19.922530672489266,0</coordinates></LinearRing></outerBoundaryIs></Polygon></Placemark><Placemark><name>IPG--7-8</name><styleUrl>#ipg</styleUrl><description>IPG 63.33 | alto | Temas 3 | Complexos 4 | Potencial geocientífico territorial documentado. Não demonstra valor internacional, viabilidade, governança ou reconhecimento UNESCO</description><Polygon><outerBoundaryIs><LinearRing><coordinates>-54.90435645726968,-19.391901762731017,0 -54.98509503767312,-19.347388254273728,0 -55.06609899627336,-19.39145506570886,0 -55.066409618668935,-19.48007116264354,0 -54.98562753877379,-19.524621226291288,0 -54.9045783340602,-19.48051856648753,0 -54.90435645726968,-19.391901762731017,0</coordinates></LinearRing></outerBoundaryIs></Polygon></Placemark><Placemark><name>IPG--7-9</name><styleUrl>#ipg</styleUrl><description>IPG 39.78 | baixo | Temas 3 | Complexos 1 | Potencial geocientífico territorial documentado. Não demonstra valor internacional, viabilidade, governança ou reconhecimento UNESCO</description><Polygon><outerBoundaryIs><LinearRing><coordinates>-54.823220357666216,-19.259140981573918,0 -54.9039155747751,-19.21466382494269,0 -54.98483051057595,-19.258769614325544,0 -54.98509503767312,-19.347388254273728,0 -54.90435645726968,-19.391901762731017,0 -54.82339671148128,-19.347760208309992,0 -54.823220357666216,-19.259140981573918,0</coordinates></LinearRing></outerBoundaryIs></Polygon></Placemark><Placemark><name>IPG--6-0</name><styleUrl>#ipg</styleUrl><description>IPG 23.51 | baixo | Temas 2 | Complexos 1 | Potencial geocientífico territorial documentado. Não demonstra valor internacional, viabilidade, governança ou reconhecimento UNESCO</description><Polygon><outerBoundaryIs><LinearRing><coordinates>-55.39558192129298,-20.453402264911922,0 -55.47671889189252,-20.408665656981732,0 -55.558414601390965,-20.45249167811851,0 -55.559021875973464,-20.54109086430581,0 -55.47784003529755,-20.58586556033549,0 -55.396095786022364,-20.54200290891532,0 -55.39558192129298,-20.453402264911922,0</coordinates></LinearRing></outerBoundaryIs></Polygon></Placemark><Placemark><name>IPG--6-2</name><styleUrl>#ipg</styleUrl><description>IPG 36.63 | baixo | Temas 4 | Complexos 1 | Potencial geocientífico territorial documentado. Não demonstra valor internacional, viabilidade, governança ou reconhecimento UNESCO</description><Polygon><outerBoundaryIs><LinearRing><coordinates>-55.231498425780096,-20.188350308556046,0 -55.31254605233051,-20.143689251961483,0 -55.39405339391417,-20.187595107962,0 -55.39456073168096,-20.276198414150386,0 -55.313468499416885,-20.32089714249548,0 -55.231913531745306,-20.276954820205248,0 -55.231498425780096,-20.188350308556046,0</coordinates></LinearRing></outerBoundaryIs></Polygon></Placemark><Placemark><name>IPG-0-18</name><styleUrl>#ipg</styleUrl><description>IPG 35.98 | baixo | Temas 4 | Complexos 1 | Potencial geocientífico territorial documentado. Não demonstra valor internacional, viabilidade, governança ou reconhecimento UNESCO</description><Polygon><outerBoundaryIs><LinearRing><coordinates>-52.975660125940095,-18.05634248575637,0 -53.05626135515397,-18.01269680901742,0 -53.136117175377365,-18.057651359514416,0 -53.135410835350434,-18.14628729593779,0 -53.05476560984442,-18.18996670868058,0 -52.97487072594524,-18.144976379877438,0 -52.975660125940095,-18.05634248575637,0</coordinates></LinearRing></outerBoundaryIs></Polygon></Placemark><Placemark><name>Gruta do Lago Azul</name><styleUrl>#site</styleUrl><description>Bonito | Carste, cavernas e precipitação carbonática | Geomorfologia e evolução da paisagem | Paleontologia e registro fossilífero</description><Point><coordinates>-56.591259003,-21.144765854,0</coordinates></Point></Placemark><Placemark><name>Fazenda Figueirinha</name><styleUrl>#site</styleUrl><description>Corumbá | Geomorfologia e evolução da paisagem</description><Point><coordinates>-57.652023315,-19.236133575,0</coordinates></Point></Placemark><Placemark><name>Fazenda Ressaca e Primavera</name><styleUrl>#site</styleUrl><description>Bonito | Mineralogia, petrologia e recursos minerais | Sedimentologia e processos superficiais</description><Point><coordinates>-56.588756561,-20.839170456,0</coordinates></Point></Placemark><Placemark><name>Parque Marina Gatass</name><styleUrl>#site</styleUrl><description>Corumbá | Geomorfologia e evolução da paisagem | Paleontologia e registro fossilífero</description><Point><coordinates>-57.688095093,-19.012443542,0</coordinates></Point></Placemark><Placemark><name>Baía das Garças</name><styleUrl>#site</styleUrl><description>Porto Murtinho / Bonito | Geomorfologia e evolução da paisagem</description><Point><coordinates>-56.87694444444445,-21.051944444444445,0</coordinates></Point></Placemark><Placemark><name>Morraria do Puga</name><styleUrl>#site</styleUrl><description>Corumbá | Geomorfologia e evolução da paisagem | Paleoclimas e registros glaciais</description><Point><coordinates>-57.52777777777778,-19.622222222222224,0</coordinates></Point></Placemark><Placemark><name>Anticlinal Anhumas</name><styleUrl>#site</styleUrl><description>Bonito | Paleoclimas e registros glaciais | Tectônica e geologia estrutural</description><Point><coordinates>-56.6,-21.15,0</coordinates></Point></Placemark><Placemark><name>Mina Urucum-Vale</name><styleUrl>#site</styleUrl><description>Corumbá | Mineralogia, petrologia e recursos minerais | Sedimentologia e processos superficiais</description><Point><coordinates>-57.506388888888885,-19.179722222222225,0</coordinates></Point></Placemark><Placemark><name>Antiga Mina dos Belgas</name><styleUrl>#site</styleUrl><description>Corumbá | Mineralogia, petrologia e recursos minerais</description><Point><coordinates>-57.496944444444445,-19.09805555555556,0</coordinates></Point></Placemark><Placemark><name>Afloramentos da Formação Cerradinho</name><styleUrl>#site</styleUrl><description>Bonito / Porto Murtinho | Estratigrafia e história da Terra | Sedimentologia e processos superficiais | Tectônica e geologia estrutural</description><Point><coordinates>-56.87694444444445,-21.051944444444445,0</coordinates></Point></Placemark><Placemark><name>Porto Morrinho</name><styleUrl>#site</styleUrl><description>Corumbá | Paleontologia e registro fossilífero</description><Point><coordinates>-57.43111111111111,-19.50638888888889,0</coordinates></Point></Placemark><Placemark><name>Morraria do Sul</name><styleUrl>#site</styleUrl><description>Bodoquena | Geomorfologia e evolução da paisagem | Paleontologia e registro fossilífero</description><Point><coordinates>-56.89527777777778,-20.54277777777778,0</coordinates></Point></Placemark><Placemark><name>Pedreira Saladeiro, Porto Sobramil</name><styleUrl>#site</styleUrl><description>Corumbá | Paleontologia e registro fossilífero</description><Point><coordinates>-57.61972222222222,-18.999166666666667,0</coordinates></Point></Placemark><Placemark><name>Gruta Nossa Senhora Aparecida</name><styleUrl>#site</styleUrl><description>Bonito | Carste, cavernas e precipitação carbonática | Geomorfologia e evolução da paisagem | Paleontologia e registro fossilífero</description><Point><coordinates>-56.57416666666667,-21.09055555555556,0</coordinates></Point></Placemark><Placemark><name>Gruta de São Miguel</name><styleUrl>#site</styleUrl><description>Bonito | Carste, cavernas e precipitação carbonática | Geomorfologia e evolução da paisagem</description><Point><coordinates>-56.58111111111111,-21.106944444444444,0</coordinates></Point></Placemark><Placemark><name>Abismo Anhumas</name><styleUrl>#site</styleUrl><description>Bonito | Carste, cavernas e precipitação carbonática | Geomorfologia e evolução da paisagem</description><Point><coordinates>-56.6,-21.15,0</coordinates></Point></Placemark><Placemark><name>Grutas do Mimoso</name><styleUrl>#site</styleUrl><description>Bonito | Carste, cavernas e precipitação carbonática | Geomorfologia e evolução da paisagem</description><Point><coordinates>-56.55833333333333,-20.901666666666664,0</coordinates></Point></Placemark><Placemark><name>Lagoa Misteriosa</name><styleUrl>#site</styleUrl><description>Jardim | Carste, cavernas e precipitação carbonática | Geomorfologia e evolução da paisagem | Hidrogeologia e hidrogeoquímica</description><Point><coordinates>-56.45222222222223,-21.45805555555556,0</coordinates></Point></Placemark><Placemark><name>Buraco das Araras</name><styleUrl>#site</styleUrl><description>Jardim | Carste, cavernas e precipitação carbonática | Geomorfologia e evolução da paisagem</description><Point><coordinates>-56.4,-21.48333333333333,0</coordinates></Point></Placemark><Placemark><name>Cachoeira Boca da Onça</name><styleUrl>#site</styleUrl><description>Bodoquena | Carste, cavernas e precipitação carbonática | Geomorfologia e evolução da paisagem</description><Point><coordinates>-56.70611111111111,-20.766944444444444,0</coordinates></Point></Placemark><Placemark><name>Nascentes do Rio Sucuri</name><styleUrl>#site</styleUrl><description>Bonito | Geomorfologia e evolução da paisagem | Hidrogeologia e hidrogeoquímica</description><Point><coordinates>-56.56666666666667,-21.25,0</coordinates></Point></Placemark><Placemark><name>Monumento Natural do Rio Formoso, Ilha do Padre</name><styleUrl>#site</styleUrl><description>Bonito | Carste, cavernas e precipitação carbonática | Geomorfologia e evolução da paisagem</description><Point><coordinates>-56.38805555555555,-21.119722222222222,0</coordinates></Point></Placemark><Placemark><name>Recanto Ecológico Rio da Prata</name><styleUrl>#site</styleUrl><description>Jardim | Carste, cavernas e precipitação carbonática | Geomorfologia e evolução da paisagem | Hidrogeologia e hidrogeoquímica</description><Point><coordinates>-56.43333333333333,-21.45,0</coordinates></Point></Placemark><Placemark><name>Fazenda Salesianos</name><styleUrl>#site</styleUrl><description>Corumbá | Geomorfologia e evolução da paisagem</description><Point><coordinates>-57.55888888888889,-19.16583333333333,0</coordinates></Point></Placemark><Placemark><name>Proximidade ao acesso à Aldeia São João</name><styleUrl>#site</styleUrl><description>Porto Murtinho | Geomorfologia e evolução da paisagem</description><Point><coordinates>-56.88361111111111,-21.067777777777778,0</coordinates></Point></Placemark><Placemark><name>Cachoeiras do Aquidaban</name><styleUrl>#site</styleUrl><description>Bonito | Carste, cavernas e precipitação carbonática | Geomorfologia e evolução da paisagem</description><Point><coordinates>-56.900277777777774,-21.06805555555556,0</coordinates></Point></Placemark><Placemark><name>Morro do Azeite</name><styleUrl>#site</styleUrl><description>Corumbá | Geomorfologia e evolução da paisagem</description><Point><coordinates>-57.00361111111111,-19.68777777777778,0</coordinates></Point></Placemark><Placemark><name>Morraria Urucum-Santa Cruz, Mina de Ferro e Manganês</name><styleUrl>#site</styleUrl><description>Corumbá | Geomorfologia e evolução da paisagem | Mineralogia, petrologia e recursos minerais | Sedimentologia e processos superficiais</description><Point><coordinates>-57.58027777777778,-19.21527777777778,0</coordinates></Point></Placemark><Placemark><name>Parque Ecológico das Cacimbas</name><styleUrl>#site</styleUrl><description>Corumbá | Geomorfologia e evolução da paisagem | Paleontologia e registro fossilífero</description><Point><coordinates>-57.66722222222222,-18.999166666666667,0</coordinates></Point></Placemark><Placemark><name>Escadinha e Mirante da XV</name><styleUrl>#site</styleUrl><description>Corumbá | Estratigrafia e história da Terra | Geomorfologia e evolução da paisagem | Sedimentologia e processos superficiais</description><Point><coordinates>-57.655277777777776,-18.997777777777777,0</coordinates></Point></Placemark><Placemark><name>Buraco das Abelhas</name><styleUrl>#site</styleUrl><description>Jardim | Geomorfologia e evolução da paisagem | Paleontologia e registro fossilífero</description><Point><coordinates>-56.72777777777778,-21.49055555555556,0</coordinates></Point></Placemark><Placemark><name>Gruta do Urubu Rei</name><styleUrl>#site</styleUrl><description>Bodoquena | Carste, cavernas e precipitação carbonática</description><Point><coordinates>-56.852222222222224,-20.49416666666667,0</coordinates></Point></Placemark><Placemark><name>Balneário Municipal Presidente Corrêa</name><styleUrl>#site</styleUrl><description>Bodoquena | Carste, cavernas e precipitação carbonática</description><Point><coordinates>-56.65222222222222,-20.630277777777778,0</coordinates></Point></Placemark><Placemark><name>Estância Li</name><styleUrl>#site</styleUrl><description>Bonito | Estratigrafia e história da Terra | Tectônica e geologia estrutural</description><Point><coordinates>-56.53083333333333,-20.96944444444444,0</coordinates></Point></Placemark><Placemark><name>Estância Mimosa</name><styleUrl>#site</styleUrl><description>Bonito / Bodoquena | Carste, cavernas e precipitação carbonática | Geomorfologia e evolução da paisagem</description><Point><coordinates>-56.5,-20.966666666666665,0</coordinates></Point></Placemark><Placemark><name>Mineração Horii</name><styleUrl>#site</styleUrl><description>Bonito / Bodoquena | Carste, cavernas e precipitação carbonática | Estratigrafia e história da Terra | Mineralogia, petrologia e recursos minerais</description><Point><coordinates>-56.68694444444444,-20.59777777777777,0</coordinates></Point></Placemark><Placemark><name>Tufas calcárias, MS-382</name><styleUrl>#site</styleUrl><description>Bonito | Carste, cavernas e precipitação carbonática | Paleontologia e registro fossilífero</description><Point><coordinates>-56.61972222222222,-21.02361111111111,0</coordinates></Point></Placemark><Placemark><name>Nascentes e grutas Ceita Core</name><styleUrl>#site</styleUrl><description>Bonito | Carste, cavernas e precipitação carbonática | Geomorfologia e evolução da paisagem | Hidrogeologia e hidrogeoquímica</description><Point><coordinates>-56.59305555555556,-20.84111111111111,0</coordinates></Point></Placemark><Placemark><name>Buraco do Japonês ou dos Fósseis</name><styleUrl>#site</styleUrl><description>Jardim | Geomorfologia e evolução da paisagem | Paleontologia e registro fossilífero</description><Point><coordinates>-56.66,-21.594166666666663,0</coordinates></Point></Placemark><Placemark><name>Gruta e Nascente do Rio Formoso</name><styleUrl>#site</styleUrl><description>Bonito | Carste, cavernas e precipitação carbonática | Hidrogeologia e hidrogeoquímica | Paleontologia e registro fossilífero</description><Point><coordinates>-56.63666666666666,-21.256944444444443,0</coordinates></Point></Placemark><Placemark><name>Porto Limoeiro</name><styleUrl>#site</styleUrl><description>Corumbá | Paleontologia e registro fossilífero</description><Point><coordinates>-57.632316589,-18.998399734,0</coordinates></Point></Placemark><Placemark><name>Formação Urucum</name><styleUrl>#site</styleUrl><description>Corumbá | Estratigrafia e história da Terra | Sedimentologia e processos superficiais</description><Point><coordinates>-57.677654266,-19.062187195,0</coordinates></Point></Placemark><Placemark><name>Mineração Corcal</name><styleUrl>#site</styleUrl><description>Corumbá | Paleontologia e registro fossilífero | Mineralogia, petrologia e recursos minerais</description><Point><coordinates>-57.679813385,-19.017427444,0</coordinates></Point></Placemark><Placemark><name>Porto Ladário</name><styleUrl>#site</styleUrl><description>Ladário | Paleontologia e registro fossilífero</description><Point><coordinates>-57.601287842,-19.000843048,0</coordinates></Point></Placemark><Placemark><name>Salina do Meio</name><styleUrl>#site</styleUrl><description>Corumbá | Geomorfologia e evolução da paisagem | Hidrogeologia e hidrogeoquímica | Sedimentologia e processos superficiais</description><Point><coordinates>-56.646388888888886,-18.97472222222222,0</coordinates></Point></Placemark><Placemark><name>Salina da Reserva</name><styleUrl>#site</styleUrl><description>Corumbá | Geomorfologia e evolução da paisagem | Hidrogeologia e hidrogeoquímica | Sedimentologia e processos superficiais</description><Point><coordinates>-56.62166666666667,-18.959722222222226,0</coordinates></Point></Placemark><Placemark><name>Salina da Ponta</name><styleUrl>#site</styleUrl><description>Corumbá | Geomorfologia e evolução da paisagem | Hidrogeologia e hidrogeoquímica | Sedimentologia e processos superficiais</description><Point><coordinates>-56.65916666666666,-18.98222222222222,0</coordinates></Point></Placemark><Placemark><name>Salina Pedra do Sol</name><styleUrl>#site</styleUrl><description>Corumbá | Geomorfologia e evolução da paisagem | Hidrogeologia e hidrogeoquímica | Sedimentologia e processos superficiais</description><Point><coordinates>-56.96222222222222,-19.17666666666667,0</coordinates></Point></Placemark><Placemark><name>Salina Pantanal</name><styleUrl>#site</styleUrl><description>Corumbá | Geomorfologia e evolução da paisagem | Hidrogeologia e hidrogeoquímica | Sedimentologia e processos superficiais</description><Point><coordinates>-56.55083333333333,-18.92777777777778,0</coordinates></Point></Placemark><Placemark><name>Salitrada Campo Dora</name><styleUrl>#site</styleUrl><description>Corumbá | Geomorfologia e evolução da paisagem | Hidrogeologia e hidrogeoquímica | Sedimentologia e processos superficiais</description><Point><coordinates>-56.64944444444444,-18.968055555555555,0</coordinates></Point></Placemark><Placemark><name>Lagoa salina 1 — sul da Nhecolândia</name><styleUrl>#site</styleUrl><description>Aquidauana | Estratigrafia e história da Terra | Geomorfologia e evolução da paisagem | Hidrogeologia e hidrogeoquímica | Paleoclimas e registros glaciais | Sedimentologia e processos superficiais</description><Point><coordinates>-56.3425,-19.391388888888887,0</coordinates></Point></Placemark><Placemark><name>Lagoa salina 2 — sul da Nhecolândia</name><styleUrl>#site</styleUrl><description>Aquidauana | Estratigrafia e história da Terra | Geomorfologia e evolução da paisagem | Hidrogeologia e hidrogeoquímica | Paleoclimas e registros glaciais | Sedimentologia e processos superficiais</description><Point><coordinates>-56.25388888888889,-19.33,0</coordinates></Point></Placemark><Placemark><name>Complexo de lagoas salino-alcalinas da Fazenda São Roque</name><styleUrl>#site</styleUrl><description>Aquidauana | Geomorfologia e evolução da paisagem | Hidrogeologia e hidrogeoquímica | Mineralogia, petrologia e recursos minerais | Sedimentologia e processos superficiais</description><Point><coordinates>-56.325833333333335,-19.390555555555554,0</coordinates></Point></Placemark><Placemark><name>Arrombado do Caronal</name><styleUrl>#site</styleUrl><description>Corumbá | Geomorfologia e evolução da paisagem | Sedimentologia e processos superficiais</description><Point><coordinates>-55.99666388888889,-18.264611111111112,0</coordinates></Point></Placemark><Placemark><name>Megaleque aluvial do Taboco</name><styleUrl>#site</styleUrl><description>Aquidauana / Rio Negro | Estratigrafia e história da Terra | Geomorfologia e evolução da paisagem | Sedimentologia e processos superficiais | Tectônica e geologia estrutural</description><Point><coordinates>-55.75,-19.55,0</coordinates></Point></Placemark><Placemark><name>Lago perene distal do megaleque do Taboco</name><styleUrl>#site</styleUrl><description>Aquidauana / Rio Negro | Geomorfologia e evolução da paisagem | Sedimentologia e processos superficiais</description><Point><coordinates>-56.02,-19.78,0</coordinates></Point></Placemark><Placemark><name>Anfiteatro de erosão do alto rio Taboco</name><styleUrl>#site</styleUrl><description>Corguinho / Aquidauana / Rio Negro | Estratigrafia e história da Terra | Geomorfologia e evolução da paisagem | Tectônica e geologia estrutural</description><Point><coordinates>-55.2,-19.45,0</coordinates></Point></Placemark><Placemark><name>Complexo de escarpas, platôs e morros-testemunhos da Serra de Maracaju central</name><styleUrl>#site</styleUrl><description>Aquidauana / Dois Irmãos do Buriti / Maracaju / Nioaque | Estratigrafia e história da Terra | Geomorfologia e evolução da paisagem | Mineralogia, petrologia e recursos minerais | Sedimentologia e processos superficiais</description><Point><coordinates>-55.35,-20.25,0</coordinates></Point></Placemark><Placemark><name>Sítio Paleontológico Miguel Amaral Burgueño — rio Apa</name><styleUrl>#site</styleUrl><description>Bela Vista | Estratigrafia e história da Terra | Geomorfologia e evolução da paisagem | Paleontologia e registro fossilífero | Sedimentologia e processos superficiais</description><Point><coordinates>-56.78786111111111,-22.24675,0</coordinates></Point></Placemark><Placemark><name>Corte da rodovia MS-080</name><styleUrl>#site</styleUrl><description>Rio Negro | Estratigrafia e história da Terra | Paleontologia e registro fossilífero | Sedimentologia e processos superficiais</description><Point><coordinates>-54.9927222,-19.4725361,0</coordinates></Point></Placemark><Placemark><name>Corte da rodovia MS-340</name><styleUrl>#site</styleUrl><description>Rio Negro | Estratigrafia e história da Terra | Paleontologia e registro fossilífero | Sedimentologia e processos superficiais</description><Point><coordinates>-54.9869306,-19.46465,0</coordinates></Point></Placemark><Placemark><name>Corte da rodovia MS-080</name><styleUrl>#site</styleUrl><description>Rio Negro | Estratigrafia e história da Terra | Paleontologia e registro fossilífero | Sedimentologia e processos superficiais</description><Point><coordinates>-54.9835833,-19.4144,0</coordinates></Point></Placemark><Placemark><name>Estância Nhecolândia — corte da MS-080</name><styleUrl>#site</styleUrl><description>Rio Negro | Estratigrafia e história da Terra | Paleontologia e registro fossilífero | Sedimentologia e processos superficiais</description><Point><coordinates>-54.9833111,-19.4116417,0</coordinates></Point></Placemark><Placemark><name>Corte da rodovia MS-430</name><styleUrl>#site</styleUrl><description>Rio Negro | Estratigrafia e história da Terra | Paleontologia e registro fossilífero | Sedimentologia e processos superficiais</description><Point><coordinates>-54.9582778,-19.37015,0</coordinates></Point></Placemark><Placemark><name>Corte da MS-080 próximo ao entroncamento com a MS-430</name><styleUrl>#site</styleUrl><description>Rio Negro | Estratigrafia e história da Terra | Paleontologia e registro fossilífero | Sedimentologia e processos superficiais</description><Point><coordinates>-54.9798361,-19.3893389,0</coordinates></Point></Placemark><Placemark><name>Estrada da Ponte Nova — afloramento 1</name><styleUrl>#site</styleUrl><description>Rio Negro | Estratigrafia e história da Terra | Paleontologia e registro fossilífero | Sedimentologia e processos superficiais</description><Point><coordinates>-55.0006694,-19.4378806,0</coordinates></Point></Placemark><Placemark><name>Estrada da Ponte Nova — afloramento 2</name><styleUrl>#site</styleUrl><description>Rio Negro | Estratigrafia e história da Terra | Paleontologia e registro fossilífero | Sedimentologia e processos superficiais</description><Point><coordinates>-55.0049611,-19.43625,0</coordinates></Point></Placemark><Placemark><name>Corte e ponte da rodovia MS-080</name><styleUrl>#site</styleUrl><description>Rio Negro | Estratigrafia e história da Terra | Paleontologia e registro fossilífero | Sedimentologia e processos superficiais</description><Point><coordinates>-54.9931639,-19.3607111,0</coordinates></Point></Placemark><Placemark><name>Corte da MS-080 junto a córrego</name><styleUrl>#site</styleUrl><description>Rio Negro | Estratigrafia e história da Terra | Paleontologia e registro fossilífero | Sedimentologia e processos superficiais</description><Point><coordinates>-54.9678833,-19.3050972,0</coordinates></Point></Placemark><Placemark><name>Rodovia MS-080 próximo a povoado</name><styleUrl>#site</styleUrl><description>Rio Negro | Estratigrafia e história da Terra | Paleontologia e registro fossilífero | Sedimentologia e processos superficiais</description><Point><coordinates>-54.9260528,-19.1885472,0</coordinates></Point></Placemark><Placemark><name>Margem do rio Negro junto a propriedade rural</name><styleUrl>#site</styleUrl><description>Rio Negro | Estratigrafia e história da Terra | Paleontologia e registro fossilífero | Sedimentologia e processos superficiais</description><Point><coordinates>-55.0063444,-19.4147972,0</coordinates></Point></Placemark><Placemark><name>Rio Negro a montante do MS81</name><styleUrl>#site</styleUrl><description>Rio Negro | Estratigrafia e história da Terra | Paleontologia e registro fossilífero | Sedimentologia e processos superficiais</description><Point><coordinates>-55.0059222,-19.4175611,0</coordinates></Point></Placemark><Placemark><name>Ponte da MS-080, km 87, sobre o córrego Salu</name><styleUrl>#site</styleUrl><description>Rio Negro | Estratigrafia e história da Terra | Paleontologia e registro fossilífero | Sedimentologia e processos superficiais</description><Point><coordinates>-54.9559861,-19.2764139,0</coordinates></Point></Placemark><Placemark><name>Entrada de Rio Verde — corte da BR-163</name><styleUrl>#site</styleUrl><description>Rio Verde de Mato Grosso | Estratigrafia e história da Terra | Paleontologia e registro fossilífero | Sedimentologia e processos superficiais</description><Point><coordinates>-54.8312306,-18.9320806,0</coordinates></Point></Placemark><Placemark><name>Cerâmica Campo Grande — frente de lavra</name><styleUrl>#site</styleUrl><description>Rio Verde de Mato Grosso | Estratigrafia e história da Terra | Paleontologia e registro fossilífero | Sedimentologia e processos superficiais</description><Point><coordinates>-54.8355861,-18.9384028,0</coordinates></Point></Placemark><Placemark><name>Cerâmica Campo Grande — base da pedreira</name><styleUrl>#site</styleUrl><description>Rio Verde de Mato Grosso | Estratigrafia e história da Terra | Paleontologia e registro fossilífero | Sedimentologia e processos superficiais</description><Point><coordinates>-54.8357861,-18.9400167,0</coordinates></Point></Placemark><Placemark><name>Cerâmica Campo Grande — frente oeste</name><styleUrl>#site</styleUrl><description>Rio Verde de Mato Grosso | Estratigrafia e história da Terra | Paleontologia e registro fossilífero | Sedimentologia e processos superficiais</description><Point><coordinates>-54.8369389,-18.9399028,0</coordinates></Point></Placemark><Placemark><name>Pedreira Fênix</name><styleUrl>#site</styleUrl><description>Rio Verde de Mato Grosso | Estratigrafia e história da Terra | Paleontologia e registro fossilífero | Sedimentologia e processos superficiais</description><Point><coordinates>-54.8388,-18.928675,0</coordinates></Point></Placemark><Placemark><name>Barreiro da Figueira</name><styleUrl>#site</styleUrl><description>Rio Verde de Mato Grosso | Estratigrafia e história da Terra | Paleontologia e registro fossilífero | Sedimentologia e processos superficiais</description><Point><coordinates>-54.8143444,-18.9197972,0</coordinates></Point></Placemark><Placemark><name>Antiga pedreira da mineradora Figueira</name><styleUrl>#site</styleUrl><description>Rio Verde de Mato Grosso | Estratigrafia e história da Terra | Paleontologia e registro fossilífero | Sedimentologia e processos superficiais</description><Point><coordinates>-54.7756833,-18.8373917,0</coordinates></Point></Placemark><Placemark><name>Estrada secundária — solo residual da Formação Ponta Grossa</name><styleUrl>#site</styleUrl><description>Rio Verde de Mato Grosso | Estratigrafia e história da Terra | Paleontologia e registro fossilífero | Sedimentologia e processos superficiais</description><Point><coordinates>-54.7348833,-18.8133278,0</coordinates></Point></Placemark><Placemark><name>Estrada Rio Verde–Rio Negro</name><styleUrl>#site</styleUrl><description>Rio Verde de Mato Grosso | Estratigrafia e história da Terra | Paleontologia e registro fossilífero | Sedimentologia e processos superficiais</description><Point><coordinates>-54.8653306,-19.0114222,0</coordinates></Point></Placemark><Placemark><name>Estrada Rio Verde–Rio Negro, MS-080</name><styleUrl>#site</styleUrl><description>Rio Verde de Mato Grosso | Estratigrafia e história da Terra | Paleontologia e registro fossilífero | Sedimentologia e processos superficiais</description><Point><coordinates>-54.8856111,-19.0341,0</coordinates></Point></Placemark><Placemark><name>Córrego na estrada Rio Verde–Rio Negro, MS-080</name><styleUrl>#site</styleUrl><description>Rio Verde de Mato Grosso | Estratigrafia e história da Terra | Paleontologia e registro fossilífero | Sedimentologia e processos superficiais</description><Point><coordinates>-54.9238472,-19.1351083,0</coordinates></Point></Placemark><Placemark><name>Pedreira da mineradora Rio Verde em Coxim</name><styleUrl>#site</styleUrl><description>Coxim | Estratigrafia e história da Terra | Paleontologia e registro fossilífero | Sedimentologia e processos superficiais</description><Point><coordinates>-54.5975389,-18.4689444,0</coordinates></Point></Placemark><Placemark><name>Pedreira da Cerâmica Tijopiso</name><styleUrl>#site</styleUrl><description>Coxim | Estratigrafia e história da Terra | Paleontologia e registro fossilífero | Sedimentologia e processos superficiais</description><Point><coordinates>-54.5983389,-18.4653972,0</coordinates></Point></Placemark><Placemark><name>Lajedo junto ao rio Taquari, Cachoeira das Palmeiras</name><styleUrl>#site</styleUrl><description>Coxim | Estratigrafia e história da Terra | Geomorfologia e evolução da paisagem | Paleontologia e registro fossilífero | Sedimentologia e processos superficiais</description><Point><coordinates>-54.611275,-18.3635472,0</coordinates></Point></Placemark><Placemark><name>Ponte na estrada Pedro Gomes–Coxim, córrego Olho d’Água</name><styleUrl>#site</styleUrl><description>Coxim | Estratigrafia e história da Terra | Paleontologia e registro fossilífero | Sedimentologia e processos superficiais</description><Point><coordinates>-54.6124,-18.3638056,0</coordinates></Point></Placemark><Placemark><name>Cachoeira das Palmeiras, rio Taquari</name><styleUrl>#site</styleUrl><description>Coxim | Estratigrafia e história da Terra | Geomorfologia e evolução da paisagem | Paleontologia e registro fossilífero | Sedimentologia e processos superficiais</description><Point><coordinates>-54.6124,-18.3638056,0</coordinates></Point></Placemark><Placemark><name>Córrego tributário do rio Taquari</name><styleUrl>#site</styleUrl><description>Coxim | Estratigrafia e história da Terra | Paleontologia e registro fossilífero | Sedimentologia e processos superficiais</description><Point><coordinates>-54.6302278,-18.3700944,0</coordinates></Point></Placemark><Placemark><name>A jusante da Corredeira do Sabão, rio Taquari</name><styleUrl>#site</styleUrl><description>Coxim | Estratigrafia e história da Terra | Paleontologia e registro fossilífero | Sedimentologia e processos superficiais</description><Point><coordinates>-54.6307278,-18.3820417,0</coordinates></Point></Placemark><Placemark><name>Ilhota residual na Corredeira do Sabão, rio Taquari</name><styleUrl>#site</styleUrl><description>Coxim | Estratigrafia e história da Terra | Paleontologia e registro fossilífero | Sedimentologia e processos superficiais</description><Point><coordinates>-54.630775,-18.3836417,0</coordinates></Point></Placemark><Placemark><name>Margem do rio Taquari, fazenda Cabo de Aço</name><styleUrl>#site</styleUrl><description>Coxim | Estratigrafia e história da Terra | Paleontologia e registro fossilífero | Sedimentologia e processos superficiais</description><Point><coordinates>-54.6374083,-18.41355,0</coordinates></Point></Placemark><Placemark><name>Margem do rio Taquari após a Corredeira Cabo de Aço</name><styleUrl>#site</styleUrl><description>Coxim | Estratigrafia e história da Terra | Paleontologia e registro fossilífero | Sedimentologia e processos superficiais</description><Point><coordinates>-54.6369167,-18.4229472,0</coordinates></Point></Placemark><Placemark><name>Corredeira Sumidor, rio Taquari</name><styleUrl>#site</styleUrl><description>Coxim | Estratigrafia e história da Terra | Paleontologia e registro fossilífero | Sedimentologia e processos superficiais</description><Point><coordinates>-54.6629556,-18.4783194,0</coordinates></Point></Placemark><Placemark><name>Corredeira do Caeté, acima da Cachoeira das Palmeiras</name><styleUrl>#site</styleUrl><description>Coxim | Estratigrafia e história da Terra | Geomorfologia e evolução da paisagem | Paleontologia e registro fossilífero | Sedimentologia e processos superficiais</description><Point><coordinates>-54.6085,-18.3086278,0</coordinates></Point></Placemark><Placemark><name>Corredeira Cachoeirão, rio Taquari — ponto 1</name><styleUrl>#site</styleUrl><description>Coxim | Estratigrafia e história da Terra | Geomorfologia e evolução da paisagem | Paleontologia e registro fossilífero | Sedimentologia e processos superficiais</description><Point><coordinates>-54.5804472,-18.2468306,0</coordinates></Point></Placemark><Placemark><name>Corredeira Cachoeirão — ponto Rugadiscina</name><styleUrl>#site</styleUrl><description>Coxim | Estratigrafia e história da Terra | Geomorfologia e evolução da paisagem | Paleontologia e registro fossilífero | Sedimentologia e processos superficiais</description><Point><coordinates>-54.5791444,-18.2462917,0</coordinates></Point></Placemark><Placemark><name>Rio Taquari, 150 m a montante do MS67</name><styleUrl>#site</styleUrl><description>Coxim | Estratigrafia e história da Terra | Paleontologia e registro fossilífero | Sedimentologia e processos superficiais</description><Point><coordinates>-54.576625,-18.2424667,0</coordinates></Point></Placemark><Placemark><name>Córrego a montante da Corredeira Cachoeirão</name><styleUrl>#site</styleUrl><description>Coxim | Estratigrafia e história da Terra | Geomorfologia e evolução da paisagem | Paleontologia e registro fossilífero | Sedimentologia e processos superficiais</description><Point><coordinates>-54.5677472,-18.2364889,0</coordinates></Point></Placemark><Placemark><name>Corredeira Benedita, rio Taquari</name><styleUrl>#site</styleUrl><description>Coxim | Estratigrafia e história da Terra | Paleontologia e registro fossilífero | Sedimentologia e processos superficiais</description><Point><coordinates>-54.5562,-18.2164472,0</coordinates></Point></Placemark><Placemark><name>Ponto acima da Cachoeira das Palmeiras, rio Taquari</name><styleUrl>#site</styleUrl><description>Coxim | Estratigrafia e história da Terra | Geomorfologia e evolução da paisagem | Paleontologia e registro fossilífero | Sedimentologia e processos superficiais</description><Point><coordinates>-54.6047833,-18.3600083,0</coordinates></Point></Placemark><Placemark><name>Estrada para a fazenda Torrão de Ouro</name><styleUrl>#site</styleUrl><description>Coxim | Estratigrafia e história da Terra | Paleontologia e registro fossilífero | Sedimentologia e processos superficiais</description><Point><coordinates>-54.6215972,-18.2906944,0</coordinates></Point></Placemark><Placemark><name>Córrego da Figueira, rio Taquari</name><styleUrl>#site</styleUrl><description>Coxim | Estratigrafia e história da Terra | Paleontologia e registro fossilífero | Sedimentologia e processos superficiais</description><Point><coordinates>-54.6361167,-18.4220278,0</coordinates></Point></Placemark><Placemark><name>Margem direita do Taquari a montante da Corredeira Cabo de Aço</name><styleUrl>#site</styleUrl><description>Coxim | Estratigrafia e história da Terra | Paleontologia e registro fossilífero | Sedimentologia e processos superficiais</description><Point><coordinates>-54.6357472,-18.4158583,0</coordinates></Point></Placemark><Placemark><name>Margem esquerda do Taquari, a jusante do MS69</name><styleUrl>#site</styleUrl><description>Coxim | Estratigrafia e história da Terra | Paleontologia e registro fossilífero | Sedimentologia e processos superficiais</description><Point><coordinates>-54.5708944,-18.2393028,0</coordinates></Point></Placemark><Placemark><name>Estrada secundária a sudeste de Coxim</name><styleUrl>#site</styleUrl><description>Coxim | Estratigrafia e história da Terra | Paleontologia e registro fossilífero | Sedimentologia e processos superficiais</description><Point><coordinates>-54.6431944,-18.6031389,0</coordinates></Point></Placemark><Placemark><name>Fazenda Torrão de Ouro</name><styleUrl>#site</styleUrl><description>Pedro Gomes | Estratigrafia e história da Terra | Paleontologia e registro fossilífero | Sedimentologia e processos superficiais</description><Point><coordinates>-54.4977972,-18.1644472,0</coordinates></Point></Placemark><Placemark><name>Estrada ao norte do limite Sonora–Coxim</name><styleUrl>#site</styleUrl><description>Pedro Gomes | Estratigrafia e história da Terra | Paleontologia e registro fossilífero | Sedimentologia e processos superficiais</description><Point><coordinates>-54.6393778,-17.8009222,0</coordinates></Point></Placemark><Placemark><name>Estrada ao norte do limite Sonora–Coxim, ao sul do MS58</name><styleUrl>#site</styleUrl><description>Pedro Gomes | Estratigrafia e história da Terra | Paleontologia e registro fossilífero | Sedimentologia e processos superficiais</description><Point><coordinates>-54.6427528,-17.819825,0</coordinates></Point></Placemark><Placemark><name>Saída nordeste de Pedro Gomes</name><styleUrl>#site</styleUrl><description>Pedro Gomes | Estratigrafia e história da Terra | Paleontologia e registro fossilífero | Sedimentologia e processos superficiais</description><Point><coordinates>-54.5367417,-18.0754278,0</coordinates></Point></Placemark><Placemark><name>Córrego ao norte de Pedro Gomes</name><styleUrl>#site</styleUrl><description>Pedro Gomes | Estratigrafia e história da Terra | Paleontologia e registro fossilífero | Sedimentologia e processos superficiais</description><Point><coordinates>-54.5862861,-17.8700361,0</coordinates></Point></Placemark><Placemark><name>Corredeira da rede de luz</name><styleUrl>#site</styleUrl><description>Pedro Gomes | Estratigrafia e história da Terra | Paleontologia e registro fossilífero | Sedimentologia e processos superficiais</description><Point><coordinates>-54.5659083,-18.2303028,0</coordinates></Point></Placemark><Placemark><name>Sistema de alinhamentos neotectônicos das lagoas da Nhecolândia</name><styleUrl>#site</styleUrl><description>Corumbá / Aquidauana | Geomorfologia e evolução da paisagem | Sedimentologia e processos superficiais | Tectônica e geologia estrutural</description><Point><coordinates>-56.5,-19.0,0</coordinates></Point></Placemark><Placemark><name>Cinturão de meandros inciso do alto megaleque do Taquari</name><styleUrl>#site</styleUrl><description>Coxim / Corumbá | Estratigrafia e história da Terra | Geomorfologia e evolução da paisagem | Sedimentologia e processos superficiais</description><Point><coordinates>-55.35,-18.2,0</coordinates></Point></Placemark><Placemark><name>Arrombado Zé da Costa</name><styleUrl>#site</styleUrl><description>Corumbá | Geomorfologia e evolução da paisagem | Sedimentologia e processos superficiais</description><Point><coordinates>-56.953719444444445,-18.707144444444445,0</coordinates></Point></Placemark><Placemark><name>Lobo distributário moderno do megaleque do Taquari</name><styleUrl>#site</styleUrl><description>Corumbá | Geomorfologia e evolução da paisagem | Sedimentologia e processos superficiais</description><Point><coordinates>-56.25,-18.45,0</coordinates></Point></Placemark><Placemark><name>Paleolobos e paleocanais do Paiaguás</name><styleUrl>#site</styleUrl><description>Corumbá | Geomorfologia e evolução da paisagem | Sedimentologia e processos superficiais</description><Point><coordinates>-56.35,-17.65,0</coordinates></Point></Placemark><Placemark><name>Confluência do Taquari Negrinho com o Paraguai Mirim</name><styleUrl>#site</styleUrl><description>Corumbá | Geomorfologia e evolução da paisagem | Sedimentologia e processos superficiais</description><Point><coordinates>-57.42919166666666,-18.84616388888889,0</coordinates></Point></Placemark><Placemark><name>Ruptura de relevo e corredor fluvial Piraputanga–Palmeiras</name><styleUrl>#site</styleUrl><description>Aquidauana | Estratigrafia e história da Terra | Geomorfologia e evolução da paisagem</description><Point><coordinates>-55.48,-20.45,0</coordinates></Point></Placemark><Placemark><name>Sistema erosivo das bacias Piraputangas–Antas–Morcego</name><styleUrl>#site</styleUrl><description>Aquidauana / Rio Negro | Estratigrafia e história da Terra | Geomorfologia e evolução da paisagem</description><Point><coordinates>-55.35,-19.95,0</coordinates></Point></Placemark><Placemark><name>Complexo litológico-geomorfológico do Parque Estadual das Nascentes do Rio Taquari</name><styleUrl>#site</styleUrl><description>Costa Rica / Alcinópolis | Geomorfologia e evolução da paisagem | Hidrogeologia e hidrogeoquímica | Mineralogia, petrologia e recursos minerais | Sedimentologia e processos superficiais</description><Point><coordinates>-53.0,-18.15,0</coordinates></Point></Placemark><Placemark><name>Escarpas tectônicas e gargalo fluvial da Serra do Amolar</name><styleUrl>#site</styleUrl><description>Corumbá | Geomorfologia e evolução da paisagem | Sedimentologia e processos superficiais | Tectônica e geologia estrutural</description><Point><coordinates>-57.45,-17.75,0</coordinates></Point></Placemark><Placemark><name>Deflexão estrutural do rio Paraguai junto a Corumbá</name><styleUrl>#site</styleUrl><description>Corumbá / Ladário | Geomorfologia e evolução da paisagem | Tectônica e geologia estrutural</description><Point><coordinates>-57.65,-19.0,0</coordinates></Point></Placemark><Placemark><name>Rio Verde de Mato Grosso</name><styleUrl>#activation</styleUrl><description>Ativação geocientífica continuada e documentada | Primeira edição documentada do HidroGeoDia em Mato Grosso do Sul</description><Point><coordinates>-54.8434,-18.9249,0</coordinates></Point></Placemark>
<Folder><name>Patrimônio material tombado IPHAN, snapshot 2026</name><Placemark><name>Lugar em que estiveram sepultados o Guia Lopes, o Coronel Camisão e o Tenente Coronel Juvêncio</name><description>Município: Jardim. Posição representativa na sede municipal.</description><Point><coordinates>-56.1489,-21.4799,0</coordinates></Point></Placemark><Placemark><name>Conjunto de edificações que compõem o Forte de Coimbra</name><description>Município: Corumbá. Posição representativa na sede municipal.</description><Point><coordinates>-57.651,-19.0077,0</coordinates></Point></Placemark><Placemark><name>Grutas do Lago Azul e de Nossa Senhora Aparecida</name><description>Município: Bonito. Posição representativa na sede municipal.</description><Point><coordinates>-56.4836,-21.1261,0</coordinates></Point></Placemark><Placemark><name>Conjunto Histórico, Arquitetônico e Paisagístico de Corumbá</name><description>Município: Corumbá. Posição representativa na sede municipal.</description><Point><coordinates>-57.651,-19.0077,0</coordinates></Point></Placemark><Placemark><name>Complexo ferroviário da antiga Estrada de Ferro Noroeste do Brasil, EFNOB, em Campo Grande</name><description>Município: Campo Grande. Posição representativa na sede municipal.</description><Point><coordinates>-54.6295,-20.4486,0</coordinates></Point></Placemark><Placemark><name>Ponte Ferroviária Eurico Gaspar Dutra sobre o Rio Paraguai</name><description>Município: Corumbá. Posição representativa na sede municipal.</description><Point><coordinates>-57.651,-19.0077,0</coordinates></Point></Placemark><Placemark><name>Base Fluvial de Ladário e peças de artilharia do conjunto das fortificações brasileiras</name><description>Município: Ladário. Posição representativa na sede municipal.</description><Point><coordinates>-57.5973,-19.0089,0</coordinates></Point></Placemark><Placemark><name>Forte Junqueira, conjunto das fortificações brasileiras</name><description>Município: Corumbá. Posição representativa na sede municipal.</description><Point><coordinates>-57.651,-19.0077,0</coordinates></Point></Placemark></Folder>
</Document></kml>