<?xml version="1.0" encoding="UTF-8"?>
<kml xmlns="http://www.opengis.net/kml/2.2">
  <Document>
    <name>JOAJU MS · Céu noturno · captura 09/08/2026</name>
    <description><![CDATA[
Documento de referência territorial do JOAJU MS.

Data de captura 09/08/2026.

Finalidade
Orientação territorial e comparação exploratória para pesquisa, gestão e planejamento.

Limite de uso
As camadas não constituem medição local, classificação Bortle, certificação de céu escuro nem validação automática de potencial para astroturismo.

Fontes principais
NASA EOSDIS GIBS e VIIRS Black Marble
Falchi et al. 2016 e GFZ Data Services
Earth Observation Group, Colorado School of Mines, Annual VIIRS Nighttime Lights V2.2, 2024
Distribuição COG OpenGeoHub em Zenodo para a visualização VIIRS 2024 no Atlas
    ]]></description>

    <Style id="msArea">
      <LineStyle><color>ff387a62</color><width>2</width></LineStyle>
      <PolyStyle><color>16000000</color></PolyStyle>
    </Style>

    <Folder>
      <name>Skyglow · World Atlas 2016 · GFZ</name>
      <description><![CDATA[
Fonte científica
Falchi et al. 2016, New World Atlas of Artificial Night Sky Brightness.
GFZ Data Services.
DOI 10.5880/GFZ.1.4.2016.001.
Licença CC BY-NC 4.0.

O KMZ oficial é fornecido pela GFZ para visualização rápida dos dados. O Atlas usa esta fonte como referência orientativa.
      ]]></description>
      <NetworkLink>
        <name>World Atlas 2016 · KMZ oficial</name>
        <Link>
          <href>https://datapub.gfz-potsdam.de/download/10.5880.GFZ.1.4.2016.001/NewWorldAtlas_ArtificialSkyBrightness.kmz</href>
          <refreshMode>onChange</refreshMode>
        </Link>
      </NetworkLink>
    </Folder>

    <Folder>
      <name>Radiância noturna VIIRS 2024</name>
      <Placemark>
        <name>Mato Grosso do Sul · área de visualização</name>
        <description><![CDATA[
Fonte primária
Earth Observation Group, Payne Institute for Public Policy, Colorado School of Mines.
Annual VIIRS Nighttime Lights V2.2, ano 2024.
Resolução nominal 463,83 m no catálogo Earth Engine.
Unidade da banda average em nW/sr/cm².

Visualização usada no JOAJU MS
Cloud Optimized GeoTIFF distribuído por OpenGeoHub em Zenodo, registro 17294744, derivado da série Annual VNL V2.

Arquivo de referência
nightlights.average_viirs.v21_m_500m_s_20240101_20241231_go_epsg4326_v20250904.tif

A paleta do Atlas é somente visual e não corresponde a classes de Bortle.
        ]]></description>
        <styleUrl>#msArea</styleUrl>
        <ExtendedData>
          <Data name="capture_date"><value>2026-08-09</value></Data>
          <Data name="data_year"><value>2024</value></Data>
          <Data name="source"><value>Earth Observation Group · Annual VNL V2.2</value></Data>
          <Data name="zenodo_record"><value>17294744</value></Data>
          <Data name="use"><value>orientacao_territorial</value></Data>
        </ExtendedData>
        <Polygon>
          <outerBoundaryIs><LinearRing><coordinates>
            -58.3,-24.2,0 -50.7,-24.2,0 -50.7,-17.0,0 -58.3,-17.0,0 -58.3,-24.2,0
          </coordinates></LinearRing></outerBoundaryIs>
        </Polygon>
      </Placemark>
    </Folder>

    <Folder>
      <name>Radiância noturna 2016 · NASA Black Marble</name>
      <Placemark>
        <name>Mato Grosso do Sul · área de visualização</name>
        <description><![CDATA[
Fonte
NASA EOSDIS GIBS, Suomi NPP VIIRS Black Marble.
Produto de referência VNP46A4.
DOI 10.5067/VIIRS/VNP46A4.002.

Uso no JOAJU MS
Orientação territorial sobre emissão luminosa noturna. Não representa diretamente skyglow observado no solo.
        ]]></description>
        <styleUrl>#msArea</styleUrl>
        <ExtendedData>
          <Data name="capture_date"><value>2026-08-09</value></Data>
          <Data name="data_year"><value>2016</value></Data>
          <Data name="source"><value>NASA EOSDIS GIBS · VIIRS Black Marble</value></Data>
          <Data name="use"><value>orientacao_territorial</value></Data>
        </ExtendedData>
        <Polygon>
          <outerBoundaryIs><LinearRing><coordinates>
            -58.3,-24.2,0 -50.7,-24.2,0 -50.7,-17.0,0 -58.3,-17.0,0 -58.3,-24.2,0
          </coordinates></LinearRing></outerBoundaryIs>
        </Polygon>
      </Placemark>
    </Folder>
  </Document>
</kml>
