{
  "type": "FeatureCollection",
  "name": "limite_operacional_ms_fase3_2",
  "features": [
    {
      "type": "Feature",
      "properties": {
        "nome": "Limite operacional de contingência da Fase 3.2",
        "natureza": "Envoltória cartográfica local derivada das 79 sedes municipais e dos registros geocientíficos, com margem de 50 km",
        "uso": "Somente geração estável da malha quando o serviço oficial estiver indisponível",
        "restricao": "Não substitui o limite administrativo oficial do PIN MS ou do IBGE",
        "projecao_calculo": "Lambert Azimutal Equal-Area centrada em Mato Grosso do Sul",
        "razao_concavidade": 0.29,
        "margem_km": 50,
        "area_aproximada_km2": 422833.84,
        "data_corte": "2026-08-06",
        "sha256": "6ab404e4435b32dafb3fb7a14a9ea0c8cf4c4ae40e283320cbcebbd033637f5b"
      },
      "geometry": {
        "type": "Polygon",
        "coordinates": [
          [
            [
              -57.623473017763025,
              -18.43456241690775
            ],
            [
              -57.873192130956646,
              -17.949183202198743
            ],
            [
              -57.89133033306717,
              -17.90901632124833
            ],
            [
              -57.90531995567272,
              -17.867362066343684
            ],
            [
              -57.91503264457268,
              -17.824611853245415
            ],
            [
              -57.920380437741485,
              -17.781167086335408
            ],
            [
              -57.921316471708295,
              -17.73743537549506
            ],
            [
              -57.91783529710267,
              -17.693826706486288
            ],
            [
              -57.90997280513063,
              -17.650749600906956
            ],
            [
              -57.897805770338664,
              -17.608607301440525
            ],
            [
              -57.881451018390614,
              -17.56779401745515
            ],
            [
              -57.86106423070964,
              -17.528691265049883
            ],
            [
              -57.83683840071515,
              -17.491664334419994
            ],
            [
              -57.80900195901139,
              -17.457058915939115
            ],
            [
              -57.777816587261874,
              -17.42519791465689
            ],
            [
              -57.74357474261973,
              -17.396378481007062
            ],
            [
              -57.706596916486866,
              -17.370869283431613
            ],
            [
              -57.66722865305428,
              -17.34890804637329
            ],
            [
              -57.625837354543805,
              -17.330699374686166
            ],
            [
              -57.58280890133765,
              -17.316412882983133
            ],
            [
              -57.538544116255686,
              -17.306181645793497
            ],
            [
              -57.493455103130096,
              -17.300100981663167
            ],
            [
              -56.39625271197184,
              -17.20028326173373
            ],
            [
              -56.35063112901756,
              -17.198127956228202
            ],
            [
              -56.305003479059046,
              -17.200230820399852
            ],
            [
              -56.25979763279639,
              -17.20657220748045
            ],
            [
              -56.21543760813081,
              -17.217092721558792
            ],
            [
              -56.17233967807388,
              -17.2316937597852
            ],
            [
              -56.13090854307736,
              -17.250238414836893
            ],
            [
              -56.09153360018611,
              -17.272552730133317
            ],
            [
              -56.05458534091021,
              -17.298427297279627
            ],
            [
              -56.020411909019074,
              -17.32761918226389
            ],
            [
              -55.98933584857182,
              -17.359854164057293
            ],
            [
              -55.96165107140724,
              -17.394829266485534
            ],
            [
              -55.93762007201322,
              -17.43221556157357
            ],
            [
              -55.734622990427155,
              -17.7844363584621
            ],
            [
              -55.57854784145321,
              -17.768777943990937
            ],
            [
              -55.104307004356365,
              -17.266909785976026
            ],
            [
              -55.07083346288775,
              -17.234741077559033
            ],
            [
              -55.03417615709574,
              -17.205965906303273
            ],
            [
              -54.99470605319104,
              -17.18087434697602
            ],
            [
              -54.952821955197564,
              -17.159719231235474
            ],
            [
              -54.90894652068036,
              -17.142713647579747
            ],
            [
              -54.86352205870802,
              -17.130028837172873
            ],
            [
              -54.8170061493061,
              -17.12179250475038
            ],
            [
              -54.769867124733054,
              -17.11808755995996
            ],
            [
              -54.722579453727434,
              -17.118951300549146
            ],
            [
              -54.675619070442735,
              -17.124375044796466
            ],
            [
              -54.62945869010865,
              -17.13430421652061
            ],
            [
              -54.584563153538014,
              -17.148638881918835
            ],
            [
              -54.5413848424372,
              -17.167234733406445
            ],
            [
              -54.50035920707344,
              -17.189904511578852
            ],
            [
              -54.46190044720007,
              -17.216419852421513
            ],
            [
              -54.426397386235585,
              -17.24651354297687
            ],
            [
              -54.394209577523945,
              -17.279882164866418
            ],
            [
              -54.365663680063584,
              -17.31618910138663
            ],
            [
              -54.341050139365734,
              -17.3550678803758
            ],
            [
              -54.17173388487046,
              -17.654929047178
            ],
            [
              -54.15332680296129,
              -17.691234590213508
            ],
            [
              -54.14149651678983,
              -17.72107299121311
            ],
            [
              -53.69207531536507,
              -17.85584714051734
            ],
            [
              -53.119619723376104,
              -17.712993042297903
            ],
            [
              -53.072827010704195,
              -17.7036270321099
            ],
            [
              -53.02529101184922,
              -17.698840644485234
            ],
            [
              -52.977496997013375,
              -17.698682670550053
            ],
            [
              -52.9299327955522,
              -17.703154656958777
            ],
            [
              -52.88308392973416,
              -17.712210893164446
            ],
            [
              -52.83742877007059,
              -17.725758870223125
            ],
            [
              -52.793433756285935,
              -17.743660206832438
            ],
            [
              -52.75154872759946,
              -17.765732034032304
            ],
            [
              -52.712202405336235,
              -17.791748825781337
            ],
            [
              -52.67579806997366,
              -17.821444658491444
            ],
            [
              -52.6427094735499,
              -17.854515878582248
            ],
            [
              -52.61327702690188,
              -17.89062415323238
            ],
            [
              -52.5878042994489,
              -17.929399875783286
            ],
            [
              -52.296201648402956,
              -18.42573304368585
            ],
            [
              -51.56095680325274,
              -18.696262598842633
            ],
            [
              -51.52090324727963,
              -18.71293996817397
            ],
            [
              -51.482625961616776,
              -18.73305331700568
            ],
            [
              -51.44644876434016,
              -18.756432747986743
            ],
            [
              -51.412678091955506,
              -18.782880724227745
            ],
            [
              -51.381600435682536,
              -18.812173706540175
            ],
            [
              -50.841104597434594,
              -19.367824440286437
            ],
            [
              -50.80868121509316,
              -19.40472668178333
            ],
            [
              -50.78056295423807,
              -19.44468295510152
            ],
            [
              -50.757069790484586,
              -19.487243010614847
            ],
            [
              -50.73847024992934,
              -19.53192692990553
            ],
            [
              -50.72497826054847,
              -19.578230470609295
            ],
            [
              -50.62904567528548,
              -19.990638215693128
            ],
            [
              -50.621118231494776,
              -20.034998841035357
            ],
            [
              -50.61790215968144,
              -20.07988465873824
            ],
            [
              -50.61943339166433,
              -20.124850284015555
            ],
            [
              -50.625700789870535,
              -20.169449164459536
            ],
            [
              -50.636646096353616,
              -20.21323801139957
            ],
            [
              -50.652164351726114,
              -20.25578121397224
            ],
            [
              -50.67210478630641,
              -20.296655191768895
            ],
            [
              -50.69627218086024,
              -20.335452641925958
            ],
            [
              -50.724428689157605,
              -20.37178663698432
            ],
            [
              -51.31374436923868,
              -21.053814748418397
            ],
            [
              -51.63597774721112,
              -21.505998793620947
            ],
            [
              -51.65581617699273,
              -21.53173160228385
            ],
            [
              -52.02120106635446,
              -21.970497608130813
            ],
            [
              -52.30109186329787,
              -22.414710663672043
            ],
            [
              -52.325706635476415,
              -22.44979759389835
            ],
            [
              -52.35372765423724,
              -22.482606035522835
            ],
            [
              -52.384914541147594,
              -22.51285185591922
            ],
            [
              -52.41899897638487,
              -22.540272933608943
            ],
            [
              -52.4556869978806,
              -22.56463147301924
            ],
            [
              -52.49466154565775,
              -22.585716110036326
            ],
            [
              -53.12873819118327,
              -22.891160481287777
            ],
            [
              -53.17783596007905,
              -22.91156233897113
            ],
            [
              -53.48052951207476,
              -23.018752303563325
            ],
            [
              -53.713679016277176,
              -23.59952236532132
            ],
            [
              -53.798385037735805,
              -24.019018769133254
            ],
            [
              -53.80910271213721,
              -24.0607857049169
            ],
            [
              -53.82409272192862,
              -24.101426629409985
            ],
            [
              -53.843223139432915,
              -24.140573502408653
            ],
            [
              -53.866324116770144,
              -24.177871509531116
            ],
            [
              -53.89318931181952,
              -24.21298231435786
            ],
            [
              -53.9235776666979,
              -24.245587170006164
            ],
            [
              -53.95721552607454,
              -24.27538986000441
            ],
            [
              -53.99379907861492,
              -24.302119439613136
            ],
            [
              -54.032997100856115,
              -24.325532750366474
            ],
            [
              -54.07445397893993,
              -24.34541668257507
            ],
            [
              -54.11779297994958,
              -24.361590162827014
            ],
            [
              -54.16261974119176,
              -24.373905846126977
            ],
            [
              -54.20852594271944,
              -24.38225149519952
            ],
            [
              -54.255093125774835,
              -24.38655103261572
            ],
            [
              -55.01645836882717,
              -24.42165922942137
            ],
            [
              -55.05991001265415,
              -24.421801934436672
            ],
            [
              -55.103203623601345,
              -24.41842351521524
            ],
            [
              -55.145999079202,
              -24.411550519182846
            ],
            [
              -55.53641875533721,
              -24.331894177500523
            ],
            [
              -55.58401134541101,
              -24.3197874124018
            ],
            [
              -55.630028630839284,
              -24.303353807753595
            ],
            [
              -55.674003764583205,
              -24.282760293021465
            ],
            [
              -55.715491230921366,
              -24.258215953356817
            ],
            [
              -55.75407144681942,
              -24.229969850388066
            ],
            [
              -55.78935506476724,
              -24.198308432183595
            ],
            [
              -55.82098693065863,
              -24.16355256198905
            ],
            [
              -55.84864965553185,
              -24.126054199357068
            ],
            [
              -55.872066765680955,
              -24.086192770800864
            ],
            [
              -55.89100540164484,
              -24.044371270079548
            ],
            [
              -55.90527854274708,
              -24.00101213064505
            ],
            [
              -55.914746740062284,
              -23.956552914639033
            ],
            [
              -56.0065427830803,
              -23.368724374394567
            ],
            [
              -56.10163068792657,
              -23.06475177258818
            ],
            [
              -56.11185262277564,
              -23.025490178317742
            ],
            [
              -56.15462981276278,
              -22.821198674371033
            ],
            [
              -56.52505151349701,
              -22.627024048074972
            ],
            [
              -56.546804692932824,
              -22.63860300098985
            ],
            [
              -56.58795237581572,
              -22.658145085111745
            ],
            [
              -56.63091975324894,
              -22.67396518219351
            ],
            [
              -56.675316137704534,
              -22.685919368084626
            ],
            [
              -56.720737487487305,
              -22.693898882720315
            ],
            [
              -56.76677017802581,
              -22.697831144593536
            ],
            [
              -56.81299487235087,
              -22.697680427211182
            ],
            [
              -56.858990450600864,
              -22.693448190590075
            ],
            [
              -56.90433795755459,
              -22.685173064440438
            ],
            [
              -56.94862452694974,
              -22.67293048332332
            ],
            [
              -56.99144724170217,
              -22.656831977699174
            ],
            [
              -57.03241689008929,
              -22.637024128354305
            ],
            [
              -57.07116157947491,
              -22.61368719514889
            ],
            [
              -57.10733017119248,
              -22.587033434325594
            ],
            [
              -57.140595502716835,
              -22.5573051217076
            ],
            [
              -57.305581288851414,
              -22.394846667538776
            ],
            [
              -58.06192497330974,
              -22.117888270556335
            ],
            [
              -58.105663949050545,
              -22.099354440645662
            ],
            [
              -58.14720100632599,
              -22.076865950474357
            ],
            [
              -58.18612562954047,
              -22.05064577267067
            ],
            [
              -58.2220538167617,
              -22.02095370993824
            ],
            [
              -58.25463190155301,
              -21.988083762165505
            ],
            [
              -58.283540041244585,
              -21.952361155422544
            ],
            [
              -58.30849533718844,
              -21.914139065323706
            ],
            [
              -58.32925455763351,
              -21.87379507014692
            ],
            [
              -58.345616439156416,
              -21.83172737153173
            ],
            [
              -58.357423547977305,
              -21.788350822517465
            ],
            [
              -58.36456368787651,
              -21.744092804129526
            ],
            [
              -58.36697084671271,
              -21.699388992683016
            ],
            [
              -58.364625678648515,
              -21.654679060464424
            ],
            [
              -58.35755552404924,
              -21.61040235249456
            ],
            [
              -58.345833973584625,
              -21.566993581695947
            ],
            [
              -58.32957998729748,
              -21.524878584013226
            ],
            [
              -58.308956583284534,
              -21.484470173897357
            ],
            [
              -58.28416911415462,
              -21.446164139093792
            ],
            [
              -58.2554631525894,
              -21.41033541190285
            ],
            [
              -58.22312201014012,
              -21.377334452036223
            ],
            [
              -58.1874639158686,
              -21.347483873906025
            ],
            [
              -58.148838883598984,
              -21.32107534867755
            ],
            [
              -58.10762529841445,
              -21.2983668087194
            ],
            [
              -58.06422625462952,
              -21.279579979217225
            ],
            [
              -58.019065678820326,
              -21.264898258701763
            ],
            [
              -57.972584272618874,
              -21.25446496709807
            ],
            [
              -57.37402777509475,
              -21.14797776844141
            ],
            [
              -57.37416213449427,
              -21.147418798325656
            ],
            [
              -57.37991315437848,
              -21.105567718678813
            ],
            [
              -57.381471865365505,
              -21.063394577310298
            ],
            [
              -57.375178946357934,
              -20.567104582517974
            ],
            [
              -57.43430822702377,
              -20.089537070132522
            ],
            [
              -57.591053242213455,
              -20.069750847583357
            ],
            [
              -57.635789306256505,
              -20.062016762374018
            ],
            [
              -57.679539907804106,
              -20.05029351334247
            ],
            [
              -57.7219063201481,
              -20.03468812596573
            ],
            [
              -57.762502770379605,
              -20.015342984461373
            ],
            [
              -57.80096002104092,
              -19.992434498736213
            ],
            [
              -57.83692878234464,
              -19.96617145641058
            ],
            [
              -57.870082921456834,
              -19.93679307682597
            ],
            [
              -57.90012243807034,
              -19.904566786823317
            ],
            [
              -57.9267761785606,
              -19.86978574069246
            ],
            [
              -57.94980426435175,
              -19.832766109011338
            ],
            [
              -57.96900021365355,
              -19.7938441630996
            ],
            [
              -57.98419273939131,
              -19.75337318348981
            ],
            [
              -58.10742049819443,
              -19.36700756883117
            ],
            [
              -58.122438045285065,
              -19.303665980289352
            ],
            [
              -58.15787329983218,
              -19.079906938476643
            ],
            [
              -58.162440550356365,
              -19.037519079752123
            ],
            [
              -58.1627835910547,
              -18.994913285605982
            ],
            [
              -58.158902643810634,
              -18.95246880174762
            ],
            [
              -58.150835451723076,
              -18.91056314783459
            ],
            [
              -58.1386568306941,
              -18.8695687717366
            ],
            [
              -58.12247789888953,
              -18.82984975853485
            ],
            [
              -58.102444994501965,
              -18.791758622571322
            ],
            [
              -58.0787382945594,
              -18.755633209838386
            ],
            [
              -58.05157014962684,
              -18.721793736782548
            ],
            [
              -58.021183151149245,
              -18.690539990204506
            ],
            [
              -57.98784794988579,
              -18.66214871138693
            ],
            [
              -57.95186084539962,
              -18.636871185887355
            ],
            [
              -57.931763489275625,
              -18.624098254404974
            ],
            [
              -57.69479657977177,
              -18.471907754449223
            ],
            [
              -57.65453610998317,
              -18.448681467136023
            ],
            [
              -57.623473017763025,
              -18.43456241690775
            ]
          ]
        ]
      }
    }
  ]
}