{"type":"FeatureCollection","name":"cadastur_resumo_municipal_2026","features":[{"type":"Feature","properties":{"municipio":"Água Clara","hospedagem_registros":1,"leitos_declarados":56,"agencias_registros":2,"guias_registros":0,"transportadoras_registros":1,"servicos_agencias_guias_transportadoras":3,"cadastur_nucleo_total":4,"data_captura_hospedagem":"2026-08-12T02:31:31.233Z","data_captura_servicos":"2026-08-12T02:31:32.438Z","natureza":"síntese municipal derivada de snapshots Cadastur materializados no Atlas","cobertura":"Meios de hospedagem + agências de turismo + guias de turismo + transportadoras turísticas. Não inclui alimentação nesta síntese porque o arquivo 2º trimestre de 2026 ainda não foi materializado e verificado localmente neste corte.","interpretacao":"Contagens de registros Cadastur observados. Ausência ou baixa contagem não deve ser interpretada como ausência de atividade turística.","fonte":"Ministério do Turismo — Cadastur; síntese municipal JOAJU MS","data_derivacao":"2026-09-14"},"geometry":{"type":"Point","coordinates":[-52.879,-20.4452]}},{"type":"Feature","properties":{"municipio":"Amambai","hospedagem_registros":1,"leitos_declarados":80,"agencias_registros":3,"guias_registros":0,"transportadoras_registros":1,"servicos_agencias_guias_transportadoras":4,"cadastur_nucleo_total":5,"data_captura_hospedagem":"2026-08-12T02:31:31.233Z","data_captura_servicos":"2026-08-12T02:31:32.438Z","natureza":"síntese municipal derivada de snapshots Cadastur materializados no Atlas","cobertura":"Meios de hospedagem + agências de turismo + guias de turismo + transportadoras turísticas. Não inclui alimentação nesta síntese porque o arquivo 2º trimestre de 2026 ainda não foi materializado e verificado localmente neste corte.","interpretacao":"Contagens de registros Cadastur observados. Ausência ou baixa contagem não deve ser interpretada como ausência de atividade turística.","fonte":"Ministério do Turismo — Cadastur; síntese municipal JOAJU MS","data_derivacao":"2026-09-14"},"geometry":{"type":"Point","coordinates":[-55.2253,-23.1058]}},{"type":"Feature","properties":{"municipio":"Anastácio","hospedagem_registros":0,"leitos_declarados":null,"agencias_registros":2,"guias_registros":1,"transportadoras_registros":1,"servicos_agencias_guias_transportadoras":4,"cadastur_nucleo_total":4,"data_captura_hospedagem":null,"data_captura_servicos":"2026-08-12T02:31:32.438Z","natureza":"síntese municipal derivada de snapshots Cadastur materializados no Atlas","cobertura":"Meios de hospedagem + agências de turismo + guias de turismo + transportadoras turísticas. Não inclui alimentação nesta síntese porque o arquivo 2º trimestre de 2026 ainda não foi materializado e verificado localmente neste corte.","interpretacao":"Contagens de registros Cadastur observados. Ausência ou baixa contagem não deve ser interpretada como ausência de atividade turística.","fonte":"Ministério do Turismo — Cadastur; síntese municipal JOAJU MS","data_derivacao":"2026-09-14"},"geometry":{"type":"Point","coordinates":[-55.8104,-20.4823]}},{"type":"Feature","properties":{"municipio":"Anaurilândia","hospedagem_registros":1,"leitos_declarados":50,"agencias_registros":0,"guias_registros":1,"transportadoras_registros":0,"servicos_agencias_guias_transportadoras":1,"cadastur_nucleo_total":2,"data_captura_hospedagem":"2026-08-12T02:31:31.233Z","data_captura_servicos":"2026-08-12T02:31:32.438Z","natureza":"síntese municipal derivada de snapshots Cadastur materializados no Atlas","cobertura":"Meios de hospedagem + agências de turismo + guias de turismo + transportadoras turísticas. Não inclui alimentação nesta síntese porque o arquivo 2º trimestre de 2026 ainda não foi materializado e verificado localmente neste corte.","interpretacao":"Contagens de registros Cadastur observados. Ausência ou baixa contagem não deve ser interpretada como ausência de atividade turística.","fonte":"Ministério do Turismo — Cadastur; síntese municipal JOAJU MS","data_derivacao":"2026-09-14"},"geometry":{"type":"Point","coordinates":[-52.7191,-22.1852]}},{"type":"Feature","properties":{"municipio":"Angélica","hospedagem_registros":0,"leitos_declarados":null,"agencias_registros":0,"guias_registros":0,"transportadoras_registros":2,"servicos_agencias_guias_transportadoras":2,"cadastur_nucleo_total":2,"data_captura_hospedagem":null,"data_captura_servicos":"2026-08-12T02:31:32.438Z","natureza":"síntese municipal derivada de snapshots Cadastur materializados no Atlas","cobertura":"Meios de hospedagem + agências de turismo + guias de turismo + transportadoras turísticas. Não inclui alimentação nesta síntese porque o arquivo 2º trimestre de 2026 ainda não foi materializado e verificado localmente neste corte.","interpretacao":"Contagens de registros Cadastur observados. Ausência ou baixa contagem não deve ser interpretada como ausência de atividade turística.","fonte":"Ministério do Turismo — Cadastur; síntese municipal JOAJU MS","data_derivacao":"2026-09-14"},"geometry":{"type":"Point","coordinates":[-53.7708,-22.1527]}},{"type":"Feature","properties":{"municipio":"Aparecida do Taboado","hospedagem_registros":7,"leitos_declarados":451,"agencias_registros":6,"guias_registros":0,"transportadoras_registros":2,"servicos_agencias_guias_transportadoras":8,"cadastur_nucleo_total":15,"data_captura_hospedagem":"2026-08-12T02:31:31.233Z","data_captura_servicos":"2026-08-12T02:31:32.438Z","natureza":"síntese municipal derivada de snapshots Cadastur materializados no Atlas","cobertura":"Meios de hospedagem + agências de turismo + guias de turismo + transportadoras turísticas. Não inclui alimentação nesta síntese porque o arquivo 2º trimestre de 2026 ainda não foi materializado e verificado localmente neste corte.","interpretacao":"Contagens de registros Cadastur observados. Ausência ou baixa contagem não deve ser interpretada como ausência de atividade turística.","fonte":"Ministério do Turismo — Cadastur; síntese municipal JOAJU MS","data_derivacao":"2026-09-14"},"geometry":{"type":"Point","coordinates":[-51.0961,-20.0873]}},{"type":"Feature","properties":{"municipio":"Aquidauana","hospedagem_registros":13,"leitos_declarados":522,"agencias_registros":5,"guias_registros":3,"transportadoras_registros":2,"servicos_agencias_guias_transportadoras":10,"cadastur_nucleo_total":23,"data_captura_hospedagem":"2026-08-12T02:31:31.233Z","data_captura_servicos":"2026-08-12T02:31:32.438Z","natureza":"síntese municipal derivada de snapshots Cadastur materializados no Atlas","cobertura":"Meios de hospedagem + agências de turismo + guias de turismo + transportadoras turísticas. Não inclui alimentação nesta síntese porque o arquivo 2º trimestre de 2026 ainda não foi materializado e verificado localmente neste corte.","interpretacao":"Contagens de registros Cadastur observados. Ausência ou baixa contagem não deve ser interpretada como ausência de atividade turística.","fonte":"Ministério do Turismo — Cadastur; síntese municipal JOAJU MS","data_derivacao":"2026-09-14"},"geometry":{"type":"Point","coordinates":[-55.7868,-20.4666]}},{"type":"Feature","properties":{"municipio":"Aral Moreira","hospedagem_registros":0,"leitos_declarados":null,"agencias_registros":0,"guias_registros":0,"transportadoras_registros":1,"servicos_agencias_guias_transportadoras":1,"cadastur_nucleo_total":1,"data_captura_hospedagem":null,"data_captura_servicos":"2026-08-12T02:31:32.438Z","natureza":"síntese municipal derivada de snapshots Cadastur materializados no Atlas","cobertura":"Meios de hospedagem + agências de turismo + guias de turismo + transportadoras turísticas. Não inclui alimentação nesta síntese porque o arquivo 2º trimestre de 2026 ainda não foi materializado e verificado localmente neste corte.","interpretacao":"Contagens de registros Cadastur observados. Ausência ou baixa contagem não deve ser interpretada como ausência de atividade turística.","fonte":"Ministério do Turismo — Cadastur; síntese municipal JOAJU MS","data_derivacao":"2026-09-14"},"geometry":{"type":"Point","coordinates":[-55.6334,-22.9385]}},{"type":"Feature","properties":{"municipio":"Bataguassu","hospedagem_registros":3,"leitos_declarados":386,"agencias_registros":1,"guias_registros":0,"transportadoras_registros":4,"servicos_agencias_guias_transportadoras":5,"cadastur_nucleo_total":8,"data_captura_hospedagem":"2026-08-12T02:31:31.233Z","data_captura_servicos":"2026-08-12T02:31:32.438Z","natureza":"síntese municipal derivada de snapshots Cadastur materializados no Atlas","cobertura":"Meios de hospedagem + agências de turismo + guias de turismo + transportadoras turísticas. Não inclui alimentação nesta síntese porque o arquivo 2º trimestre de 2026 ainda não foi materializado e verificado localmente neste corte.","interpretacao":"Contagens de registros Cadastur observados. Ausência ou baixa contagem não deve ser interpretada como ausência de atividade turística.","fonte":"Ministério do Turismo — Cadastur; síntese municipal JOAJU MS","data_derivacao":"2026-09-14"},"geometry":{"type":"Point","coordinates":[-52.4221,-21.7159]}},{"type":"Feature","properties":{"municipio":"Batayporã","hospedagem_registros":0,"leitos_declarados":null,"agencias_registros":0,"guias_registros":0,"transportadoras_registros":1,"servicos_agencias_guias_transportadoras":1,"cadastur_nucleo_total":1,"data_captura_hospedagem":null,"data_captura_servicos":"2026-08-12T02:31:32.438Z","natureza":"síntese municipal derivada de snapshots Cadastur materializados no Atlas","cobertura":"Meios de hospedagem + agências de turismo + guias de turismo + transportadoras turísticas. Não inclui alimentação nesta síntese porque o arquivo 2º trimestre de 2026 ainda não foi materializado e verificado localmente neste corte.","interpretacao":"Contagens de registros Cadastur observados. Ausência ou baixa contagem não deve ser interpretada como ausência de atividade turística.","fonte":"Ministério do Turismo — Cadastur; síntese municipal JOAJU MS","data_derivacao":"2026-09-14"},"geometry":{"type":"Point","coordinates":[-53.2705,-22.2944]}},{"type":"Feature","properties":{"municipio":"Bela Vista","hospedagem_registros":5,"leitos_declarados":236,"agencias_registros":0,"guias_registros":0,"transportadoras_registros":0,"servicos_agencias_guias_transportadoras":0,"cadastur_nucleo_total":5,"data_captura_hospedagem":"2026-08-12T02:31:31.233Z","data_captura_servicos":null,"natureza":"síntese municipal derivada de snapshots Cadastur materializados no Atlas","cobertura":"Meios de hospedagem + agências de turismo + guias de turismo + transportadoras turísticas. Não inclui alimentação nesta síntese porque o arquivo 2º trimestre de 2026 ainda não foi materializado e verificado localmente neste corte.","interpretacao":"Contagens de registros Cadastur observados. Ausência ou baixa contagem não deve ser interpretada como ausência de atividade turística.","fonte":"Ministério do Turismo — Cadastur; síntese municipal JOAJU MS","data_derivacao":"2026-09-14"},"geometry":{"type":"Point","coordinates":[-56.5263,-22.1073]}},{"type":"Feature","properties":{"municipio":"Bodoquena","hospedagem_registros":9,"leitos_declarados":291,"agencias_registros":6,"guias_registros":24,"transportadoras_registros":0,"servicos_agencias_guias_transportadoras":30,"cadastur_nucleo_total":39,"data_captura_hospedagem":"2026-08-12T02:31:31.233Z","data_captura_servicos":"2026-08-12T02:31:32.438Z","natureza":"síntese municipal derivada de snapshots Cadastur materializados no Atlas","cobertura":"Meios de hospedagem + agências de turismo + guias de turismo + transportadoras turísticas. Não inclui alimentação nesta síntese porque o arquivo 2º trimestre de 2026 ainda não foi materializado e verificado localmente neste corte.","interpretacao":"Contagens de registros Cadastur observados. Ausência ou baixa contagem não deve ser interpretada como ausência de atividade turística.","fonte":"Ministério do Turismo — Cadastur; síntese municipal JOAJU MS","data_derivacao":"2026-09-14"},"geometry":{"type":"Point","coordinates":[-56.7127,-20.537]}},{"type":"Feature","properties":{"municipio":"Bonito","hospedagem_registros":44,"leitos_declarados":4278,"agencias_registros":73,"guias_registros":246,"transportadoras_registros":26,"servicos_agencias_guias_transportadoras":345,"cadastur_nucleo_total":389,"data_captura_hospedagem":"2026-08-12T02:31:31.233Z","data_captura_servicos":"2026-08-12T02:31:32.438Z","natureza":"síntese municipal derivada de snapshots Cadastur materializados no Atlas","cobertura":"Meios de hospedagem + agências de turismo + guias de turismo + transportadoras turísticas. Não inclui alimentação nesta síntese porque o arquivo 2º trimestre de 2026 ainda não foi materializado e verificado localmente neste corte.","interpretacao":"Contagens de registros Cadastur observados. Ausência ou baixa contagem não deve ser interpretada como ausência de atividade turística.","fonte":"Ministério do Turismo — Cadastur; síntese municipal JOAJU MS","data_derivacao":"2026-09-14"},"geometry":{"type":"Point","coordinates":[-56.4836,-21.1261]}},{"type":"Feature","properties":{"municipio":"Brasilândia","hospedagem_registros":2,"leitos_declarados":92,"agencias_registros":0,"guias_registros":0,"transportadoras_registros":2,"servicos_agencias_guias_transportadoras":2,"cadastur_nucleo_total":4,"data_captura_hospedagem":"2026-08-12T02:31:31.233Z","data_captura_servicos":"2026-08-12T02:31:32.438Z","natureza":"síntese municipal derivada de snapshots Cadastur materializados no Atlas","cobertura":"Meios de hospedagem + agências de turismo + guias de turismo + transportadoras turísticas. Não inclui alimentação nesta síntese porque o arquivo 2º trimestre de 2026 ainda não foi materializado e verificado localmente neste corte.","interpretacao":"Contagens de registros Cadastur observados. Ausência ou baixa contagem não deve ser interpretada como ausência de atividade turística.","fonte":"Ministério do Turismo — Cadastur; síntese municipal JOAJU MS","data_derivacao":"2026-09-14"},"geometry":{"type":"Point","coordinates":[-52.0365,-21.2544]}},{"type":"Feature","properties":{"municipio":"Caarapó","hospedagem_registros":0,"leitos_declarados":null,"agencias_registros":3,"guias_registros":1,"transportadoras_registros":4,"servicos_agencias_guias_transportadoras":8,"cadastur_nucleo_total":8,"data_captura_hospedagem":null,"data_captura_servicos":"2026-08-12T02:31:32.438Z","natureza":"síntese municipal derivada de snapshots Cadastur materializados no Atlas","cobertura":"Meios de hospedagem + agências de turismo + guias de turismo + transportadoras turísticas. Não inclui alimentação nesta síntese porque o arquivo 2º trimestre de 2026 ainda não foi materializado e verificado localmente neste corte.","interpretacao":"Contagens de registros Cadastur observados. Ausência ou baixa contagem não deve ser interpretada como ausência de atividade turística.","fonte":"Ministério do Turismo — Cadastur; síntese municipal JOAJU MS","data_derivacao":"2026-09-14"},"geometry":{"type":"Point","coordinates":[-54.8209,-22.6368]}},{"type":"Feature","properties":{"municipio":"Camapuã","hospedagem_registros":1,"leitos_declarados":106,"agencias_registros":0,"guias_registros":0,"transportadoras_registros":0,"servicos_agencias_guias_transportadoras":0,"cadastur_nucleo_total":1,"data_captura_hospedagem":"2026-08-12T02:31:31.233Z","data_captura_servicos":null,"natureza":"síntese municipal derivada de snapshots Cadastur materializados no Atlas","cobertura":"Meios de hospedagem + agências de turismo + guias de turismo + transportadoras turísticas. Não inclui alimentação nesta síntese porque o arquivo 2º trimestre de 2026 ainda não foi materializado e verificado localmente neste corte.","interpretacao":"Contagens de registros Cadastur observados. Ausência ou baixa contagem não deve ser interpretada como ausência de atividade turística.","fonte":"Ministério do Turismo — Cadastur; síntese municipal JOAJU MS","data_derivacao":"2026-09-14"},"geometry":{"type":"Point","coordinates":[-54.0431,-19.5347]}},{"type":"Feature","properties":{"municipio":"Campo Grande","hospedagem_registros":34,"leitos_declarados":5426,"agencias_registros":253,"guias_registros":80,"transportadoras_registros":75,"servicos_agencias_guias_transportadoras":408,"cadastur_nucleo_total":442,"data_captura_hospedagem":"2026-08-12T02:31:31.233Z","data_captura_servicos":"2026-08-12T02:31:32.438Z","natureza":"síntese municipal derivada de snapshots Cadastur materializados no Atlas","cobertura":"Meios de hospedagem + agências de turismo + guias de turismo + transportadoras turísticas. Não inclui alimentação nesta síntese porque o arquivo 2º trimestre de 2026 ainda não foi materializado e verificado localmente neste corte.","interpretacao":"Contagens de registros Cadastur observados. Ausência ou baixa contagem não deve ser interpretada como ausência de atividade turística.","fonte":"Ministério do Turismo — Cadastur; síntese municipal JOAJU MS","data_derivacao":"2026-09-14"},"geometry":{"type":"Point","coordinates":[-54.6295,-20.4486]}},{"type":"Feature","properties":{"municipio":"Cassilândia","hospedagem_registros":1,"leitos_declarados":55,"agencias_registros":2,"guias_registros":0,"transportadoras_registros":5,"servicos_agencias_guias_transportadoras":7,"cadastur_nucleo_total":8,"data_captura_hospedagem":"2026-08-12T02:31:31.233Z","data_captura_servicos":"2026-08-12T02:31:32.438Z","natureza":"síntese municipal derivada de snapshots Cadastur materializados no Atlas","cobertura":"Meios de hospedagem + agências de turismo + guias de turismo + transportadoras turísticas. Não inclui alimentação nesta síntese porque o arquivo 2º trimestre de 2026 ainda não foi materializado e verificado localmente neste corte.","interpretacao":"Contagens de registros Cadastur observados. Ausência ou baixa contagem não deve ser interpretada como ausência de atividade turística.","fonte":"Ministério do Turismo — Cadastur; síntese municipal JOAJU MS","data_derivacao":"2026-09-14"},"geometry":{"type":"Point","coordinates":[-51.7313,-19.1179]}},{"type":"Feature","properties":{"municipio":"Chapadão do Sul","hospedagem_registros":6,"leitos_declarados":394,"agencias_registros":1,"guias_registros":0,"transportadoras_registros":3,"servicos_agencias_guias_transportadoras":4,"cadastur_nucleo_total":10,"data_captura_hospedagem":"2026-08-12T02:31:31.233Z","data_captura_servicos":"2026-08-12T02:31:32.438Z","natureza":"síntese municipal derivada de snapshots Cadastur materializados no Atlas","cobertura":"Meios de hospedagem + agências de turismo + guias de turismo + transportadoras turísticas. Não inclui alimentação nesta síntese porque o arquivo 2º trimestre de 2026 ainda não foi materializado e verificado localmente neste corte.","interpretacao":"Contagens de registros Cadastur observados. Ausência ou baixa contagem não deve ser interpretada como ausência de atividade turística.","fonte":"Ministério do Turismo — Cadastur; síntese municipal JOAJU MS","data_derivacao":"2026-09-14"},"geometry":{"type":"Point","coordinates":[-52.6263,-18.788]}},{"type":"Feature","properties":{"municipio":"Corguinho","hospedagem_registros":0,"leitos_declarados":null,"agencias_registros":1,"guias_registros":0,"transportadoras_registros":0,"servicos_agencias_guias_transportadoras":1,"cadastur_nucleo_total":1,"data_captura_hospedagem":null,"data_captura_servicos":"2026-08-12T02:31:32.438Z","natureza":"síntese municipal derivada de snapshots Cadastur materializados no Atlas","cobertura":"Meios de hospedagem + agências de turismo + guias de turismo + transportadoras turísticas. Não inclui alimentação nesta síntese porque o arquivo 2º trimestre de 2026 ainda não foi materializado e verificado localmente neste corte.","interpretacao":"Contagens de registros Cadastur observados. Ausência ou baixa contagem não deve ser interpretada como ausência de atividade turística.","fonte":"Ministério do Turismo — Cadastur; síntese municipal JOAJU MS","data_derivacao":"2026-09-14"},"geometry":{"type":"Point","coordinates":[-54.8281,-19.8243]}},{"type":"Feature","properties":{"municipio":"Coronel Sapucaia","hospedagem_registros":0,"leitos_declarados":null,"agencias_registros":0,"guias_registros":0,"transportadoras_registros":2,"servicos_agencias_guias_transportadoras":2,"cadastur_nucleo_total":2,"data_captura_hospedagem":null,"data_captura_servicos":"2026-08-12T02:31:32.438Z","natureza":"síntese municipal derivada de snapshots Cadastur materializados no Atlas","cobertura":"Meios de hospedagem + agências de turismo + guias de turismo + transportadoras turísticas. Não inclui alimentação nesta síntese porque o arquivo 2º trimestre de 2026 ainda não foi materializado e verificado localmente neste corte.","interpretacao":"Contagens de registros Cadastur observados. Ausência ou baixa contagem não deve ser interpretada como ausência de atividade turística.","fonte":"Ministério do Turismo — Cadastur; síntese municipal JOAJU MS","data_derivacao":"2026-09-14"},"geometry":{"type":"Point","coordinates":[-55.5278,-23.2724]}},{"type":"Feature","properties":{"municipio":"Corumbá","hospedagem_registros":31,"leitos_declarados":2213,"agencias_registros":30,"guias_registros":5,"transportadoras_registros":14,"servicos_agencias_guias_transportadoras":49,"cadastur_nucleo_total":80,"data_captura_hospedagem":"2026-08-12T02:31:31.233Z","data_captura_servicos":"2026-08-12T02:31:32.438Z","natureza":"síntese municipal derivada de snapshots Cadastur materializados no Atlas","cobertura":"Meios de hospedagem + agências de turismo + guias de turismo + transportadoras turísticas. Não inclui alimentação nesta síntese porque o arquivo 2º trimestre de 2026 ainda não foi materializado e verificado localmente neste corte.","interpretacao":"Contagens de registros Cadastur observados. Ausência ou baixa contagem não deve ser interpretada como ausência de atividade turística.","fonte":"Ministério do Turismo — Cadastur; síntese municipal JOAJU MS","data_derivacao":"2026-09-14"},"geometry":{"type":"Point","coordinates":[-57.651,-19.0077]}},{"type":"Feature","properties":{"municipio":"Costa Rica","hospedagem_registros":3,"leitos_declarados":163,"agencias_registros":2,"guias_registros":0,"transportadoras_registros":2,"servicos_agencias_guias_transportadoras":4,"cadastur_nucleo_total":7,"data_captura_hospedagem":"2026-08-12T02:31:31.233Z","data_captura_servicos":"2026-08-12T02:31:32.438Z","natureza":"síntese municipal derivada de snapshots Cadastur materializados no Atlas","cobertura":"Meios de hospedagem + agências de turismo + guias de turismo + transportadoras turísticas. Não inclui alimentação nesta síntese porque o arquivo 2º trimestre de 2026 ainda não foi materializado e verificado localmente neste corte.","interpretacao":"Contagens de registros Cadastur observados. Ausência ou baixa contagem não deve ser interpretada como ausência de atividade turística.","fonte":"Ministério do Turismo — Cadastur; síntese municipal JOAJU MS","data_derivacao":"2026-09-14"},"geometry":{"type":"Point","coordinates":[-53.1287,-18.5432]}},{"type":"Feature","properties":{"municipio":"Coxim","hospedagem_registros":3,"leitos_declarados":186,"agencias_registros":3,"guias_registros":0,"transportadoras_registros":1,"servicos_agencias_guias_transportadoras":4,"cadastur_nucleo_total":7,"data_captura_hospedagem":"2026-08-12T02:31:31.233Z","data_captura_servicos":"2026-08-12T02:31:32.438Z","natureza":"síntese municipal derivada de snapshots Cadastur materializados no Atlas","cobertura":"Meios de hospedagem + agências de turismo + guias de turismo + transportadoras turísticas. Não inclui alimentação nesta síntese porque o arquivo 2º trimestre de 2026 ainda não foi materializado e verificado localmente neste corte.","interpretacao":"Contagens de registros Cadastur observados. Ausência ou baixa contagem não deve ser interpretada como ausência de atividade turística.","fonte":"Ministério do Turismo — Cadastur; síntese municipal JOAJU MS","data_derivacao":"2026-09-14"},"geometry":{"type":"Point","coordinates":[-54.751,-18.5013]}},{"type":"Feature","properties":{"municipio":"Deodápolis","hospedagem_registros":0,"leitos_declarados":null,"agencias_registros":0,"guias_registros":0,"transportadoras_registros":3,"servicos_agencias_guias_transportadoras":3,"cadastur_nucleo_total":3,"data_captura_hospedagem":null,"data_captura_servicos":"2026-08-12T02:31:32.438Z","natureza":"síntese municipal derivada de snapshots Cadastur materializados no Atlas","cobertura":"Meios de hospedagem + agências de turismo + guias de turismo + transportadoras turísticas. Não inclui alimentação nesta síntese porque o arquivo 2º trimestre de 2026 ainda não foi materializado e verificado localmente neste corte.","interpretacao":"Contagens de registros Cadastur observados. Ausência ou baixa contagem não deve ser interpretada como ausência de atividade turística.","fonte":"Ministério do Turismo — Cadastur; síntese municipal JOAJU MS","data_derivacao":"2026-09-14"},"geometry":{"type":"Point","coordinates":[-54.1682,-22.2763]}},{"type":"Feature","properties":{"municipio":"Dourados","hospedagem_registros":11,"leitos_declarados":1713,"agencias_registros":29,"guias_registros":2,"transportadoras_registros":9,"servicos_agencias_guias_transportadoras":40,"cadastur_nucleo_total":51,"data_captura_hospedagem":"2026-08-12T02:31:31.233Z","data_captura_servicos":"2026-08-12T02:31:32.438Z","natureza":"síntese municipal derivada de snapshots Cadastur materializados no Atlas","cobertura":"Meios de hospedagem + agências de turismo + guias de turismo + transportadoras turísticas. Não inclui alimentação nesta síntese porque o arquivo 2º trimestre de 2026 ainda não foi materializado e verificado localmente neste corte.","interpretacao":"Contagens de registros Cadastur observados. Ausência ou baixa contagem não deve ser interpretada como ausência de atividade turística.","fonte":"Ministério do Turismo — Cadastur; síntese municipal JOAJU MS","data_derivacao":"2026-09-14"},"geometry":{"type":"Point","coordinates":[-54.812,-22.2231]}},{"type":"Feature","properties":{"municipio":"Eldorado","hospedagem_registros":1,"leitos_declarados":50,"agencias_registros":0,"guias_registros":0,"transportadoras_registros":1,"servicos_agencias_guias_transportadoras":1,"cadastur_nucleo_total":2,"data_captura_hospedagem":"2026-08-12T02:31:31.233Z","data_captura_servicos":"2026-08-12T02:31:32.438Z","natureza":"síntese municipal derivada de snapshots Cadastur materializados no Atlas","cobertura":"Meios de hospedagem + agências de turismo + guias de turismo + transportadoras turísticas. Não inclui alimentação nesta síntese porque o arquivo 2º trimestre de 2026 ainda não foi materializado e verificado localmente neste corte.","interpretacao":"Contagens de registros Cadastur observados. Ausência ou baixa contagem não deve ser interpretada como ausência de atividade turística.","fonte":"Ministério do Turismo — Cadastur; síntese municipal JOAJU MS","data_derivacao":"2026-09-14"},"geometry":{"type":"Point","coordinates":[-54.2838,-23.7868]}},{"type":"Feature","properties":{"municipio":"Fátima do Sul","hospedagem_registros":0,"leitos_declarados":null,"agencias_registros":0,"guias_registros":0,"transportadoras_registros":1,"servicos_agencias_guias_transportadoras":1,"cadastur_nucleo_total":1,"data_captura_hospedagem":null,"data_captura_servicos":"2026-08-12T02:31:32.438Z","natureza":"síntese municipal derivada de snapshots Cadastur materializados no Atlas","cobertura":"Meios de hospedagem + agências de turismo + guias de turismo + transportadoras turísticas. Não inclui alimentação nesta síntese porque o arquivo 2º trimestre de 2026 ainda não foi materializado e verificado localmente neste corte.","interpretacao":"Contagens de registros Cadastur observados. Ausência ou baixa contagem não deve ser interpretada como ausência de atividade turística.","fonte":"Ministério do Turismo — Cadastur; síntese municipal JOAJU MS","data_derivacao":"2026-09-14"},"geometry":{"type":"Point","coordinates":[-54.5131,-22.3789]}},{"type":"Feature","properties":{"municipio":"Glória de Dourados","hospedagem_registros":2,"leitos_declarados":102,"agencias_registros":1,"guias_registros":0,"transportadoras_registros":2,"servicos_agencias_guias_transportadoras":3,"cadastur_nucleo_total":5,"data_captura_hospedagem":"2026-08-12T02:31:31.233Z","data_captura_servicos":"2026-08-12T02:31:32.438Z","natureza":"síntese municipal derivada de snapshots Cadastur materializados no Atlas","cobertura":"Meios de hospedagem + agências de turismo + guias de turismo + transportadoras turísticas. Não inclui alimentação nesta síntese porque o arquivo 2º trimestre de 2026 ainda não foi materializado e verificado localmente neste corte.","interpretacao":"Contagens de registros Cadastur observados. Ausência ou baixa contagem não deve ser interpretada como ausência de atividade turística.","fonte":"Ministério do Turismo — Cadastur; síntese municipal JOAJU MS","data_derivacao":"2026-09-14"},"geometry":{"type":"Point","coordinates":[-54.2335,-22.4136]}},{"type":"Feature","properties":{"municipio":"Guia Lopes da Laguna","hospedagem_registros":0,"leitos_declarados":null,"agencias_registros":0,"guias_registros":2,"transportadoras_registros":0,"servicos_agencias_guias_transportadoras":2,"cadastur_nucleo_total":2,"data_captura_hospedagem":null,"data_captura_servicos":"2026-08-12T02:31:32.438Z","natureza":"síntese municipal derivada de snapshots Cadastur materializados no Atlas","cobertura":"Meios de hospedagem + agências de turismo + guias de turismo + transportadoras turísticas. Não inclui alimentação nesta síntese porque o arquivo 2º trimestre de 2026 ainda não foi materializado e verificado localmente neste corte.","interpretacao":"Contagens de registros Cadastur observados. Ausência ou baixa contagem não deve ser interpretada como ausência de atividade turística.","fonte":"Ministério do Turismo — Cadastur; síntese municipal JOAJU MS","data_derivacao":"2026-09-14"},"geometry":{"type":"Point","coordinates":[-56.1117,-21.4583]}},{"type":"Feature","properties":{"municipio":"Iguatemi","hospedagem_registros":0,"leitos_declarados":null,"agencias_registros":1,"guias_registros":0,"transportadoras_registros":2,"servicos_agencias_guias_transportadoras":3,"cadastur_nucleo_total":3,"data_captura_hospedagem":null,"data_captura_servicos":"2026-08-12T02:31:32.438Z","natureza":"síntese municipal derivada de snapshots Cadastur materializados no Atlas","cobertura":"Meios de hospedagem + agências de turismo + guias de turismo + transportadoras turísticas. Não inclui alimentação nesta síntese porque o arquivo 2º trimestre de 2026 ainda não foi materializado e verificado localmente neste corte.","interpretacao":"Contagens de registros Cadastur observados. Ausência ou baixa contagem não deve ser interpretada como ausência de atividade turística.","fonte":"Ministério do Turismo — Cadastur; síntese municipal JOAJU MS","data_derivacao":"2026-09-14"},"geometry":{"type":"Point","coordinates":[-54.5637,-23.6736]}},{"type":"Feature","properties":{"municipio":"Inocência","hospedagem_registros":11,"leitos_declarados":699,"agencias_registros":0,"guias_registros":0,"transportadoras_registros":0,"servicos_agencias_guias_transportadoras":0,"cadastur_nucleo_total":11,"data_captura_hospedagem":"2026-08-12T02:31:31.233Z","data_captura_servicos":null,"natureza":"síntese municipal derivada de snapshots Cadastur materializados no Atlas","cobertura":"Meios de hospedagem + agências de turismo + guias de turismo + transportadoras turísticas. Não inclui alimentação nesta síntese porque o arquivo 2º trimestre de 2026 ainda não foi materializado e verificado localmente neste corte.","interpretacao":"Contagens de registros Cadastur observados. Ausência ou baixa contagem não deve ser interpretada como ausência de atividade turística.","fonte":"Ministério do Turismo — Cadastur; síntese municipal JOAJU MS","data_derivacao":"2026-09-14"},"geometry":{"type":"Point","coordinates":[-51.9281,-19.7277]}},{"type":"Feature","properties":{"municipio":"Itaporã","hospedagem_registros":0,"leitos_declarados":null,"agencias_registros":2,"guias_registros":0,"transportadoras_registros":1,"servicos_agencias_guias_transportadoras":3,"cadastur_nucleo_total":3,"data_captura_hospedagem":null,"data_captura_servicos":"2026-08-12T02:31:32.438Z","natureza":"síntese municipal derivada de snapshots Cadastur materializados no Atlas","cobertura":"Meios de hospedagem + agências de turismo + guias de turismo + transportadoras turísticas. Não inclui alimentação nesta síntese porque o arquivo 2º trimestre de 2026 ainda não foi materializado e verificado localmente neste corte.","interpretacao":"Contagens de registros Cadastur observados. Ausência ou baixa contagem não deve ser interpretada como ausência de atividade turística.","fonte":"Ministério do Turismo — Cadastur; síntese municipal JOAJU MS","data_derivacao":"2026-09-14"},"geometry":{"type":"Point","coordinates":[-54.7934,-22.08]}},{"type":"Feature","properties":{"municipio":"Itaquiraí","hospedagem_registros":3,"leitos_declarados":184,"agencias_registros":0,"guias_registros":0,"transportadoras_registros":0,"servicos_agencias_guias_transportadoras":0,"cadastur_nucleo_total":3,"data_captura_hospedagem":"2026-08-12T02:31:31.233Z","data_captura_servicos":null,"natureza":"síntese municipal derivada de snapshots Cadastur materializados no Atlas","cobertura":"Meios de hospedagem + agências de turismo + guias de turismo + transportadoras turísticas. Não inclui alimentação nesta síntese porque o arquivo 2º trimestre de 2026 ainda não foi materializado e verificado localmente neste corte.","interpretacao":"Contagens de registros Cadastur observados. Ausência ou baixa contagem não deve ser interpretada como ausência de atividade turística.","fonte":"Ministério do Turismo — Cadastur; síntese municipal JOAJU MS","data_derivacao":"2026-09-14"},"geometry":{"type":"Point","coordinates":[-54.187,-23.4779]}},{"type":"Feature","properties":{"municipio":"Ivinhema","hospedagem_registros":0,"leitos_declarados":null,"agencias_registros":1,"guias_registros":0,"transportadoras_registros":2,"servicos_agencias_guias_transportadoras":3,"cadastur_nucleo_total":3,"data_captura_hospedagem":null,"data_captura_servicos":"2026-08-12T02:31:32.438Z","natureza":"síntese municipal derivada de snapshots Cadastur materializados no Atlas","cobertura":"Meios de hospedagem + agências de turismo + guias de turismo + transportadoras turísticas. Não inclui alimentação nesta síntese porque o arquivo 2º trimestre de 2026 ainda não foi materializado e verificado localmente neste corte.","interpretacao":"Contagens de registros Cadastur observados. Ausência ou baixa contagem não deve ser interpretada como ausência de atividade turística.","fonte":"Ministério do Turismo — Cadastur; síntese municipal JOAJU MS","data_derivacao":"2026-09-14"},"geometry":{"type":"Point","coordinates":[-53.8184,-22.3046]}},{"type":"Feature","properties":{"municipio":"Japorã","hospedagem_registros":0,"leitos_declarados":null,"agencias_registros":0,"guias_registros":0,"transportadoras_registros":1,"servicos_agencias_guias_transportadoras":1,"cadastur_nucleo_total":1,"data_captura_hospedagem":null,"data_captura_servicos":"2026-08-12T02:31:32.438Z","natureza":"síntese municipal derivada de snapshots Cadastur materializados no Atlas","cobertura":"Meios de hospedagem + agências de turismo + guias de turismo + transportadoras turísticas. Não inclui alimentação nesta síntese porque o arquivo 2º trimestre de 2026 ainda não foi materializado e verificado localmente neste corte.","interpretacao":"Contagens de registros Cadastur observados. Ausência ou baixa contagem não deve ser interpretada como ausência de atividade turística.","fonte":"Ministério do Turismo — Cadastur; síntese municipal JOAJU MS","data_derivacao":"2026-09-14"},"geometry":{"type":"Point","coordinates":[-54.4059,-23.8903]}},{"type":"Feature","properties":{"municipio":"Jaraguari","hospedagem_registros":0,"leitos_declarados":null,"agencias_registros":1,"guias_registros":0,"transportadoras_registros":0,"servicos_agencias_guias_transportadoras":1,"cadastur_nucleo_total":1,"data_captura_hospedagem":null,"data_captura_servicos":"2026-08-12T02:31:32.438Z","natureza":"síntese municipal derivada de snapshots Cadastur materializados no Atlas","cobertura":"Meios de hospedagem + agências de turismo + guias de turismo + transportadoras turísticas. Não inclui alimentação nesta síntese porque o arquivo 2º trimestre de 2026 ainda não foi materializado e verificado localmente neste corte.","interpretacao":"Contagens de registros Cadastur observados. Ausência ou baixa contagem não deve ser interpretada como ausência de atividade turística.","fonte":"Ministério do Turismo — Cadastur; síntese municipal JOAJU MS","data_derivacao":"2026-09-14"},"geometry":{"type":"Point","coordinates":[-54.3996,-20.1386]}},{"type":"Feature","properties":{"municipio":"Jardim","hospedagem_registros":5,"leitos_declarados":402,"agencias_registros":2,"guias_registros":13,"transportadoras_registros":2,"servicos_agencias_guias_transportadoras":17,"cadastur_nucleo_total":22,"data_captura_hospedagem":"2026-08-12T02:31:31.233Z","data_captura_servicos":"2026-08-12T02:31:32.438Z","natureza":"síntese municipal derivada de snapshots Cadastur materializados no Atlas","cobertura":"Meios de hospedagem + agências de turismo + guias de turismo + transportadoras turísticas. Não inclui alimentação nesta síntese porque o arquivo 2º trimestre de 2026 ainda não foi materializado e verificado localmente neste corte.","interpretacao":"Contagens de registros Cadastur observados. Ausência ou baixa contagem não deve ser interpretada como ausência de atividade turística.","fonte":"Ministério do Turismo — Cadastur; síntese municipal JOAJU MS","data_derivacao":"2026-09-14"},"geometry":{"type":"Point","coordinates":[-56.1489,-21.4799]}},{"type":"Feature","properties":{"municipio":"Ladário","hospedagem_registros":5,"leitos_declarados":193,"agencias_registros":2,"guias_registros":0,"transportadoras_registros":1,"servicos_agencias_guias_transportadoras":3,"cadastur_nucleo_total":8,"data_captura_hospedagem":"2026-08-12T02:31:31.233Z","data_captura_servicos":"2026-08-12T02:31:32.438Z","natureza":"síntese municipal derivada de snapshots Cadastur materializados no Atlas","cobertura":"Meios de hospedagem + agências de turismo + guias de turismo + transportadoras turísticas. Não inclui alimentação nesta síntese porque o arquivo 2º trimestre de 2026 ainda não foi materializado e verificado localmente neste corte.","interpretacao":"Contagens de registros Cadastur observados. Ausência ou baixa contagem não deve ser interpretada como ausência de atividade turística.","fonte":"Ministério do Turismo — Cadastur; síntese municipal JOAJU MS","data_derivacao":"2026-09-14"},"geometry":{"type":"Point","coordinates":[-57.5973,-19.0089]}},{"type":"Feature","properties":{"municipio":"Maracaju","hospedagem_registros":12,"leitos_declarados":675,"agencias_registros":6,"guias_registros":1,"transportadoras_registros":4,"servicos_agencias_guias_transportadoras":11,"cadastur_nucleo_total":23,"data_captura_hospedagem":"2026-08-12T02:31:31.233Z","data_captura_servicos":"2026-08-12T02:31:32.438Z","natureza":"síntese municipal derivada de snapshots Cadastur materializados no Atlas","cobertura":"Meios de hospedagem + agências de turismo + guias de turismo + transportadoras turísticas. Não inclui alimentação nesta síntese porque o arquivo 2º trimestre de 2026 ainda não foi materializado e verificado localmente neste corte.","interpretacao":"Contagens de registros Cadastur observados. Ausência ou baixa contagem não deve ser interpretada como ausência de atividade turística.","fonte":"Ministério do Turismo — Cadastur; síntese municipal JOAJU MS","data_derivacao":"2026-09-14"},"geometry":{"type":"Point","coordinates":[-55.1678,-21.6105]}},{"type":"Feature","properties":{"municipio":"Miranda","hospedagem_registros":8,"leitos_declarados":372,"agencias_registros":5,"guias_registros":0,"transportadoras_registros":4,"servicos_agencias_guias_transportadoras":9,"cadastur_nucleo_total":17,"data_captura_hospedagem":"2026-08-12T02:31:31.233Z","data_captura_servicos":"2026-08-12T02:31:32.438Z","natureza":"síntese municipal derivada de snapshots Cadastur materializados no Atlas","cobertura":"Meios de hospedagem + agências de turismo + guias de turismo + transportadoras turísticas. Não inclui alimentação nesta síntese porque o arquivo 2º trimestre de 2026 ainda não foi materializado e verificado localmente neste corte.","interpretacao":"Contagens de registros Cadastur observados. Ausência ou baixa contagem não deve ser interpretada como ausência de atividade turística.","fonte":"Ministério do Turismo — Cadastur; síntese municipal JOAJU MS","data_derivacao":"2026-09-14"},"geometry":{"type":"Point","coordinates":[-56.3746,-20.2355]}},{"type":"Feature","properties":{"municipio":"Mundo Novo","hospedagem_registros":4,"leitos_declarados":205,"agencias_registros":1,"guias_registros":0,"transportadoras_registros":2,"servicos_agencias_guias_transportadoras":3,"cadastur_nucleo_total":7,"data_captura_hospedagem":"2026-08-12T02:31:31.233Z","data_captura_servicos":"2026-08-12T02:31:32.438Z","natureza":"síntese municipal derivada de snapshots Cadastur materializados no Atlas","cobertura":"Meios de hospedagem + agências de turismo + guias de turismo + transportadoras turísticas. Não inclui alimentação nesta síntese porque o arquivo 2º trimestre de 2026 ainda não foi materializado e verificado localmente neste corte.","interpretacao":"Contagens de registros Cadastur observados. Ausência ou baixa contagem não deve ser interpretada como ausência de atividade turística.","fonte":"Ministério do Turismo — Cadastur; síntese municipal JOAJU MS","data_derivacao":"2026-09-14"},"geometry":{"type":"Point","coordinates":[-54.281,-23.9355]}},{"type":"Feature","properties":{"municipio":"Naviraí","hospedagem_registros":7,"leitos_declarados":567,"agencias_registros":4,"guias_registros":1,"transportadoras_registros":1,"servicos_agencias_guias_transportadoras":6,"cadastur_nucleo_total":13,"data_captura_hospedagem":"2026-08-12T02:31:31.233Z","data_captura_servicos":"2026-08-12T02:31:32.438Z","natureza":"síntese municipal derivada de snapshots Cadastur materializados no Atlas","cobertura":"Meios de hospedagem + agências de turismo + guias de turismo + transportadoras turísticas. Não inclui alimentação nesta síntese porque o arquivo 2º trimestre de 2026 ainda não foi materializado e verificado localmente neste corte.","interpretacao":"Contagens de registros Cadastur observados. Ausência ou baixa contagem não deve ser interpretada como ausência de atividade turística.","fonte":"Ministério do Turismo — Cadastur; síntese municipal JOAJU MS","data_derivacao":"2026-09-14"},"geometry":{"type":"Point","coordinates":[-54.1995,-23.0618]}},{"type":"Feature","properties":{"municipio":"Nioaque","hospedagem_registros":0,"leitos_declarados":null,"agencias_registros":1,"guias_registros":0,"transportadoras_registros":1,"servicos_agencias_guias_transportadoras":2,"cadastur_nucleo_total":2,"data_captura_hospedagem":null,"data_captura_servicos":"2026-08-12T02:31:32.438Z","natureza":"síntese municipal derivada de snapshots Cadastur materializados no Atlas","cobertura":"Meios de hospedagem + agências de turismo + guias de turismo + transportadoras turísticas. Não inclui alimentação nesta síntese porque o arquivo 2º trimestre de 2026 ainda não foi materializado e verificado localmente neste corte.","interpretacao":"Contagens de registros Cadastur observados. Ausência ou baixa contagem não deve ser interpretada como ausência de atividade turística.","fonte":"Ministério do Turismo — Cadastur; síntese municipal JOAJU MS","data_derivacao":"2026-09-14"},"geometry":{"type":"Point","coordinates":[-55.8296,-21.1419]}},{"type":"Feature","properties":{"municipio":"Nova Alvorada do Sul","hospedagem_registros":2,"leitos_declarados":165,"agencias_registros":0,"guias_registros":1,"transportadoras_registros":0,"servicos_agencias_guias_transportadoras":1,"cadastur_nucleo_total":3,"data_captura_hospedagem":"2026-08-12T02:31:31.233Z","data_captura_servicos":"2026-08-12T02:31:32.438Z","natureza":"síntese municipal derivada de snapshots Cadastur materializados no Atlas","cobertura":"Meios de hospedagem + agências de turismo + guias de turismo + transportadoras turísticas. Não inclui alimentação nesta síntese porque o arquivo 2º trimestre de 2026 ainda não foi materializado e verificado localmente neste corte.","interpretacao":"Contagens de registros Cadastur observados. Ausência ou baixa contagem não deve ser interpretada como ausência de atividade turística.","fonte":"Ministério do Turismo — Cadastur; síntese municipal JOAJU MS","data_derivacao":"2026-09-14"},"geometry":{"type":"Point","coordinates":[-54.3825,-21.4657]}},{"type":"Feature","properties":{"municipio":"Nova Andradina","hospedagem_registros":4,"leitos_declarados":368,"agencias_registros":2,"guias_registros":0,"transportadoras_registros":4,"servicos_agencias_guias_transportadoras":6,"cadastur_nucleo_total":10,"data_captura_hospedagem":"2026-08-12T02:31:31.233Z","data_captura_servicos":"2026-08-12T02:31:32.438Z","natureza":"síntese municipal derivada de snapshots Cadastur materializados no Atlas","cobertura":"Meios de hospedagem + agências de turismo + guias de turismo + transportadoras turísticas. Não inclui alimentação nesta síntese porque o arquivo 2º trimestre de 2026 ainda não foi materializado e verificado localmente neste corte.","interpretacao":"Contagens de registros Cadastur observados. Ausência ou baixa contagem não deve ser interpretada como ausência de atividade turística.","fonte":"Ministério do Turismo — Cadastur; síntese municipal JOAJU MS","data_derivacao":"2026-09-14"},"geometry":{"type":"Point","coordinates":[-53.3437,-22.238]}},{"type":"Feature","properties":{"municipio":"Novo Horizonte do Sul","hospedagem_registros":0,"leitos_declarados":null,"agencias_registros":1,"guias_registros":0,"transportadoras_registros":0,"servicos_agencias_guias_transportadoras":1,"cadastur_nucleo_total":1,"data_captura_hospedagem":null,"data_captura_servicos":"2026-08-12T02:31:32.438Z","natureza":"síntese municipal derivada de snapshots Cadastur materializados no Atlas","cobertura":"Meios de hospedagem + agências de turismo + guias de turismo + transportadoras turísticas. Não inclui alimentação nesta síntese porque o arquivo 2º trimestre de 2026 ainda não foi materializado e verificado localmente neste corte.","interpretacao":"Contagens de registros Cadastur observados. Ausência ou baixa contagem não deve ser interpretada como ausência de atividade turística.","fonte":"Ministério do Turismo — Cadastur; síntese municipal JOAJU MS","data_derivacao":"2026-09-14"},"geometry":{"type":"Point","coordinates":[-53.8601,-22.6693]}},{"type":"Feature","properties":{"municipio":"Paraíso das Águas","hospedagem_registros":2,"leitos_declarados":128,"agencias_registros":0,"guias_registros":1,"transportadoras_registros":2,"servicos_agencias_guias_transportadoras":3,"cadastur_nucleo_total":5,"data_captura_hospedagem":"2026-08-12T02:31:31.233Z","data_captura_servicos":"2026-08-12T02:31:32.438Z","natureza":"síntese municipal derivada de snapshots Cadastur materializados no Atlas","cobertura":"Meios de hospedagem + agências de turismo + guias de turismo + transportadoras turísticas. Não inclui alimentação nesta síntese porque o arquivo 2º trimestre de 2026 ainda não foi materializado e verificado localmente neste corte.","interpretacao":"Contagens de registros Cadastur observados. Ausência ou baixa contagem não deve ser interpretada como ausência de atividade turística.","fonte":"Ministério do Turismo — Cadastur; síntese municipal JOAJU MS","data_derivacao":"2026-09-14"},"geometry":{"type":"Point","coordinates":[-53.0116,-19.0216]}},{"type":"Feature","properties":{"municipio":"Paranaíba","hospedagem_registros":2,"leitos_declarados":49,"agencias_registros":0,"guias_registros":0,"transportadoras_registros":4,"servicos_agencias_guias_transportadoras":4,"cadastur_nucleo_total":6,"data_captura_hospedagem":"2026-08-12T02:31:31.233Z","data_captura_servicos":"2026-08-12T02:31:32.438Z","natureza":"síntese municipal derivada de snapshots Cadastur materializados no Atlas","cobertura":"Meios de hospedagem + agências de turismo + guias de turismo + transportadoras turísticas. Não inclui alimentação nesta síntese porque o arquivo 2º trimestre de 2026 ainda não foi materializado e verificado localmente neste corte.","interpretacao":"Contagens de registros Cadastur observados. Ausência ou baixa contagem não deve ser interpretada como ausência de atividade turística.","fonte":"Ministério do Turismo — Cadastur; síntese municipal JOAJU MS","data_derivacao":"2026-09-14"},"geometry":{"type":"Point","coordinates":[-51.1909,-19.6746]}},{"type":"Feature","properties":{"municipio":"Pedro Gomes","hospedagem_registros":1,"leitos_declarados":50,"agencias_registros":0,"guias_registros":0,"transportadoras_registros":1,"servicos_agencias_guias_transportadoras":1,"cadastur_nucleo_total":2,"data_captura_hospedagem":"2026-08-12T02:31:31.233Z","data_captura_servicos":"2026-08-12T02:31:32.438Z","natureza":"síntese municipal derivada de snapshots Cadastur materializados no Atlas","cobertura":"Meios de hospedagem + agências de turismo + guias de turismo + transportadoras turísticas. Não inclui alimentação nesta síntese porque o arquivo 2º trimestre de 2026 ainda não foi materializado e verificado localmente neste corte.","interpretacao":"Contagens de registros Cadastur observados. Ausência ou baixa contagem não deve ser interpretada como ausência de atividade turística.","fonte":"Ministério do Turismo — Cadastur; síntese municipal JOAJU MS","data_derivacao":"2026-09-14"},"geometry":{"type":"Point","coordinates":[-54.5507,-18.0996]}},{"type":"Feature","properties":{"municipio":"Ponta Porã","hospedagem_registros":7,"leitos_declarados":1087,"agencias_registros":9,"guias_registros":0,"transportadoras_registros":6,"servicos_agencias_guias_transportadoras":15,"cadastur_nucleo_total":22,"data_captura_hospedagem":"2026-08-12T02:31:31.233Z","data_captura_servicos":"2026-08-12T02:31:32.438Z","natureza":"síntese municipal derivada de snapshots Cadastur materializados no Atlas","cobertura":"Meios de hospedagem + agências de turismo + guias de turismo + transportadoras turísticas. Não inclui alimentação nesta síntese porque o arquivo 2º trimestre de 2026 ainda não foi materializado e verificado localmente neste corte.","interpretacao":"Contagens de registros Cadastur observados. Ausência ou baixa contagem não deve ser interpretada como ausência de atividade turística.","fonte":"Ministério do Turismo — Cadastur; síntese municipal JOAJU MS","data_derivacao":"2026-09-14"},"geometry":{"type":"Point","coordinates":[-55.7203,-22.5296]}},{"type":"Feature","properties":{"municipio":"Porto Murtinho","hospedagem_registros":4,"leitos_declarados":162,"agencias_registros":2,"guias_registros":0,"transportadoras_registros":0,"servicos_agencias_guias_transportadoras":2,"cadastur_nucleo_total":6,"data_captura_hospedagem":"2026-08-12T02:31:31.233Z","data_captura_servicos":"2026-08-12T02:31:32.438Z","natureza":"síntese municipal derivada de snapshots Cadastur materializados no Atlas","cobertura":"Meios de hospedagem + agências de turismo + guias de turismo + transportadoras turísticas. Não inclui alimentação nesta síntese porque o arquivo 2º trimestre de 2026 ainda não foi materializado e verificado localmente neste corte.","interpretacao":"Contagens de registros Cadastur observados. Ausência ou baixa contagem não deve ser interpretada como ausência de atividade turística.","fonte":"Ministério do Turismo — Cadastur; síntese municipal JOAJU MS","data_derivacao":"2026-09-14"},"geometry":{"type":"Point","coordinates":[-57.8836,-21.6981]}},{"type":"Feature","properties":{"municipio":"Ribas do Rio Pardo","hospedagem_registros":1,"leitos_declarados":408,"agencias_registros":1,"guias_registros":1,"transportadoras_registros":4,"servicos_agencias_guias_transportadoras":6,"cadastur_nucleo_total":7,"data_captura_hospedagem":"2026-08-12T02:31:31.233Z","data_captura_servicos":"2026-08-12T02:31:32.438Z","natureza":"síntese municipal derivada de snapshots Cadastur materializados no Atlas","cobertura":"Meios de hospedagem + agências de turismo + guias de turismo + transportadoras turísticas. Não inclui alimentação nesta síntese porque o arquivo 2º trimestre de 2026 ainda não foi materializado e verificado localmente neste corte.","interpretacao":"Contagens de registros Cadastur observados. Ausência ou baixa contagem não deve ser interpretada como ausência de atividade turística.","fonte":"Ministério do Turismo — Cadastur; síntese municipal JOAJU MS","data_derivacao":"2026-09-14"},"geometry":{"type":"Point","coordinates":[-53.7588,-20.4445]}},{"type":"Feature","properties":{"municipio":"Rio Brilhante","hospedagem_registros":0,"leitos_declarados":null,"agencias_registros":0,"guias_registros":0,"transportadoras_registros":1,"servicos_agencias_guias_transportadoras":1,"cadastur_nucleo_total":1,"data_captura_hospedagem":null,"data_captura_servicos":"2026-08-12T02:31:32.438Z","natureza":"síntese municipal derivada de snapshots Cadastur materializados no Atlas","cobertura":"Meios de hospedagem + agências de turismo + guias de turismo + transportadoras turísticas. Não inclui alimentação nesta síntese porque o arquivo 2º trimestre de 2026 ainda não foi materializado e verificado localmente neste corte.","interpretacao":"Contagens de registros Cadastur observados. Ausência ou baixa contagem não deve ser interpretada como ausência de atividade turística.","fonte":"Ministério do Turismo — Cadastur; síntese municipal JOAJU MS","data_derivacao":"2026-09-14"},"geometry":{"type":"Point","coordinates":[-54.5427,-21.8033]}},{"type":"Feature","properties":{"municipio":"Rio Verde de Mato Grosso","hospedagem_registros":3,"leitos_declarados":108,"agencias_registros":1,"guias_registros":0,"transportadoras_registros":1,"servicos_agencias_guias_transportadoras":2,"cadastur_nucleo_total":5,"data_captura_hospedagem":"2026-08-12T02:31:31.233Z","data_captura_servicos":"2026-08-12T02:31:32.438Z","natureza":"síntese municipal derivada de snapshots Cadastur materializados no Atlas","cobertura":"Meios de hospedagem + agências de turismo + guias de turismo + transportadoras turísticas. Não inclui alimentação nesta síntese porque o arquivo 2º trimestre de 2026 ainda não foi materializado e verificado localmente neste corte.","interpretacao":"Contagens de registros Cadastur observados. Ausência ou baixa contagem não deve ser interpretada como ausência de atividade turística.","fonte":"Ministério do Turismo — Cadastur; síntese municipal JOAJU MS","data_derivacao":"2026-09-14"},"geometry":{"type":"Point","coordinates":[-54.8434,-18.9249]}},{"type":"Feature","properties":{"municipio":"São Gabriel do Oeste","hospedagem_registros":3,"leitos_declarados":195,"agencias_registros":3,"guias_registros":0,"transportadoras_registros":3,"servicos_agencias_guias_transportadoras":6,"cadastur_nucleo_total":9,"data_captura_hospedagem":"2026-08-12T02:31:31.233Z","data_captura_servicos":"2026-08-12T02:31:32.438Z","natureza":"síntese municipal derivada de snapshots Cadastur materializados no Atlas","cobertura":"Meios de hospedagem + agências de turismo + guias de turismo + transportadoras turísticas. Não inclui alimentação nesta síntese porque o arquivo 2º trimestre de 2026 ainda não foi materializado e verificado localmente neste corte.","interpretacao":"Contagens de registros Cadastur observados. Ausência ou baixa contagem não deve ser interpretada como ausência de atividade turística.","fonte":"Ministério do Turismo — Cadastur; síntese municipal JOAJU MS","data_derivacao":"2026-09-14"},"geometry":{"type":"Point","coordinates":[-54.5507,-19.3889]}},{"type":"Feature","properties":{"municipio":"Selvíria","hospedagem_registros":0,"leitos_declarados":null,"agencias_registros":0,"guias_registros":0,"transportadoras_registros":2,"servicos_agencias_guias_transportadoras":2,"cadastur_nucleo_total":2,"data_captura_hospedagem":null,"data_captura_servicos":"2026-08-12T02:31:32.438Z","natureza":"síntese municipal derivada de snapshots Cadastur materializados no Atlas","cobertura":"Meios de hospedagem + agências de turismo + guias de turismo + transportadoras turísticas. Não inclui alimentação nesta síntese porque o arquivo 2º trimestre de 2026 ainda não foi materializado e verificado localmente neste corte.","interpretacao":"Contagens de registros Cadastur observados. Ausência ou baixa contagem não deve ser interpretada como ausência de atividade turística.","fonte":"Ministério do Turismo — Cadastur; síntese municipal JOAJU MS","data_derivacao":"2026-09-14"},"geometry":{"type":"Point","coordinates":[-51.4192,-20.3637]}},{"type":"Feature","properties":{"municipio":"Sete Quedas","hospedagem_registros":0,"leitos_declarados":null,"agencias_registros":1,"guias_registros":0,"transportadoras_registros":0,"servicos_agencias_guias_transportadoras":1,"cadastur_nucleo_total":1,"data_captura_hospedagem":null,"data_captura_servicos":"2026-08-12T02:31:32.438Z","natureza":"síntese municipal derivada de snapshots Cadastur materializados no Atlas","cobertura":"Meios de hospedagem + agências de turismo + guias de turismo + transportadoras turísticas. Não inclui alimentação nesta síntese porque o arquivo 2º trimestre de 2026 ainda não foi materializado e verificado localmente neste corte.","interpretacao":"Contagens de registros Cadastur observados. Ausência ou baixa contagem não deve ser interpretada como ausência de atividade turística.","fonte":"Ministério do Turismo — Cadastur; síntese municipal JOAJU MS","data_derivacao":"2026-09-14"},"geometry":{"type":"Point","coordinates":[-55.0398,-23.9705]}},{"type":"Feature","properties":{"municipio":"Sidrolândia","hospedagem_registros":4,"leitos_declarados":249,"agencias_registros":3,"guias_registros":0,"transportadoras_registros":5,"servicos_agencias_guias_transportadoras":8,"cadastur_nucleo_total":12,"data_captura_hospedagem":"2026-08-12T02:31:31.233Z","data_captura_servicos":"2026-08-12T02:31:32.438Z","natureza":"síntese municipal derivada de snapshots Cadastur materializados no Atlas","cobertura":"Meios de hospedagem + agências de turismo + guias de turismo + transportadoras turísticas. Não inclui alimentação nesta síntese porque o arquivo 2º trimestre de 2026 ainda não foi materializado e verificado localmente neste corte.","interpretacao":"Contagens de registros Cadastur observados. Ausência ou baixa contagem não deve ser interpretada como ausência de atividade turística.","fonte":"Ministério do Turismo — Cadastur; síntese municipal JOAJU MS","data_derivacao":"2026-09-14"},"geometry":{"type":"Point","coordinates":[-54.9692,-20.9302]}},{"type":"Feature","properties":{"municipio":"Sonora","hospedagem_registros":1,"leitos_declarados":64,"agencias_registros":0,"guias_registros":0,"transportadoras_registros":4,"servicos_agencias_guias_transportadoras":4,"cadastur_nucleo_total":5,"data_captura_hospedagem":"2026-08-12T02:31:31.233Z","data_captura_servicos":"2026-08-12T02:31:32.438Z","natureza":"síntese municipal derivada de snapshots Cadastur materializados no Atlas","cobertura":"Meios de hospedagem + agências de turismo + guias de turismo + transportadoras turísticas. Não inclui alimentação nesta síntese porque o arquivo 2º trimestre de 2026 ainda não foi materializado e verificado localmente neste corte.","interpretacao":"Contagens de registros Cadastur observados. Ausência ou baixa contagem não deve ser interpretada como ausência de atividade turística.","fonte":"Ministério do Turismo — Cadastur; síntese municipal JOAJU MS","data_derivacao":"2026-09-14"},"geometry":{"type":"Point","coordinates":[-54.7551,-17.5698]}},{"type":"Feature","properties":{"municipio":"Taquarussu","hospedagem_registros":1,"leitos_declarados":15,"agencias_registros":0,"guias_registros":0,"transportadoras_registros":0,"servicos_agencias_guias_transportadoras":0,"cadastur_nucleo_total":1,"data_captura_hospedagem":"2026-08-12T02:31:31.233Z","data_captura_servicos":null,"natureza":"síntese municipal derivada de snapshots Cadastur materializados no Atlas","cobertura":"Meios de hospedagem + agências de turismo + guias de turismo + transportadoras turísticas. Não inclui alimentação nesta síntese porque o arquivo 2º trimestre de 2026 ainda não foi materializado e verificado localmente neste corte.","interpretacao":"Contagens de registros Cadastur observados. Ausência ou baixa contagem não deve ser interpretada como ausência de atividade turística.","fonte":"Ministério do Turismo — Cadastur; síntese municipal JOAJU MS","data_derivacao":"2026-09-14"},"geometry":{"type":"Point","coordinates":[-53.3519,-22.4898]}},{"type":"Feature","properties":{"municipio":"Terenos","hospedagem_registros":0,"leitos_declarados":null,"agencias_registros":1,"guias_registros":0,"transportadoras_registros":1,"servicos_agencias_guias_transportadoras":2,"cadastur_nucleo_total":2,"data_captura_hospedagem":null,"data_captura_servicos":"2026-08-12T02:31:32.438Z","natureza":"síntese municipal derivada de snapshots Cadastur materializados no Atlas","cobertura":"Meios de hospedagem + agências de turismo + guias de turismo + transportadoras turísticas. Não inclui alimentação nesta síntese porque o arquivo 2º trimestre de 2026 ainda não foi materializado e verificado localmente neste corte.","interpretacao":"Contagens de registros Cadastur observados. Ausência ou baixa contagem não deve ser interpretada como ausência de atividade turística.","fonte":"Ministério do Turismo — Cadastur; síntese municipal JOAJU MS","data_derivacao":"2026-09-14"},"geometry":{"type":"Point","coordinates":[-54.8647,-20.4378]}},{"type":"Feature","properties":{"municipio":"Três Lagoas","hospedagem_registros":9,"leitos_declarados":1544,"agencias_registros":14,"guias_registros":4,"transportadoras_registros":16,"servicos_agencias_guias_transportadoras":34,"cadastur_nucleo_total":43,"data_captura_hospedagem":"2026-08-12T02:31:31.233Z","data_captura_servicos":"2026-08-12T02:31:32.438Z","natureza":"síntese municipal derivada de snapshots Cadastur materializados no Atlas","cobertura":"Meios de hospedagem + agências de turismo + guias de turismo + transportadoras turísticas. Não inclui alimentação nesta síntese porque o arquivo 2º trimestre de 2026 ainda não foi materializado e verificado localmente neste corte.","interpretacao":"Contagens de registros Cadastur observados. Ausência ou baixa contagem não deve ser interpretada como ausência de atividade turística.","fonte":"Ministério do Turismo — Cadastur; síntese municipal JOAJU MS","data_derivacao":"2026-09-14"},"geometry":{"type":"Point","coordinates":[-51.7007,-20.7849]}},{"type":"Feature","properties":{"municipio":"Vicentina","hospedagem_registros":0,"leitos_declarados":null,"agencias_registros":1,"guias_registros":0,"transportadoras_registros":0,"servicos_agencias_guias_transportadoras":1,"cadastur_nucleo_total":1,"data_captura_hospedagem":null,"data_captura_servicos":"2026-08-12T02:31:32.438Z","natureza":"síntese municipal derivada de snapshots Cadastur materializados no Atlas","cobertura":"Meios de hospedagem + agências de turismo + guias de turismo + transportadoras turísticas. Não inclui alimentação nesta síntese porque o arquivo 2º trimestre de 2026 ainda não foi materializado e verificado localmente neste corte.","interpretacao":"Contagens de registros Cadastur observados. Ausência ou baixa contagem não deve ser interpretada como ausência de atividade turística.","fonte":"Ministério do Turismo — Cadastur; síntese municipal JOAJU MS","data_derivacao":"2026-09-14"},"geometry":{"type":"Point","coordinates":[-54.4415,-22.4098]}}]}