{"type":"FeatureCollection","features":[{"type":"Feature","properties":{"municipio":"Corumbá","total_registros":31,"categorias":"{\"Meio de Hospedagem\":31}","situacoes_cadastrais":"{\"Regular\":31}","natureza":"Síntese municipal de registros Cadastur. Não expõe dados pessoais ou cadastrais individualizados.","precisao_geometria":"sede municipal representativa","data_captura":"2026-08-12T02:31:31.233Z","fonte_oficial":"Ministério do Turismo. Cadastur, conjunto de meios de hospedagem. Os registros são agregados por município para evitar exposição desnecessária de dados cadastrais individuais.","unidades_habitacionais_declaradas":null,"leitos_declarados":2213,"registros_com_uh":0,"registros_com_leitos":31,"capacidade_observacao":"Capacidade somada somente quando campos numéricos de unidades habitacionais ou leitos são reconhecidos na fonte. Campo ausente permanece nulo."},"geometry":{"type":"Point","coordinates":[-57.651,-19.0077]}},{"type":"Feature","properties":{"municipio":"Ponta Porã","total_registros":7,"categorias":"{\"Meio de Hospedagem\":7}","situacoes_cadastrais":"{\"Regular\":7}","natureza":"Síntese municipal de registros Cadastur. Não expõe dados pessoais ou cadastrais individualizados.","precisao_geometria":"sede municipal representativa","data_captura":"2026-08-12T02:31:31.233Z","fonte_oficial":"Ministério do Turismo. Cadastur, conjunto de meios de hospedagem. Os registros são agregados por município para evitar exposição desnecessária de dados cadastrais individuais.","unidades_habitacionais_declaradas":null,"leitos_declarados":1087,"registros_com_uh":0,"registros_com_leitos":7,"capacidade_observacao":"Capacidade somada somente quando campos numéricos de unidades habitacionais ou leitos são reconhecidos na fonte. Campo ausente permanece nulo."},"geometry":{"type":"Point","coordinates":[-55.7203,-22.5296]}},{"type":"Feature","properties":{"municipio":"Campo Grande","total_registros":34,"categorias":"{\"Meio de Hospedagem\":34}","situacoes_cadastrais":"{\"Regular\":33,\"Em Implantação\":1}","natureza":"Síntese municipal de registros Cadastur. Não expõe dados pessoais ou cadastrais individualizados.","precisao_geometria":"sede municipal representativa","data_captura":"2026-08-12T02:31:31.233Z","fonte_oficial":"Ministério do Turismo. Cadastur, conjunto de meios de hospedagem. Os registros são agregados por município para evitar exposição desnecessária de dados cadastrais individuais.","unidades_habitacionais_declaradas":null,"leitos_declarados":5426,"registros_com_uh":0,"registros_com_leitos":34,"capacidade_observacao":"Capacidade somada somente quando campos numéricos de unidades habitacionais ou leitos são reconhecidos na fonte. Campo ausente permanece nulo."},"geometry":{"type":"Point","coordinates":[-54.6295,-20.4486]}},{"type":"Feature","properties":{"municipio":"Aquidauana","total_registros":13,"categorias":"{\"Meio de Hospedagem\":13}","situacoes_cadastrais":"{\"Regular\":13}","natureza":"Síntese municipal de registros Cadastur. Não expõe dados pessoais ou cadastrais individualizados.","precisao_geometria":"sede municipal representativa","data_captura":"2026-08-12T02:31:31.233Z","fonte_oficial":"Ministério do Turismo. Cadastur, conjunto de meios de hospedagem. Os registros são agregados por município para evitar exposição desnecessária de dados cadastrais individuais.","unidades_habitacionais_declaradas":null,"leitos_declarados":522,"registros_com_uh":0,"registros_com_leitos":13,"capacidade_observacao":"Capacidade somada somente quando campos numéricos de unidades habitacionais ou leitos são reconhecidos na fonte. Campo ausente permanece nulo."},"geometry":{"type":"Point","coordinates":[-55.7868,-20.4666]}},{"type":"Feature","properties":{"municipio":"Bonito","total_registros":44,"categorias":"{\"Meio de Hospedagem\":44}","situacoes_cadastrais":"{\"Regular\":43,\"Em Implantação\":1}","natureza":"Síntese municipal de registros Cadastur. Não expõe dados pessoais ou cadastrais individualizados.","precisao_geometria":"sede municipal representativa","data_captura":"2026-08-12T02:31:31.233Z","fonte_oficial":"Ministério do Turismo. Cadastur, conjunto de meios de hospedagem. Os registros são agregados por município para evitar exposição desnecessária de dados cadastrais individuais.","unidades_habitacionais_declaradas":null,"leitos_declarados":4278,"registros_com_uh":0,"registros_com_leitos":44,"capacidade_observacao":"Capacidade somada somente quando campos numéricos de unidades habitacionais ou leitos são reconhecidos na fonte. Campo ausente permanece nulo."},"geometry":{"type":"Point","coordinates":[-56.4836,-21.1261]}},{"type":"Feature","properties":{"municipio":"Inocência","total_registros":11,"categorias":"{\"Meio de Hospedagem\":11}","situacoes_cadastrais":"{\"Regular\":8,\"Em Implantação\":3}","natureza":"Síntese municipal de registros Cadastur. Não expõe dados pessoais ou cadastrais individualizados.","precisao_geometria":"sede municipal representativa","data_captura":"2026-08-12T02:31:31.233Z","fonte_oficial":"Ministério do Turismo. Cadastur, conjunto de meios de hospedagem. Os registros são agregados por município para evitar exposição desnecessária de dados cadastrais individuais.","unidades_habitacionais_declaradas":null,"leitos_declarados":699,"registros_com_uh":0,"registros_com_leitos":11,"capacidade_observacao":"Capacidade somada somente quando campos numéricos de unidades habitacionais ou leitos são reconhecidos na fonte. Campo ausente permanece nulo."},"geometry":{"type":"Point","coordinates":[-51.9281,-19.7277]}},{"type":"Feature","properties":{"municipio":"Dourados","total_registros":11,"categorias":"{\"Meio de Hospedagem\":11}","situacoes_cadastrais":"{\"Regular\":11}","natureza":"Síntese municipal de registros Cadastur. Não expõe dados pessoais ou cadastrais individualizados.","precisao_geometria":"sede municipal representativa","data_captura":"2026-08-12T02:31:31.233Z","fonte_oficial":"Ministério do Turismo. Cadastur, conjunto de meios de hospedagem. Os registros são agregados por município para evitar exposição desnecessária de dados cadastrais individuais.","unidades_habitacionais_declaradas":null,"leitos_declarados":1713,"registros_com_uh":0,"registros_com_leitos":11,"capacidade_observacao":"Capacidade somada somente quando campos numéricos de unidades habitacionais ou leitos são reconhecidos na fonte. Campo ausente permanece nulo."},"geometry":{"type":"Point","coordinates":[-54.812,-22.2231]}},{"type":"Feature","properties":{"municipio":"Miranda","total_registros":8,"categorias":"{\"Meio de Hospedagem\":8}","situacoes_cadastrais":"{\"Regular\":8}","natureza":"Síntese municipal de registros Cadastur. Não expõe dados pessoais ou cadastrais individualizados.","precisao_geometria":"sede municipal representativa","data_captura":"2026-08-12T02:31:31.233Z","fonte_oficial":"Ministério do Turismo. Cadastur, conjunto de meios de hospedagem. Os registros são agregados por município para evitar exposição desnecessária de dados cadastrais individuais.","unidades_habitacionais_declaradas":null,"leitos_declarados":372,"registros_com_uh":0,"registros_com_leitos":8,"capacidade_observacao":"Capacidade somada somente quando campos numéricos de unidades habitacionais ou leitos são reconhecidos na fonte. Campo ausente permanece nulo."},"geometry":{"type":"Point","coordinates":[-56.3746,-20.2355]}},{"type":"Feature","properties":{"municipio":"Itaquiraí","total_registros":3,"categorias":"{\"Meio de Hospedagem\":3}","situacoes_cadastrais":"{\"Regular\":3}","natureza":"Síntese municipal de registros Cadastur. Não expõe dados pessoais ou cadastrais individualizados.","precisao_geometria":"sede municipal representativa","data_captura":"2026-08-12T02:31:31.233Z","fonte_oficial":"Ministério do Turismo. Cadastur, conjunto de meios de hospedagem. Os registros são agregados por município para evitar exposição desnecessária de dados cadastrais individuais.","unidades_habitacionais_declaradas":null,"leitos_declarados":184,"registros_com_uh":0,"registros_com_leitos":3,"capacidade_observacao":"Capacidade somada somente quando campos numéricos de unidades habitacionais ou leitos são reconhecidos na fonte. Campo ausente permanece nulo."},"geometry":{"type":"Point","coordinates":[-54.187,-23.4779]}},{"type":"Feature","properties":{"municipio":"Coxim","total_registros":3,"categorias":"{\"Meio de Hospedagem\":3}","situacoes_cadastrais":"{\"Regular\":3}","natureza":"Síntese municipal de registros Cadastur. Não expõe dados pessoais ou cadastrais individualizados.","precisao_geometria":"sede municipal representativa","data_captura":"2026-08-12T02:31:31.233Z","fonte_oficial":"Ministério do Turismo. Cadastur, conjunto de meios de hospedagem. Os registros são agregados por município para evitar exposição desnecessária de dados cadastrais individuais.","unidades_habitacionais_declaradas":null,"leitos_declarados":186,"registros_com_uh":0,"registros_com_leitos":3,"capacidade_observacao":"Capacidade somada somente quando campos numéricos de unidades habitacionais ou leitos são reconhecidos na fonte. Campo ausente permanece nulo."},"geometry":{"type":"Point","coordinates":[-54.751,-18.5013]}},{"type":"Feature","properties":{"municipio":"Três Lagoas","total_registros":9,"categorias":"{\"Meio de Hospedagem\":9}","situacoes_cadastrais":"{\"Regular\":9}","natureza":"Síntese municipal de registros Cadastur. Não expõe dados pessoais ou cadastrais individualizados.","precisao_geometria":"sede municipal representativa","data_captura":"2026-08-12T02:31:31.233Z","fonte_oficial":"Ministério do Turismo. Cadastur, conjunto de meios de hospedagem. Os registros são agregados por município para evitar exposição desnecessária de dados cadastrais individuais.","unidades_habitacionais_declaradas":null,"leitos_declarados":1544,"registros_com_uh":0,"registros_com_leitos":9,"capacidade_observacao":"Capacidade somada somente quando campos numéricos de unidades habitacionais ou leitos são reconhecidos na fonte. Campo ausente permanece nulo."},"geometry":{"type":"Point","coordinates":[-51.7007,-20.7849]}},{"type":"Feature","properties":{"municipio":"Naviraí","total_registros":7,"categorias":"{\"Meio de Hospedagem\":7}","situacoes_cadastrais":"{\"Regular\":7}","natureza":"Síntese municipal de registros Cadastur. Não expõe dados pessoais ou cadastrais individualizados.","precisao_geometria":"sede municipal representativa","data_captura":"2026-08-12T02:31:31.233Z","fonte_oficial":"Ministério do Turismo. Cadastur, conjunto de meios de hospedagem. Os registros são agregados por município para evitar exposição desnecessária de dados cadastrais individuais.","unidades_habitacionais_declaradas":null,"leitos_declarados":567,"registros_com_uh":0,"registros_com_leitos":7,"capacidade_observacao":"Capacidade somada somente quando campos numéricos de unidades habitacionais ou leitos são reconhecidos na fonte. Campo ausente permanece nulo."},"geometry":{"type":"Point","coordinates":[-54.1995,-23.0618]}},{"type":"Feature","properties":{"municipio":"Ladário","total_registros":5,"categorias":"{\"Meio de Hospedagem\":5}","situacoes_cadastrais":"{\"Regular\":5}","natureza":"Síntese municipal de registros Cadastur. Não expõe dados pessoais ou cadastrais individualizados.","precisao_geometria":"sede municipal representativa","data_captura":"2026-08-12T02:31:31.233Z","fonte_oficial":"Ministério do Turismo. Cadastur, conjunto de meios de hospedagem. Os registros são agregados por município para evitar exposição desnecessária de dados cadastrais individuais.","unidades_habitacionais_declaradas":null,"leitos_declarados":193,"registros_com_uh":0,"registros_com_leitos":5,"capacidade_observacao":"Capacidade somada somente quando campos numéricos de unidades habitacionais ou leitos são reconhecidos na fonte. Campo ausente permanece nulo."},"geometry":{"type":"Point","coordinates":[-57.5973,-19.0089]}},{"type":"Feature","properties":{"municipio":"Bataguassu","total_registros":3,"categorias":"{\"Meio de Hospedagem\":3}","situacoes_cadastrais":"{\"Regular\":3}","natureza":"Síntese municipal de registros Cadastur. Não expõe dados pessoais ou cadastrais individualizados.","precisao_geometria":"sede municipal representativa","data_captura":"2026-08-12T02:31:31.233Z","fonte_oficial":"Ministério do Turismo. Cadastur, conjunto de meios de hospedagem. Os registros são agregados por município para evitar exposição desnecessária de dados cadastrais individuais.","unidades_habitacionais_declaradas":null,"leitos_declarados":386,"registros_com_uh":0,"registros_com_leitos":3,"capacidade_observacao":"Capacidade somada somente quando campos numéricos de unidades habitacionais ou leitos são reconhecidos na fonte. Campo ausente permanece nulo."},"geometry":{"type":"Point","coordinates":[-52.4221,-21.7159]}},{"type":"Feature","properties":{"municipio":"Aparecida do Taboado","total_registros":7,"categorias":"{\"Meio de Hospedagem\":7}","situacoes_cadastrais":"{\"Regular\":7}","natureza":"Síntese municipal de registros Cadastur. Não expõe dados pessoais ou cadastrais individualizados.","precisao_geometria":"sede municipal representativa","data_captura":"2026-08-12T02:31:31.233Z","fonte_oficial":"Ministério do Turismo. Cadastur, conjunto de meios de hospedagem. Os registros são agregados por município para evitar exposição desnecessária de dados cadastrais individuais.","unidades_habitacionais_declaradas":null,"leitos_declarados":451,"registros_com_uh":0,"registros_com_leitos":7,"capacidade_observacao":"Capacidade somada somente quando campos numéricos de unidades habitacionais ou leitos são reconhecidos na fonte. Campo ausente permanece nulo."},"geometry":{"type":"Point","coordinates":[-51.0961,-20.0873]}},{"type":"Feature","properties":{"municipio":"São Gabriel do Oeste","total_registros":3,"categorias":"{\"Meio de Hospedagem\":3}","situacoes_cadastrais":"{\"Regular\":2,\"Em Implantação\":1}","natureza":"Síntese municipal de registros Cadastur. Não expõe dados pessoais ou cadastrais individualizados.","precisao_geometria":"sede municipal representativa","data_captura":"2026-08-12T02:31:31.233Z","fonte_oficial":"Ministério do Turismo. Cadastur, conjunto de meios de hospedagem. Os registros são agregados por município para evitar exposição desnecessária de dados cadastrais individuais.","unidades_habitacionais_declaradas":null,"leitos_declarados":195,"registros_com_uh":0,"registros_com_leitos":2,"capacidade_observacao":"Capacidade somada somente quando campos numéricos de unidades habitacionais ou leitos são reconhecidos na fonte. Campo ausente permanece nulo."},"geometry":{"type":"Point","coordinates":[-54.5507,-19.3889]}},{"type":"Feature","properties":{"municipio":"Jardim","total_registros":5,"categorias":"{\"Meio de Hospedagem\":5}","situacoes_cadastrais":"{\"Regular\":5}","natureza":"Síntese municipal de registros Cadastur. Não expõe dados pessoais ou cadastrais individualizados.","precisao_geometria":"sede municipal representativa","data_captura":"2026-08-12T02:31:31.233Z","fonte_oficial":"Ministério do Turismo. Cadastur, conjunto de meios de hospedagem. Os registros são agregados por município para evitar exposição desnecessária de dados cadastrais individuais.","unidades_habitacionais_declaradas":null,"leitos_declarados":402,"registros_com_uh":0,"registros_com_leitos":5,"capacidade_observacao":"Capacidade somada somente quando campos numéricos de unidades habitacionais ou leitos são reconhecidos na fonte. Campo ausente permanece nulo."},"geometry":{"type":"Point","coordinates":[-56.1489,-21.4799]}},{"type":"Feature","properties":{"municipio":"Maracaju","total_registros":12,"categorias":"{\"Meio de Hospedagem\":12}","situacoes_cadastrais":"{\"Regular\":12}","natureza":"Síntese municipal de registros Cadastur. Não expõe dados pessoais ou cadastrais individualizados.","precisao_geometria":"sede municipal representativa","data_captura":"2026-08-12T02:31:31.233Z","fonte_oficial":"Ministério do Turismo. Cadastur, conjunto de meios de hospedagem. Os registros são agregados por município para evitar exposição desnecessária de dados cadastrais individuais.","unidades_habitacionais_declaradas":null,"leitos_declarados":675,"registros_com_uh":0,"registros_com_leitos":12,"capacidade_observacao":"Capacidade somada somente quando campos numéricos de unidades habitacionais ou leitos são reconhecidos na fonte. Campo ausente permanece nulo."},"geometry":{"type":"Point","coordinates":[-55.1678,-21.6105]}},{"type":"Feature","properties":{"municipio":"Camapuã","total_registros":1,"categorias":"{\"Meio de Hospedagem\":1}","situacoes_cadastrais":"{\"Regular\":1}","natureza":"Síntese municipal de registros Cadastur. Não expõe dados pessoais ou cadastrais individualizados.","precisao_geometria":"sede municipal representativa","data_captura":"2026-08-12T02:31:31.233Z","fonte_oficial":"Ministério do Turismo. Cadastur, conjunto de meios de hospedagem. Os registros são agregados por município para evitar exposição desnecessária de dados cadastrais individuais.","unidades_habitacionais_declaradas":null,"leitos_declarados":106,"registros_com_uh":0,"registros_com_leitos":1,"capacidade_observacao":"Capacidade somada somente quando campos numéricos de unidades habitacionais ou leitos são reconhecidos na fonte. Campo ausente permanece nulo."},"geometry":{"type":"Point","coordinates":[-54.0431,-19.5347]}},{"type":"Feature","properties":{"municipio":"Pedro Gomes","total_registros":1,"categorias":"{\"Meio de Hospedagem\":1}","situacoes_cadastrais":"{\"Regular\":1}","natureza":"Síntese municipal de registros Cadastur. Não expõe dados pessoais ou cadastrais individualizados.","precisao_geometria":"sede municipal representativa","data_captura":"2026-08-12T02:31:31.233Z","fonte_oficial":"Ministério do Turismo. Cadastur, conjunto de meios de hospedagem. Os registros são agregados por município para evitar exposição desnecessária de dados cadastrais individuais.","unidades_habitacionais_declaradas":null,"leitos_declarados":50,"registros_com_uh":0,"registros_com_leitos":1,"capacidade_observacao":"Capacidade somada somente quando campos numéricos de unidades habitacionais ou leitos são reconhecidos na fonte. Campo ausente permanece nulo."},"geometry":{"type":"Point","coordinates":[-54.5507,-18.0996]}},{"type":"Feature","properties":{"municipio":"Sonora","total_registros":1,"categorias":"{\"Meio de Hospedagem\":1}","situacoes_cadastrais":"{\"Regular\":1}","natureza":"Síntese municipal de registros Cadastur. Não expõe dados pessoais ou cadastrais individualizados.","precisao_geometria":"sede municipal representativa","data_captura":"2026-08-12T02:31:31.233Z","fonte_oficial":"Ministério do Turismo. Cadastur, conjunto de meios de hospedagem. Os registros são agregados por município para evitar exposição desnecessária de dados cadastrais individuais.","unidades_habitacionais_declaradas":null,"leitos_declarados":64,"registros_com_uh":0,"registros_com_leitos":1,"capacidade_observacao":"Capacidade somada somente quando campos numéricos de unidades habitacionais ou leitos são reconhecidos na fonte. Campo ausente permanece nulo."},"geometry":{"type":"Point","coordinates":[-54.7551,-17.5698]}},{"type":"Feature","properties":{"municipio":"Nova Andradina","total_registros":4,"categorias":"{\"Meio de Hospedagem\":4}","situacoes_cadastrais":"{\"Regular\":4}","natureza":"Síntese municipal de registros Cadastur. Não expõe dados pessoais ou cadastrais individualizados.","precisao_geometria":"sede municipal representativa","data_captura":"2026-08-12T02:31:31.233Z","fonte_oficial":"Ministério do Turismo. Cadastur, conjunto de meios de hospedagem. Os registros são agregados por município para evitar exposição desnecessária de dados cadastrais individuais.","unidades_habitacionais_declaradas":null,"leitos_declarados":368,"registros_com_uh":0,"registros_com_leitos":4,"capacidade_observacao":"Capacidade somada somente quando campos numéricos de unidades habitacionais ou leitos são reconhecidos na fonte. Campo ausente permanece nulo."},"geometry":{"type":"Point","coordinates":[-53.3437,-22.238]}},{"type":"Feature","properties":{"municipio":"Bela Vista","total_registros":5,"categorias":"{\"Meio de Hospedagem\":5}","situacoes_cadastrais":"{\"Regular\":5}","natureza":"Síntese municipal de registros Cadastur. Não expõe dados pessoais ou cadastrais individualizados.","precisao_geometria":"sede municipal representativa","data_captura":"2026-08-12T02:31:31.233Z","fonte_oficial":"Ministério do Turismo. Cadastur, conjunto de meios de hospedagem. Os registros são agregados por município para evitar exposição desnecessária de dados cadastrais individuais.","unidades_habitacionais_declaradas":null,"leitos_declarados":236,"registros_com_uh":0,"registros_com_leitos":5,"capacidade_observacao":"Capacidade somada somente quando campos numéricos de unidades habitacionais ou leitos são reconhecidos na fonte. Campo ausente permanece nulo."},"geometry":{"type":"Point","coordinates":[-56.5263,-22.1073]}},{"type":"Feature","properties":{"municipio":"Nova Alvorada do Sul","total_registros":2,"categorias":"{\"Meio de Hospedagem\":2}","situacoes_cadastrais":"{\"Regular\":2}","natureza":"Síntese municipal de registros Cadastur. Não expõe dados pessoais ou cadastrais individualizados.","precisao_geometria":"sede municipal representativa","data_captura":"2026-08-12T02:31:31.233Z","fonte_oficial":"Ministério do Turismo. Cadastur, conjunto de meios de hospedagem. Os registros são agregados por município para evitar exposição desnecessária de dados cadastrais individuais.","unidades_habitacionais_declaradas":null,"leitos_declarados":165,"registros_com_uh":0,"registros_com_leitos":2,"capacidade_observacao":"Capacidade somada somente quando campos numéricos de unidades habitacionais ou leitos são reconhecidos na fonte. Campo ausente permanece nulo."},"geometry":{"type":"Point","coordinates":[-54.3825,-21.4657]}},{"type":"Feature","properties":{"municipio":"Bodoquena","total_registros":9,"categorias":"{\"Meio de Hospedagem\":9}","situacoes_cadastrais":"{\"Regular\":9}","natureza":"Síntese municipal de registros Cadastur. Não expõe dados pessoais ou cadastrais individualizados.","precisao_geometria":"sede municipal representativa","data_captura":"2026-08-12T02:31:31.233Z","fonte_oficial":"Ministério do Turismo. Cadastur, conjunto de meios de hospedagem. Os registros são agregados por município para evitar exposição desnecessária de dados cadastrais individuais.","unidades_habitacionais_declaradas":null,"leitos_declarados":291,"registros_com_uh":0,"registros_com_leitos":9,"capacidade_observacao":"Capacidade somada somente quando campos numéricos de unidades habitacionais ou leitos são reconhecidos na fonte. Campo ausente permanece nulo."},"geometry":{"type":"Point","coordinates":[-56.7127,-20.537]}},{"type":"Feature","properties":{"municipio":"Costa Rica","total_registros":3,"categorias":"{\"Meio de Hospedagem\":3}","situacoes_cadastrais":"{\"Regular\":3}","natureza":"Síntese municipal de registros Cadastur. Não expõe dados pessoais ou cadastrais individualizados.","precisao_geometria":"sede municipal representativa","data_captura":"2026-08-12T02:31:31.233Z","fonte_oficial":"Ministério do Turismo. Cadastur, conjunto de meios de hospedagem. Os registros são agregados por município para evitar exposição desnecessária de dados cadastrais individuais.","unidades_habitacionais_declaradas":null,"leitos_declarados":163,"registros_com_uh":0,"registros_com_leitos":3,"capacidade_observacao":"Capacidade somada somente quando campos numéricos de unidades habitacionais ou leitos são reconhecidos na fonte. Campo ausente permanece nulo."},"geometry":{"type":"Point","coordinates":[-53.1287,-18.5432]}},{"type":"Feature","properties":{"municipio":"Água Clara","total_registros":1,"categorias":"{\"Meio de Hospedagem\":1}","situacoes_cadastrais":"{\"Regular\":1}","natureza":"Síntese municipal de registros Cadastur. Não expõe dados pessoais ou cadastrais individualizados.","precisao_geometria":"sede municipal representativa","data_captura":"2026-08-12T02:31:31.233Z","fonte_oficial":"Ministério do Turismo. Cadastur, conjunto de meios de hospedagem. Os registros são agregados por município para evitar exposição desnecessária de dados cadastrais individuais.","unidades_habitacionais_declaradas":null,"leitos_declarados":56,"registros_com_uh":0,"registros_com_leitos":1,"capacidade_observacao":"Capacidade somada somente quando campos numéricos de unidades habitacionais ou leitos são reconhecidos na fonte. Campo ausente permanece nulo."},"geometry":{"type":"Point","coordinates":[-52.879,-20.4452]}},{"type":"Feature","properties":{"municipio":"Cassilândia","total_registros":1,"categorias":"{\"Meio de Hospedagem\":1}","situacoes_cadastrais":"{\"Regular\":1}","natureza":"Síntese municipal de registros Cadastur. Não expõe dados pessoais ou cadastrais individualizados.","precisao_geometria":"sede municipal representativa","data_captura":"2026-08-12T02:31:31.233Z","fonte_oficial":"Ministério do Turismo. Cadastur, conjunto de meios de hospedagem. Os registros são agregados por município para evitar exposição desnecessária de dados cadastrais individuais.","unidades_habitacionais_declaradas":null,"leitos_declarados":55,"registros_com_uh":0,"registros_com_leitos":1,"capacidade_observacao":"Capacidade somada somente quando campos numéricos de unidades habitacionais ou leitos são reconhecidos na fonte. Campo ausente permanece nulo."},"geometry":{"type":"Point","coordinates":[-51.7313,-19.1179]}},{"type":"Feature","properties":{"municipio":"Porto Murtinho","total_registros":4,"categorias":"{\"Meio de Hospedagem\":4}","situacoes_cadastrais":"{\"Regular\":4}","natureza":"Síntese municipal de registros Cadastur. Não expõe dados pessoais ou cadastrais individualizados.","precisao_geometria":"sede municipal representativa","data_captura":"2026-08-12T02:31:31.233Z","fonte_oficial":"Ministério do Turismo. Cadastur, conjunto de meios de hospedagem. Os registros são agregados por município para evitar exposição desnecessária de dados cadastrais individuais.","unidades_habitacionais_declaradas":null,"leitos_declarados":162,"registros_com_uh":0,"registros_com_leitos":4,"capacidade_observacao":"Capacidade somada somente quando campos numéricos de unidades habitacionais ou leitos são reconhecidos na fonte. Campo ausente permanece nulo."},"geometry":{"type":"Point","coordinates":[-57.8836,-21.6981]}},{"type":"Feature","properties":{"municipio":"Mundo Novo","total_registros":4,"categorias":"{\"Meio de Hospedagem\":4}","situacoes_cadastrais":"{\"Regular\":4}","natureza":"Síntese municipal de registros Cadastur. Não expõe dados pessoais ou cadastrais individualizados.","precisao_geometria":"sede municipal representativa","data_captura":"2026-08-12T02:31:31.233Z","fonte_oficial":"Ministério do Turismo. Cadastur, conjunto de meios de hospedagem. Os registros são agregados por município para evitar exposição desnecessária de dados cadastrais individuais.","unidades_habitacionais_declaradas":null,"leitos_declarados":205,"registros_com_uh":0,"registros_com_leitos":4,"capacidade_observacao":"Capacidade somada somente quando campos numéricos de unidades habitacionais ou leitos são reconhecidos na fonte. Campo ausente permanece nulo."},"geometry":{"type":"Point","coordinates":[-54.281,-23.9355]}},{"type":"Feature","properties":{"municipio":"Eldorado","total_registros":1,"categorias":"{\"Meio de Hospedagem\":1}","situacoes_cadastrais":"{\"Regular\":1}","natureza":"Síntese municipal de registros Cadastur. Não expõe dados pessoais ou cadastrais individualizados.","precisao_geometria":"sede municipal representativa","data_captura":"2026-08-12T02:31:31.233Z","fonte_oficial":"Ministério do Turismo. Cadastur, conjunto de meios de hospedagem. Os registros são agregados por município para evitar exposição desnecessária de dados cadastrais individuais.","unidades_habitacionais_declaradas":null,"leitos_declarados":50,"registros_com_uh":0,"registros_com_leitos":1,"capacidade_observacao":"Capacidade somada somente quando campos numéricos de unidades habitacionais ou leitos são reconhecidos na fonte. Campo ausente permanece nulo."},"geometry":{"type":"Point","coordinates":[-54.2838,-23.7868]}},{"type":"Feature","properties":{"municipio":"Chapadão do Sul","total_registros":6,"categorias":"{\"Meio de Hospedagem\":6}","situacoes_cadastrais":"{\"Regular\":5,\"Em Implantação\":1}","natureza":"Síntese municipal de registros Cadastur. Não expõe dados pessoais ou cadastrais individualizados.","precisao_geometria":"sede municipal representativa","data_captura":"2026-08-12T02:31:31.233Z","fonte_oficial":"Ministério do Turismo. Cadastur, conjunto de meios de hospedagem. Os registros são agregados por município para evitar exposição desnecessária de dados cadastrais individuais.","unidades_habitacionais_declaradas":null,"leitos_declarados":394,"registros_com_uh":0,"registros_com_leitos":6,"capacidade_observacao":"Capacidade somada somente quando campos numéricos de unidades habitacionais ou leitos são reconhecidos na fonte. Campo ausente permanece nulo."},"geometry":{"type":"Point","coordinates":[-52.6263,-18.788]}},{"type":"Feature","properties":{"municipio":"Glória de Dourados","total_registros":2,"categorias":"{\"Meio de Hospedagem\":2}","situacoes_cadastrais":"{\"Regular\":2}","natureza":"Síntese municipal de registros Cadastur. Não expõe dados pessoais ou cadastrais individualizados.","precisao_geometria":"sede municipal representativa","data_captura":"2026-08-12T02:31:31.233Z","fonte_oficial":"Ministério do Turismo. Cadastur, conjunto de meios de hospedagem. Os registros são agregados por município para evitar exposição desnecessária de dados cadastrais individuais.","unidades_habitacionais_declaradas":null,"leitos_declarados":102,"registros_com_uh":0,"registros_com_leitos":2,"capacidade_observacao":"Capacidade somada somente quando campos numéricos de unidades habitacionais ou leitos são reconhecidos na fonte. Campo ausente permanece nulo."},"geometry":{"type":"Point","coordinates":[-54.2335,-22.4136]}},{"type":"Feature","properties":{"municipio":"Amambai","total_registros":1,"categorias":"{\"Meio de Hospedagem\":1}","situacoes_cadastrais":"{\"Regular\":1}","natureza":"Síntese municipal de registros Cadastur. Não expõe dados pessoais ou cadastrais individualizados.","precisao_geometria":"sede municipal representativa","data_captura":"2026-08-12T02:31:31.233Z","fonte_oficial":"Ministério do Turismo. Cadastur, conjunto de meios de hospedagem. Os registros são agregados por município para evitar exposição desnecessária de dados cadastrais individuais.","unidades_habitacionais_declaradas":null,"leitos_declarados":80,"registros_com_uh":0,"registros_com_leitos":1,"capacidade_observacao":"Capacidade somada somente quando campos numéricos de unidades habitacionais ou leitos são reconhecidos na fonte. Campo ausente permanece nulo."},"geometry":{"type":"Point","coordinates":[-55.2253,-23.1058]}},{"type":"Feature","properties":{"municipio":"Rio Verde de Mato Grosso","total_registros":3,"categorias":"{\"Meio de Hospedagem\":3}","situacoes_cadastrais":"{\"Regular\":3}","natureza":"Síntese municipal de registros Cadastur. Não expõe dados pessoais ou cadastrais individualizados.","precisao_geometria":"sede municipal representativa","data_captura":"2026-08-12T02:31:31.233Z","fonte_oficial":"Ministério do Turismo. Cadastur, conjunto de meios de hospedagem. Os registros são agregados por município para evitar exposição desnecessária de dados cadastrais individuais.","unidades_habitacionais_declaradas":null,"leitos_declarados":108,"registros_com_uh":0,"registros_com_leitos":3,"capacidade_observacao":"Capacidade somada somente quando campos numéricos de unidades habitacionais ou leitos são reconhecidos na fonte. Campo ausente permanece nulo."},"geometry":{"type":"Point","coordinates":[-54.8434,-18.9249]}},{"type":"Feature","properties":{"municipio":"Paranaíba","total_registros":2,"categorias":"{\"Meio de Hospedagem\":2}","situacoes_cadastrais":"{\"Regular\":1,\"Em Implantação\":1}","natureza":"Síntese municipal de registros Cadastur. Não expõe dados pessoais ou cadastrais individualizados.","precisao_geometria":"sede municipal representativa","data_captura":"2026-08-12T02:31:31.233Z","fonte_oficial":"Ministério do Turismo. Cadastur, conjunto de meios de hospedagem. Os registros são agregados por município para evitar exposição desnecessária de dados cadastrais individuais.","unidades_habitacionais_declaradas":null,"leitos_declarados":49,"registros_com_uh":0,"registros_com_leitos":2,"capacidade_observacao":"Capacidade somada somente quando campos numéricos de unidades habitacionais ou leitos são reconhecidos na fonte. Campo ausente permanece nulo."},"geometry":{"type":"Point","coordinates":[-51.1909,-19.6746]}},{"type":"Feature","properties":{"municipio":"Anaurilândia","total_registros":1,"categorias":"{\"Meio de Hospedagem\":1}","situacoes_cadastrais":"{\"Regular\":1}","natureza":"Síntese municipal de registros Cadastur. Não expõe dados pessoais ou cadastrais individualizados.","precisao_geometria":"sede municipal representativa","data_captura":"2026-08-12T02:31:31.233Z","fonte_oficial":"Ministério do Turismo. Cadastur, conjunto de meios de hospedagem. Os registros são agregados por município para evitar exposição desnecessária de dados cadastrais individuais.","unidades_habitacionais_declaradas":null,"leitos_declarados":50,"registros_com_uh":0,"registros_com_leitos":1,"capacidade_observacao":"Capacidade somada somente quando campos numéricos de unidades habitacionais ou leitos são reconhecidos na fonte. Campo ausente permanece nulo."},"geometry":{"type":"Point","coordinates":[-52.7191,-22.1852]}},{"type":"Feature","properties":{"municipio":"Sidrolândia","total_registros":4,"categorias":"{\"Meio de Hospedagem\":4}","situacoes_cadastrais":"{\"Regular\":3,\"Em Implantação\":1}","natureza":"Síntese municipal de registros Cadastur. Não expõe dados pessoais ou cadastrais individualizados.","precisao_geometria":"sede municipal representativa","data_captura":"2026-08-12T02:31:31.233Z","fonte_oficial":"Ministério do Turismo. Cadastur, conjunto de meios de hospedagem. Os registros são agregados por município para evitar exposição desnecessária de dados cadastrais individuais.","unidades_habitacionais_declaradas":null,"leitos_declarados":249,"registros_com_uh":0,"registros_com_leitos":4,"capacidade_observacao":"Capacidade somada somente quando campos numéricos de unidades habitacionais ou leitos são reconhecidos na fonte. Campo ausente permanece nulo."},"geometry":{"type":"Point","coordinates":[-54.9692,-20.9302]}},{"type":"Feature","properties":{"municipio":"Brasilândia","total_registros":2,"categorias":"{\"Meio de Hospedagem\":2}","situacoes_cadastrais":"{\"Regular\":2}","natureza":"Síntese municipal de registros Cadastur. Não expõe dados pessoais ou cadastrais individualizados.","precisao_geometria":"sede municipal representativa","data_captura":"2026-08-12T02:31:31.233Z","fonte_oficial":"Ministério do Turismo. Cadastur, conjunto de meios de hospedagem. Os registros são agregados por município para evitar exposição desnecessária de dados cadastrais individuais.","unidades_habitacionais_declaradas":null,"leitos_declarados":92,"registros_com_uh":0,"registros_com_leitos":2,"capacidade_observacao":"Capacidade somada somente quando campos numéricos de unidades habitacionais ou leitos são reconhecidos na fonte. Campo ausente permanece nulo."},"geometry":{"type":"Point","coordinates":[-52.0365,-21.2544]}},{"type":"Feature","properties":{"municipio":"Paraíso das Águas","total_registros":2,"categorias":"{\"Meio de Hospedagem\":2}","situacoes_cadastrais":"{\"Regular\":2}","natureza":"Síntese municipal de registros Cadastur. Não expõe dados pessoais ou cadastrais individualizados.","precisao_geometria":"sede municipal representativa","data_captura":"2026-08-12T02:31:31.233Z","fonte_oficial":"Ministério do Turismo. Cadastur, conjunto de meios de hospedagem. Os registros são agregados por município para evitar exposição desnecessária de dados cadastrais individuais.","unidades_habitacionais_declaradas":null,"leitos_declarados":128,"registros_com_uh":0,"registros_com_leitos":2,"capacidade_observacao":"Capacidade somada somente quando campos numéricos de unidades habitacionais ou leitos são reconhecidos na fonte. Campo ausente permanece nulo."},"geometry":{"type":"Point","coordinates":[-53.0116,-19.0216]}},{"type":"Feature","properties":{"municipio":"Ribas do Rio Pardo","total_registros":1,"categorias":"{\"Meio de Hospedagem\":1}","situacoes_cadastrais":"{\"Regular\":1}","natureza":"Síntese municipal de registros Cadastur. Não expõe dados pessoais ou cadastrais individualizados.","precisao_geometria":"sede municipal representativa","data_captura":"2026-08-12T02:31:31.233Z","fonte_oficial":"Ministério do Turismo. Cadastur, conjunto de meios de hospedagem. Os registros são agregados por município para evitar exposição desnecessária de dados cadastrais individuais.","unidades_habitacionais_declaradas":null,"leitos_declarados":408,"registros_com_uh":0,"registros_com_leitos":1,"capacidade_observacao":"Capacidade somada somente quando campos numéricos de unidades habitacionais ou leitos são reconhecidos na fonte. Campo ausente permanece nulo."},"geometry":{"type":"Point","coordinates":[-53.7588,-20.4445]}},{"type":"Feature","properties":{"municipio":"Taquarussu","total_registros":1,"categorias":"{\"Meio de Hospedagem\":1}","situacoes_cadastrais":"{\"Regular\":1}","natureza":"Síntese municipal de registros Cadastur. Não expõe dados pessoais ou cadastrais individualizados.","precisao_geometria":"sede municipal representativa","data_captura":"2026-08-12T02:31:31.233Z","fonte_oficial":"Ministério do Turismo. Cadastur, conjunto de meios de hospedagem. Os registros são agregados por município para evitar exposição desnecessária de dados cadastrais individuais.","unidades_habitacionais_declaradas":null,"leitos_declarados":15,"registros_com_uh":0,"registros_com_leitos":1,"capacidade_observacao":"Capacidade somada somente quando campos numéricos de unidades habitacionais ou leitos são reconhecidos na fonte. Campo ausente permanece nulo."},"geometry":{"type":"Point","coordinates":[-53.3519,-22.4898]}}],"atlas_metadata":{"fonte":"Ministério do Turismo · Cadastur","corte":"2026-08-10","recursos":[{"key":"hospedagem","file":"C:\\joaju-ms\\capturas_fontes_2026_08_10\\cadastur_ict\\hospedagem_hospedagem_hospedagem_meios-de-hospedagem-data-situacao_-30_06_2025.xlsx","sourceFile":"C:\\joaju-ms\\capturas_fontes_2026_08_10\\cadastur_ict\\hospedagem_hospedagem_meios-de-hospedagem-data-situacao_-30_06_2025.xlsx","sourcePage":"https://dados.turismo.gov.br/pt_BR/dataset/meios-de-hospedagem","periodo":"arquivo oficial local","via":"Downloads","sha256":"5f50eb9d17a867b5ae57b2bc13da372327fca2395dc476dc95764bf44eaef7fe"}],"linhas_lidas":16613,"metodo":"síntese municipal, sem publicação de dados individuais"}}