{"type":"FeatureCollection","features":[{"type":"Feature","properties":{"municipio":"Campo Grande","total_registros":408,"categorias":"{\"Agência de Turismo\":253,\"Guia de Turismo\":80,\"Transportadora Turística\":75}","situacoes_cadastrais":"{\"Regular\":386,\"Em Implantação\":22}","natureza":"Síntese municipal de registros Cadastur. Não expõe dados pessoais ou cadastrais individualizados.","precisao_geometria":"sede municipal representativa","data_captura":"2026-08-12T02:31:32.438Z","fonte_oficial":"Ministério do Turismo. Cadastur, agências, guias e transportadoras. Dados agregados por município e categoria; nomes, CPF, telefone, e-mail e endereços individuais não são publicados pelo atlas."},"geometry":{"type":"Point","coordinates":[-54.6295,-20.4486]}},{"type":"Feature","properties":{"municipio":"Bonito","total_registros":345,"categorias":"{\"Agência de Turismo\":73,\"Guia de Turismo\":246,\"Transportadora Turística\":26}","situacoes_cadastrais":"{\"Regular\":339,\"Em Implantação\":6}","natureza":"Síntese municipal de registros Cadastur. Não expõe dados pessoais ou cadastrais individualizados.","precisao_geometria":"sede municipal representativa","data_captura":"2026-08-12T02:31:32.438Z","fonte_oficial":"Ministério do Turismo. Cadastur, agências, guias e transportadoras. Dados agregados por município e categoria; nomes, CPF, telefone, e-mail e endereços individuais não são publicados pelo atlas."},"geometry":{"type":"Point","coordinates":[-56.4836,-21.1261]}},{"type":"Feature","properties":{"municipio":"Corumbá","total_registros":49,"categorias":"{\"Agência de Turismo\":30,\"Guia de Turismo\":5,\"Transportadora Turística\":14}","situacoes_cadastrais":"{\"Regular\":48,\"Em Implantação\":1}","natureza":"Síntese municipal de registros Cadastur. Não expõe dados pessoais ou cadastrais individualizados.","precisao_geometria":"sede municipal representativa","data_captura":"2026-08-12T02:31:32.438Z","fonte_oficial":"Ministério do Turismo. Cadastur, agências, guias e transportadoras. Dados agregados por município e categoria; nomes, CPF, telefone, e-mail e endereços individuais não são publicados pelo atlas."},"geometry":{"type":"Point","coordinates":[-57.651,-19.0077]}},{"type":"Feature","properties":{"municipio":"Três Lagoas","total_registros":34,"categorias":"{\"Agência de Turismo\":14,\"Guia de Turismo\":4,\"Transportadora Turística\":16}","situacoes_cadastrais":"{\"Regular\":33,\"Em Implantação\":1}","natureza":"Síntese municipal de registros Cadastur. Não expõe dados pessoais ou cadastrais individualizados.","precisao_geometria":"sede municipal representativa","data_captura":"2026-08-12T02:31:32.438Z","fonte_oficial":"Ministério do Turismo. Cadastur, agências, guias e transportadoras. Dados agregados por município e categoria; nomes, CPF, telefone, e-mail e endereços individuais não são publicados pelo atlas."},"geometry":{"type":"Point","coordinates":[-51.7007,-20.7849]}},{"type":"Feature","properties":{"municipio":"Ponta Porã","total_registros":15,"categorias":"{\"Agência de Turismo\":9,\"Transportadora Turística\":6}","situacoes_cadastrais":"{\"Regular\":14,\"Em Implantação\":1}","natureza":"Síntese municipal de registros Cadastur. Não expõe dados pessoais ou cadastrais individualizados.","precisao_geometria":"sede municipal representativa","data_captura":"2026-08-12T02:31:32.438Z","fonte_oficial":"Ministério do Turismo. Cadastur, agências, guias e transportadoras. Dados agregados por município e categoria; nomes, CPF, telefone, e-mail e endereços individuais não são publicados pelo atlas."},"geometry":{"type":"Point","coordinates":[-55.7203,-22.5296]}},{"type":"Feature","properties":{"municipio":"Miranda","total_registros":9,"categorias":"{\"Agência de Turismo\":5,\"Transportadora Turística\":4}","situacoes_cadastrais":"{\"Regular\":9}","natureza":"Síntese municipal de registros Cadastur. Não expõe dados pessoais ou cadastrais individualizados.","precisao_geometria":"sede municipal representativa","data_captura":"2026-08-12T02:31:32.438Z","fonte_oficial":"Ministério do Turismo. Cadastur, agências, guias e transportadoras. Dados agregados por município e categoria; nomes, CPF, telefone, e-mail e endereços individuais não são publicados pelo atlas."},"geometry":{"type":"Point","coordinates":[-56.3746,-20.2355]}},{"type":"Feature","properties":{"municipio":"Sidrolândia","total_registros":8,"categorias":"{\"Agência de Turismo\":3,\"Transportadora Turística\":5}","situacoes_cadastrais":"{\"Regular\":8}","natureza":"Síntese municipal de registros Cadastur. Não expõe dados pessoais ou cadastrais individualizados.","precisao_geometria":"sede municipal representativa","data_captura":"2026-08-12T02:31:32.438Z","fonte_oficial":"Ministério do Turismo. Cadastur, agências, guias e transportadoras. Dados agregados por município e categoria; nomes, CPF, telefone, e-mail e endereços individuais não são publicados pelo atlas."},"geometry":{"type":"Point","coordinates":[-54.9692,-20.9302]}},{"type":"Feature","properties":{"municipio":"Vicentina","total_registros":1,"categorias":"{\"Agência de Turismo\":1}","situacoes_cadastrais":"{\"Regular\":1}","natureza":"Síntese municipal de registros Cadastur. Não expõe dados pessoais ou cadastrais individualizados.","precisao_geometria":"sede municipal representativa","data_captura":"2026-08-12T02:31:32.438Z","fonte_oficial":"Ministério do Turismo. Cadastur, agências, guias e transportadoras. Dados agregados por município e categoria; nomes, CPF, telefone, e-mail e endereços individuais não são publicados pelo atlas."},"geometry":{"type":"Point","coordinates":[-54.4415,-22.4098]}},{"type":"Feature","properties":{"municipio":"Aparecida do Taboado","total_registros":8,"categorias":"{\"Agência de Turismo\":6,\"Transportadora Turística\":2}","situacoes_cadastrais":"{\"Regular\":6,\"Em Implantação\":2}","natureza":"Síntese municipal de registros Cadastur. Não expõe dados pessoais ou cadastrais individualizados.","precisao_geometria":"sede municipal representativa","data_captura":"2026-08-12T02:31:32.438Z","fonte_oficial":"Ministério do Turismo. Cadastur, agências, guias e transportadoras. Dados agregados por município e categoria; nomes, CPF, telefone, e-mail e endereços individuais não são publicados pelo atlas."},"geometry":{"type":"Point","coordinates":[-51.0961,-20.0873]}},{"type":"Feature","properties":{"municipio":"Bodoquena","total_registros":30,"categorias":"{\"Agência de Turismo\":6,\"Guia de Turismo\":24}","situacoes_cadastrais":"{\"Em Implantação\":1,\"Regular\":29}","natureza":"Síntese municipal de registros Cadastur. Não expõe dados pessoais ou cadastrais individualizados.","precisao_geometria":"sede municipal representativa","data_captura":"2026-08-12T02:31:32.438Z","fonte_oficial":"Ministério do Turismo. Cadastur, agências, guias e transportadoras. Dados agregados por município e categoria; nomes, CPF, telefone, e-mail e endereços individuais não são publicados pelo atlas."},"geometry":{"type":"Point","coordinates":[-56.7127,-20.537]}},{"type":"Feature","properties":{"municipio":"São Gabriel do Oeste","total_registros":6,"categorias":"{\"Agência de Turismo\":3,\"Transportadora Turística\":3}","situacoes_cadastrais":"{\"Regular\":6}","natureza":"Síntese municipal de registros Cadastur. Não expõe dados pessoais ou cadastrais individualizados.","precisao_geometria":"sede municipal representativa","data_captura":"2026-08-12T02:31:32.438Z","fonte_oficial":"Ministério do Turismo. Cadastur, agências, guias e transportadoras. Dados agregados por município e categoria; nomes, CPF, telefone, e-mail e endereços individuais não são publicados pelo atlas."},"geometry":{"type":"Point","coordinates":[-54.5507,-19.3889]}},{"type":"Feature","properties":{"municipio":"Chapadão do Sul","total_registros":4,"categorias":"{\"Agência de Turismo\":1,\"Transportadora Turística\":3}","situacoes_cadastrais":"{\"Regular\":4}","natureza":"Síntese municipal de registros Cadastur. Não expõe dados pessoais ou cadastrais individualizados.","precisao_geometria":"sede municipal representativa","data_captura":"2026-08-12T02:31:32.438Z","fonte_oficial":"Ministério do Turismo. Cadastur, agências, guias e transportadoras. Dados agregados por município e categoria; nomes, CPF, telefone, e-mail e endereços individuais não são publicados pelo atlas."},"geometry":{"type":"Point","coordinates":[-52.6263,-18.788]}},{"type":"Feature","properties":{"municipio":"Aquidauana","total_registros":10,"categorias":"{\"Agência de Turismo\":5,\"Guia de Turismo\":3,\"Transportadora Turística\":2}","situacoes_cadastrais":"{\"Regular\":10}","natureza":"Síntese municipal de registros Cadastur. Não expõe dados pessoais ou cadastrais individualizados.","precisao_geometria":"sede municipal representativa","data_captura":"2026-08-12T02:31:32.438Z","fonte_oficial":"Ministério do Turismo. Cadastur, agências, guias e transportadoras. Dados agregados por município e categoria; nomes, CPF, telefone, e-mail e endereços individuais não são publicados pelo atlas."},"geometry":{"type":"Point","coordinates":[-55.7868,-20.4666]}},{"type":"Feature","properties":{"municipio":"Glória de Dourados","total_registros":3,"categorias":"{\"Agência de Turismo\":1,\"Transportadora Turística\":2}","situacoes_cadastrais":"{\"Regular\":3}","natureza":"Síntese municipal de registros Cadastur. Não expõe dados pessoais ou cadastrais individualizados.","precisao_geometria":"sede municipal representativa","data_captura":"2026-08-12T02:31:32.438Z","fonte_oficial":"Ministério do Turismo. Cadastur, agências, guias e transportadoras. Dados agregados por município e categoria; nomes, CPF, telefone, e-mail e endereços individuais não são publicados pelo atlas."},"geometry":{"type":"Point","coordinates":[-54.2335,-22.4136]}},{"type":"Feature","properties":{"municipio":"Dourados","total_registros":40,"categorias":"{\"Agência de Turismo\":29,\"Guia de Turismo\":2,\"Transportadora Turística\":9}","situacoes_cadastrais":"{\"Regular\":38,\"Em Implantação\":2}","natureza":"Síntese municipal de registros Cadastur. Não expõe dados pessoais ou cadastrais individualizados.","precisao_geometria":"sede municipal representativa","data_captura":"2026-08-12T02:31:32.438Z","fonte_oficial":"Ministério do Turismo. Cadastur, agências, guias e transportadoras. Dados agregados por município e categoria; nomes, CPF, telefone, e-mail e endereços individuais não são publicados pelo atlas."},"geometry":{"type":"Point","coordinates":[-54.812,-22.2231]}},{"type":"Feature","properties":{"municipio":"Itaporã","total_registros":3,"categorias":"{\"Agência de Turismo\":2,\"Transportadora Turística\":1}","situacoes_cadastrais":"{\"Regular\":3}","natureza":"Síntese municipal de registros Cadastur. Não expõe dados pessoais ou cadastrais individualizados.","precisao_geometria":"sede municipal representativa","data_captura":"2026-08-12T02:31:32.438Z","fonte_oficial":"Ministério do Turismo. Cadastur, agências, guias e transportadoras. Dados agregados por município e categoria; nomes, CPF, telefone, e-mail e endereços individuais não são publicados pelo atlas."},"geometry":{"type":"Point","coordinates":[-54.7934,-22.08]}},{"type":"Feature","properties":{"municipio":"Ladário","total_registros":3,"categorias":"{\"Agência de Turismo\":2,\"Transportadora Turística\":1}","situacoes_cadastrais":"{\"Regular\":3}","natureza":"Síntese municipal de registros Cadastur. Não expõe dados pessoais ou cadastrais individualizados.","precisao_geometria":"sede municipal representativa","data_captura":"2026-08-12T02:31:32.438Z","fonte_oficial":"Ministério do Turismo. Cadastur, agências, guias e transportadoras. Dados agregados por município e categoria; nomes, CPF, telefone, e-mail e endereços individuais não são publicados pelo atlas."},"geometry":{"type":"Point","coordinates":[-57.5973,-19.0089]}},{"type":"Feature","properties":{"municipio":"Amambai","total_registros":4,"categorias":"{\"Agência de Turismo\":3,\"Transportadora Turística\":1}","situacoes_cadastrais":"{\"Regular\":4}","natureza":"Síntese municipal de registros Cadastur. Não expõe dados pessoais ou cadastrais individualizados.","precisao_geometria":"sede municipal representativa","data_captura":"2026-08-12T02:31:32.438Z","fonte_oficial":"Ministério do Turismo. Cadastur, agências, guias e transportadoras. Dados agregados por município e categoria; nomes, CPF, telefone, e-mail e endereços individuais não são publicados pelo atlas."},"geometry":{"type":"Point","coordinates":[-55.2253,-23.1058]}},{"type":"Feature","properties":{"municipio":"Porto Murtinho","total_registros":2,"categorias":"{\"Agência de Turismo\":2}","situacoes_cadastrais":"{\"Regular\":2}","natureza":"Síntese municipal de registros Cadastur. Não expõe dados pessoais ou cadastrais individualizados.","precisao_geometria":"sede municipal representativa","data_captura":"2026-08-12T02:31:32.438Z","fonte_oficial":"Ministério do Turismo. Cadastur, agências, guias e transportadoras. Dados agregados por município e categoria; nomes, CPF, telefone, e-mail e endereços individuais não são publicados pelo atlas."},"geometry":{"type":"Point","coordinates":[-57.8836,-21.6981]}},{"type":"Feature","properties":{"municipio":"Nova Andradina","total_registros":6,"categorias":"{\"Agência de Turismo\":2,\"Transportadora Turística\":4}","situacoes_cadastrais":"{\"Regular\":6}","natureza":"Síntese municipal de registros Cadastur. Não expõe dados pessoais ou cadastrais individualizados.","precisao_geometria":"sede municipal representativa","data_captura":"2026-08-12T02:31:32.438Z","fonte_oficial":"Ministério do Turismo. Cadastur, agências, guias e transportadoras. Dados agregados por município e categoria; nomes, CPF, telefone, e-mail e endereços individuais não são publicados pelo atlas."},"geometry":{"type":"Point","coordinates":[-53.3437,-22.238]}},{"type":"Feature","properties":{"municipio":"Naviraí","total_registros":6,"categorias":"{\"Agência de Turismo\":4,\"Guia de Turismo\":1,\"Transportadora Turística\":1}","situacoes_cadastrais":"{\"Regular\":6}","natureza":"Síntese municipal de registros Cadastur. Não expõe dados pessoais ou cadastrais individualizados.","precisao_geometria":"sede municipal representativa","data_captura":"2026-08-12T02:31:32.438Z","fonte_oficial":"Ministério do Turismo. Cadastur, agências, guias e transportadoras. Dados agregados por município e categoria; nomes, CPF, telefone, e-mail e endereços individuais não são publicados pelo atlas."},"geometry":{"type":"Point","coordinates":[-54.1995,-23.0618]}},{"type":"Feature","properties":{"municipio":"Maracaju","total_registros":11,"categorias":"{\"Agência de Turismo\":6,\"Guia de Turismo\":1,\"Transportadora Turística\":4}","situacoes_cadastrais":"{\"Regular\":11}","natureza":"Síntese municipal de registros Cadastur. Não expõe dados pessoais ou cadastrais individualizados.","precisao_geometria":"sede municipal representativa","data_captura":"2026-08-12T02:31:32.438Z","fonte_oficial":"Ministério do Turismo. Cadastur, agências, guias e transportadoras. Dados agregados por município e categoria; nomes, CPF, telefone, e-mail e endereços individuais não são publicados pelo atlas."},"geometry":{"type":"Point","coordinates":[-55.1678,-21.6105]}},{"type":"Feature","properties":{"municipio":"Cassilândia","total_registros":7,"categorias":"{\"Agência de Turismo\":2,\"Transportadora Turística\":5}","situacoes_cadastrais":"{\"Regular\":7}","natureza":"Síntese municipal de registros Cadastur. Não expõe dados pessoais ou cadastrais individualizados.","precisao_geometria":"sede municipal representativa","data_captura":"2026-08-12T02:31:32.438Z","fonte_oficial":"Ministério do Turismo. Cadastur, agências, guias e transportadoras. Dados agregados por município e categoria; nomes, CPF, telefone, e-mail e endereços individuais não são publicados pelo atlas."},"geometry":{"type":"Point","coordinates":[-51.7313,-19.1179]}},{"type":"Feature","properties":{"municipio":"Terenos","total_registros":2,"categorias":"{\"Agência de Turismo\":1,\"Transportadora Turística\":1}","situacoes_cadastrais":"{\"Regular\":2}","natureza":"Síntese municipal de registros Cadastur. Não expõe dados pessoais ou cadastrais individualizados.","precisao_geometria":"sede municipal representativa","data_captura":"2026-08-12T02:31:32.438Z","fonte_oficial":"Ministério do Turismo. Cadastur, agências, guias e transportadoras. Dados agregados por município e categoria; nomes, CPF, telefone, e-mail e endereços individuais não são publicados pelo atlas."},"geometry":{"type":"Point","coordinates":[-54.8647,-20.4378]}},{"type":"Feature","properties":{"municipio":"Mundo Novo","total_registros":3,"categorias":"{\"Agência de Turismo\":1,\"Transportadora Turística\":2}","situacoes_cadastrais":"{\"Regular\":3}","natureza":"Síntese municipal de registros Cadastur. Não expõe dados pessoais ou cadastrais individualizados.","precisao_geometria":"sede municipal representativa","data_captura":"2026-08-12T02:31:32.438Z","fonte_oficial":"Ministério do Turismo. Cadastur, agências, guias e transportadoras. Dados agregados por município e categoria; nomes, CPF, telefone, e-mail e endereços individuais não são publicados pelo atlas."},"geometry":{"type":"Point","coordinates":[-54.281,-23.9355]}},{"type":"Feature","properties":{"municipio":"Nioaque","total_registros":2,"categorias":"{\"Agência de Turismo\":1,\"Transportadora Turística\":1}","situacoes_cadastrais":"{\"Regular\":2}","natureza":"Síntese municipal de registros Cadastur. Não expõe dados pessoais ou cadastrais individualizados.","precisao_geometria":"sede municipal representativa","data_captura":"2026-08-12T02:31:32.438Z","fonte_oficial":"Ministério do Turismo. Cadastur, agências, guias e transportadoras. Dados agregados por município e categoria; nomes, CPF, telefone, e-mail e endereços individuais não são publicados pelo atlas."},"geometry":{"type":"Point","coordinates":[-55.8296,-21.1419]}},{"type":"Feature","properties":{"municipio":"Coxim","total_registros":4,"categorias":"{\"Agência de Turismo\":3,\"Transportadora Turística\":1}","situacoes_cadastrais":"{\"Regular\":3,\"Em Implantação\":1}","natureza":"Síntese municipal de registros Cadastur. Não expõe dados pessoais ou cadastrais individualizados.","precisao_geometria":"sede municipal representativa","data_captura":"2026-08-12T02:31:32.438Z","fonte_oficial":"Ministério do Turismo. Cadastur, agências, guias e transportadoras. Dados agregados por município e categoria; nomes, CPF, telefone, e-mail e endereços individuais não são publicados pelo atlas."},"geometry":{"type":"Point","coordinates":[-54.751,-18.5013]}},{"type":"Feature","properties":{"municipio":"Jaraguari","total_registros":1,"categorias":"{\"Agência de Turismo\":1}","situacoes_cadastrais":"{\"Regular\":1}","natureza":"Síntese municipal de registros Cadastur. Não expõe dados pessoais ou cadastrais individualizados.","precisao_geometria":"sede municipal representativa","data_captura":"2026-08-12T02:31:32.438Z","fonte_oficial":"Ministério do Turismo. Cadastur, agências, guias e transportadoras. Dados agregados por município e categoria; nomes, CPF, telefone, e-mail e endereços individuais não são publicados pelo atlas."},"geometry":{"type":"Point","coordinates":[-54.3996,-20.1386]}},{"type":"Feature","properties":{"municipio":"Sete Quedas","total_registros":1,"categorias":"{\"Agência de Turismo\":1}","situacoes_cadastrais":"{\"Em Implantação\":1}","natureza":"Síntese municipal de registros Cadastur. Não expõe dados pessoais ou cadastrais individualizados.","precisao_geometria":"sede municipal representativa","data_captura":"2026-08-12T02:31:32.438Z","fonte_oficial":"Ministério do Turismo. Cadastur, agências, guias e transportadoras. Dados agregados por município e categoria; nomes, CPF, telefone, e-mail e endereços individuais não são publicados pelo atlas."},"geometry":{"type":"Point","coordinates":[-55.0398,-23.9705]}},{"type":"Feature","properties":{"municipio":"Água Clara","total_registros":3,"categorias":"{\"Agência de Turismo\":2,\"Transportadora Turística\":1}","situacoes_cadastrais":"{\"Regular\":2,\"Em Implantação\":1}","natureza":"Síntese municipal de registros Cadastur. Não expõe dados pessoais ou cadastrais individualizados.","precisao_geometria":"sede municipal representativa","data_captura":"2026-08-12T02:31:32.438Z","fonte_oficial":"Ministério do Turismo. Cadastur, agências, guias e transportadoras. Dados agregados por município e categoria; nomes, CPF, telefone, e-mail e endereços individuais não são publicados pelo atlas."},"geometry":{"type":"Point","coordinates":[-52.879,-20.4452]}},{"type":"Feature","properties":{"municipio":"Ribas do Rio Pardo","total_registros":6,"categorias":"{\"Agência de Turismo\":1,\"Guia de Turismo\":1,\"Transportadora Turística\":4}","situacoes_cadastrais":"{\"Regular\":6}","natureza":"Síntese municipal de registros Cadastur. Não expõe dados pessoais ou cadastrais individualizados.","precisao_geometria":"sede municipal representativa","data_captura":"2026-08-12T02:31:32.438Z","fonte_oficial":"Ministério do Turismo. Cadastur, agências, guias e transportadoras. Dados agregados por município e categoria; nomes, CPF, telefone, e-mail e endereços individuais não são publicados pelo atlas."},"geometry":{"type":"Point","coordinates":[-53.7588,-20.4445]}},{"type":"Feature","properties":{"municipio":"Corguinho","total_registros":1,"categorias":"{\"Agência de Turismo\":1}","situacoes_cadastrais":"{\"Regular\":1}","natureza":"Síntese municipal de registros Cadastur. Não expõe dados pessoais ou cadastrais individualizados.","precisao_geometria":"sede municipal representativa","data_captura":"2026-08-12T02:31:32.438Z","fonte_oficial":"Ministério do Turismo. Cadastur, agências, guias e transportadoras. Dados agregados por município e categoria; nomes, CPF, telefone, e-mail e endereços individuais não são publicados pelo atlas."},"geometry":{"type":"Point","coordinates":[-54.8281,-19.8243]}},{"type":"Feature","properties":{"municipio":"Caarapó","total_registros":8,"categorias":"{\"Agência de Turismo\":3,\"Guia de Turismo\":1,\"Transportadora Turística\":4}","situacoes_cadastrais":"{\"Regular\":8}","natureza":"Síntese municipal de registros Cadastur. Não expõe dados pessoais ou cadastrais individualizados.","precisao_geometria":"sede municipal representativa","data_captura":"2026-08-12T02:31:32.438Z","fonte_oficial":"Ministério do Turismo. Cadastur, agências, guias e transportadoras. Dados agregados por município e categoria; nomes, CPF, telefone, e-mail e endereços individuais não são publicados pelo atlas."},"geometry":{"type":"Point","coordinates":[-54.8209,-22.6368]}},{"type":"Feature","properties":{"municipio":"Bataguassu","total_registros":5,"categorias":"{\"Agência de Turismo\":1,\"Transportadora Turística\":4}","situacoes_cadastrais":"{\"Regular\":5}","natureza":"Síntese municipal de registros Cadastur. Não expõe dados pessoais ou cadastrais individualizados.","precisao_geometria":"sede municipal representativa","data_captura":"2026-08-12T02:31:32.438Z","fonte_oficial":"Ministério do Turismo. Cadastur, agências, guias e transportadoras. Dados agregados por município e categoria; nomes, CPF, telefone, e-mail e endereços individuais não são publicados pelo atlas."},"geometry":{"type":"Point","coordinates":[-52.4221,-21.7159]}},{"type":"Feature","properties":{"municipio":"Rio Verde de Mato Grosso","total_registros":2,"categorias":"{\"Agência de Turismo\":1,\"Transportadora Turística\":1}","situacoes_cadastrais":"{\"Regular\":2}","natureza":"Síntese municipal de registros Cadastur. Não expõe dados pessoais ou cadastrais individualizados.","precisao_geometria":"sede municipal representativa","data_captura":"2026-08-12T02:31:32.438Z","fonte_oficial":"Ministério do Turismo. Cadastur, agências, guias e transportadoras. Dados agregados por município e categoria; nomes, CPF, telefone, e-mail e endereços individuais não são publicados pelo atlas."},"geometry":{"type":"Point","coordinates":[-54.8434,-18.9249]}},{"type":"Feature","properties":{"municipio":"Ivinhema","total_registros":3,"categorias":"{\"Agência de Turismo\":1,\"Transportadora Turística\":2}","situacoes_cadastrais":"{\"Regular\":3}","natureza":"Síntese municipal de registros Cadastur. Não expõe dados pessoais ou cadastrais individualizados.","precisao_geometria":"sede municipal representativa","data_captura":"2026-08-12T02:31:32.438Z","fonte_oficial":"Ministério do Turismo. Cadastur, agências, guias e transportadoras. Dados agregados por município e categoria; nomes, CPF, telefone, e-mail e endereços individuais não são publicados pelo atlas."},"geometry":{"type":"Point","coordinates":[-53.8184,-22.3046]}},{"type":"Feature","properties":{"municipio":"Novo Horizonte do Sul","total_registros":1,"categorias":"{\"Agência de Turismo\":1}","situacoes_cadastrais":"{\"Regular\":1}","natureza":"Síntese municipal de registros Cadastur. Não expõe dados pessoais ou cadastrais individualizados.","precisao_geometria":"sede municipal representativa","data_captura":"2026-08-12T02:31:32.438Z","fonte_oficial":"Ministério do Turismo. Cadastur, agências, guias e transportadoras. Dados agregados por município e categoria; nomes, CPF, telefone, e-mail e endereços individuais não são publicados pelo atlas."},"geometry":{"type":"Point","coordinates":[-53.8601,-22.6693]}},{"type":"Feature","properties":{"municipio":"Costa Rica","total_registros":4,"categorias":"{\"Agência de Turismo\":2,\"Transportadora Turística\":2}","situacoes_cadastrais":"{\"Regular\":4}","natureza":"Síntese municipal de registros Cadastur. Não expõe dados pessoais ou cadastrais individualizados.","precisao_geometria":"sede municipal representativa","data_captura":"2026-08-12T02:31:32.438Z","fonte_oficial":"Ministério do Turismo. Cadastur, agências, guias e transportadoras. Dados agregados por município e categoria; nomes, CPF, telefone, e-mail e endereços individuais não são publicados pelo atlas."},"geometry":{"type":"Point","coordinates":[-53.1287,-18.5432]}},{"type":"Feature","properties":{"municipio":"Anastácio","total_registros":4,"categorias":"{\"Agência de Turismo\":2,\"Guia de Turismo\":1,\"Transportadora Turística\":1}","situacoes_cadastrais":"{\"Regular\":4}","natureza":"Síntese municipal de registros Cadastur. Não expõe dados pessoais ou cadastrais individualizados.","precisao_geometria":"sede municipal representativa","data_captura":"2026-08-12T02:31:32.438Z","fonte_oficial":"Ministério do Turismo. Cadastur, agências, guias e transportadoras. Dados agregados por município e categoria; nomes, CPF, telefone, e-mail e endereços individuais não são publicados pelo atlas."},"geometry":{"type":"Point","coordinates":[-55.8104,-20.4823]}},{"type":"Feature","properties":{"municipio":"Jardim","total_registros":17,"categorias":"{\"Agência de Turismo\":2,\"Guia de Turismo\":13,\"Transportadora Turística\":2}","situacoes_cadastrais":"{\"Regular\":16,\"Em Implantação\":1}","natureza":"Síntese municipal de registros Cadastur. Não expõe dados pessoais ou cadastrais individualizados.","precisao_geometria":"sede municipal representativa","data_captura":"2026-08-12T02:31:32.438Z","fonte_oficial":"Ministério do Turismo. Cadastur, agências, guias e transportadoras. Dados agregados por município e categoria; nomes, CPF, telefone, e-mail e endereços individuais não são publicados pelo atlas."},"geometry":{"type":"Point","coordinates":[-56.1489,-21.4799]}},{"type":"Feature","properties":{"municipio":"Iguatemi","total_registros":3,"categorias":"{\"Agência de Turismo\":1,\"Transportadora Turística\":2}","situacoes_cadastrais":"{\"Em Implantação\":1,\"Regular\":2}","natureza":"Síntese municipal de registros Cadastur. Não expõe dados pessoais ou cadastrais individualizados.","precisao_geometria":"sede municipal representativa","data_captura":"2026-08-12T02:31:32.438Z","fonte_oficial":"Ministério do Turismo. Cadastur, agências, guias e transportadoras. Dados agregados por município e categoria; nomes, CPF, telefone, e-mail e endereços individuais não são publicados pelo atlas."},"geometry":{"type":"Point","coordinates":[-54.5637,-23.6736]}},{"type":"Feature","properties":{"municipio":"Anaurilândia","total_registros":1,"categorias":"{\"Guia de Turismo\":1}","situacoes_cadastrais":"{\"Regular\":1}","natureza":"Síntese municipal de registros Cadastur. Não expõe dados pessoais ou cadastrais individualizados.","precisao_geometria":"sede municipal representativa","data_captura":"2026-08-12T02:31:32.438Z","fonte_oficial":"Ministério do Turismo. Cadastur, agências, guias e transportadoras. Dados agregados por município e categoria; nomes, CPF, telefone, e-mail e endereços individuais não são publicados pelo atlas."},"geometry":{"type":"Point","coordinates":[-52.7191,-22.1852]}},{"type":"Feature","properties":{"municipio":"Guia Lopes da Laguna","total_registros":2,"categorias":"{\"Guia de Turismo\":2}","situacoes_cadastrais":"{\"Regular\":2}","natureza":"Síntese municipal de registros Cadastur. Não expõe dados pessoais ou cadastrais individualizados.","precisao_geometria":"sede municipal representativa","data_captura":"2026-08-12T02:31:32.438Z","fonte_oficial":"Ministério do Turismo. Cadastur, agências, guias e transportadoras. Dados agregados por município e categoria; nomes, CPF, telefone, e-mail e endereços individuais não são publicados pelo atlas."},"geometry":{"type":"Point","coordinates":[-56.1117,-21.4583]}},{"type":"Feature","properties":{"municipio":"Nova Alvorada do Sul","total_registros":1,"categorias":"{\"Guia de Turismo\":1}","situacoes_cadastrais":"{\"Regular\":1}","natureza":"Síntese municipal de registros Cadastur. Não expõe dados pessoais ou cadastrais individualizados.","precisao_geometria":"sede municipal representativa","data_captura":"2026-08-12T02:31:32.438Z","fonte_oficial":"Ministério do Turismo. Cadastur, agências, guias e transportadoras. Dados agregados por município e categoria; nomes, CPF, telefone, e-mail e endereços individuais não são publicados pelo atlas."},"geometry":{"type":"Point","coordinates":[-54.3825,-21.4657]}},{"type":"Feature","properties":{"municipio":"Paraíso das Águas","total_registros":3,"categorias":"{\"Guia de Turismo\":1,\"Transportadora Turística\":2}","situacoes_cadastrais":"{\"Regular\":3}","natureza":"Síntese municipal de registros Cadastur. Não expõe dados pessoais ou cadastrais individualizados.","precisao_geometria":"sede municipal representativa","data_captura":"2026-08-12T02:31:32.438Z","fonte_oficial":"Ministério do Turismo. Cadastur, agências, guias e transportadoras. Dados agregados por município e categoria; nomes, CPF, telefone, e-mail e endereços individuais não são publicados pelo atlas."},"geometry":{"type":"Point","coordinates":[-53.0116,-19.0216]}},{"type":"Feature","properties":{"municipio":"Sonora","total_registros":4,"categorias":"{\"Transportadora Turística\":4}","situacoes_cadastrais":"{\"Regular\":4}","natureza":"Síntese municipal de registros Cadastur. Não expõe dados pessoais ou cadastrais individualizados.","precisao_geometria":"sede municipal representativa","data_captura":"2026-08-12T02:31:32.438Z","fonte_oficial":"Ministério do Turismo. Cadastur, agências, guias e transportadoras. Dados agregados por município e categoria; nomes, CPF, telefone, e-mail e endereços individuais não são publicados pelo atlas."},"geometry":{"type":"Point","coordinates":[-54.7551,-17.5698]}},{"type":"Feature","properties":{"municipio":"Brasilândia","total_registros":2,"categorias":"{\"Transportadora Turística\":2}","situacoes_cadastrais":"{\"Regular\":2}","natureza":"Síntese municipal de registros Cadastur. Não expõe dados pessoais ou cadastrais individualizados.","precisao_geometria":"sede municipal representativa","data_captura":"2026-08-12T02:31:32.438Z","fonte_oficial":"Ministério do Turismo. Cadastur, agências, guias e transportadoras. Dados agregados por município e categoria; nomes, CPF, telefone, e-mail e endereços individuais não são publicados pelo atlas."},"geometry":{"type":"Point","coordinates":[-52.0365,-21.2544]}},{"type":"Feature","properties":{"municipio":"Deodápolis","total_registros":3,"categorias":"{\"Transportadora Turística\":3}","situacoes_cadastrais":"{\"Regular\":3}","natureza":"Síntese municipal de registros Cadastur. Não expõe dados pessoais ou cadastrais individualizados.","precisao_geometria":"sede municipal representativa","data_captura":"2026-08-12T02:31:32.438Z","fonte_oficial":"Ministério do Turismo. Cadastur, agências, guias e transportadoras. Dados agregados por município e categoria; nomes, CPF, telefone, e-mail e endereços individuais não são publicados pelo atlas."},"geometry":{"type":"Point","coordinates":[-54.1682,-22.2763]}},{"type":"Feature","properties":{"municipio":"Coronel Sapucaia","total_registros":2,"categorias":"{\"Transportadora Turística\":2}","situacoes_cadastrais":"{\"Regular\":2}","natureza":"Síntese municipal de registros Cadastur. Não expõe dados pessoais ou cadastrais individualizados.","precisao_geometria":"sede municipal representativa","data_captura":"2026-08-12T02:31:32.438Z","fonte_oficial":"Ministério do Turismo. Cadastur, agências, guias e transportadoras. Dados agregados por município e categoria; nomes, CPF, telefone, e-mail e endereços individuais não são publicados pelo atlas."},"geometry":{"type":"Point","coordinates":[-55.5278,-23.2724]}},{"type":"Feature","properties":{"municipio":"Aral Moreira","total_registros":1,"categorias":"{\"Transportadora Turística\":1}","situacoes_cadastrais":"{\"Regular\":1}","natureza":"Síntese municipal de registros Cadastur. Não expõe dados pessoais ou cadastrais individualizados.","precisao_geometria":"sede municipal representativa","data_captura":"2026-08-12T02:31:32.438Z","fonte_oficial":"Ministério do Turismo. Cadastur, agências, guias e transportadoras. Dados agregados por município e categoria; nomes, CPF, telefone, e-mail e endereços individuais não são publicados pelo atlas."},"geometry":{"type":"Point","coordinates":[-55.6334,-22.9385]}},{"type":"Feature","properties":{"municipio":"Selvíria","total_registros":2,"categorias":"{\"Transportadora Turística\":2}","situacoes_cadastrais":"{\"Regular\":2}","natureza":"Síntese municipal de registros Cadastur. Não expõe dados pessoais ou cadastrais individualizados.","precisao_geometria":"sede municipal representativa","data_captura":"2026-08-12T02:31:32.438Z","fonte_oficial":"Ministério do Turismo. Cadastur, agências, guias e transportadoras. Dados agregados por município e categoria; nomes, CPF, telefone, e-mail e endereços individuais não são publicados pelo atlas."},"geometry":{"type":"Point","coordinates":[-51.4192,-20.3637]}},{"type":"Feature","properties":{"municipio":"Paranaíba","total_registros":4,"categorias":"{\"Transportadora Turística\":4}","situacoes_cadastrais":"{\"Regular\":4}","natureza":"Síntese municipal de registros Cadastur. Não expõe dados pessoais ou cadastrais individualizados.","precisao_geometria":"sede municipal representativa","data_captura":"2026-08-12T02:31:32.438Z","fonte_oficial":"Ministério do Turismo. Cadastur, agências, guias e transportadoras. Dados agregados por município e categoria; nomes, CPF, telefone, e-mail e endereços individuais não são publicados pelo atlas."},"geometry":{"type":"Point","coordinates":[-51.1909,-19.6746]}},{"type":"Feature","properties":{"municipio":"Pedro Gomes","total_registros":1,"categorias":"{\"Transportadora Turística\":1}","situacoes_cadastrais":"{\"Regular\":1}","natureza":"Síntese municipal de registros Cadastur. Não expõe dados pessoais ou cadastrais individualizados.","precisao_geometria":"sede municipal representativa","data_captura":"2026-08-12T02:31:32.438Z","fonte_oficial":"Ministério do Turismo. Cadastur, agências, guias e transportadoras. Dados agregados por município e categoria; nomes, CPF, telefone, e-mail e endereços individuais não são publicados pelo atlas."},"geometry":{"type":"Point","coordinates":[-54.5507,-18.0996]}},{"type":"Feature","properties":{"municipio":"Angélica","total_registros":2,"categorias":"{\"Transportadora Turística\":2}","situacoes_cadastrais":"{\"Em Implantação\":1,\"Regular\":1}","natureza":"Síntese municipal de registros Cadastur. Não expõe dados pessoais ou cadastrais individualizados.","precisao_geometria":"sede municipal representativa","data_captura":"2026-08-12T02:31:32.438Z","fonte_oficial":"Ministério do Turismo. Cadastur, agências, guias e transportadoras. Dados agregados por município e categoria; nomes, CPF, telefone, e-mail e endereços individuais não são publicados pelo atlas."},"geometry":{"type":"Point","coordinates":[-53.7708,-22.1527]}},{"type":"Feature","properties":{"municipio":"Japorã","total_registros":1,"categorias":"{\"Transportadora Turística\":1}","situacoes_cadastrais":"{\"Regular\":1}","natureza":"Síntese municipal de registros Cadastur. Não expõe dados pessoais ou cadastrais individualizados.","precisao_geometria":"sede municipal representativa","data_captura":"2026-08-12T02:31:32.438Z","fonte_oficial":"Ministério do Turismo. Cadastur, agências, guias e transportadoras. Dados agregados por município e categoria; nomes, CPF, telefone, e-mail e endereços individuais não são publicados pelo atlas."},"geometry":{"type":"Point","coordinates":[-54.4059,-23.8903]}},{"type":"Feature","properties":{"municipio":"Batayporã","total_registros":1,"categorias":"{\"Transportadora Turística\":1}","situacoes_cadastrais":"{\"Regular\":1}","natureza":"Síntese municipal de registros Cadastur. Não expõe dados pessoais ou cadastrais individualizados.","precisao_geometria":"sede municipal representativa","data_captura":"2026-08-12T02:31:32.438Z","fonte_oficial":"Ministério do Turismo. Cadastur, agências, guias e transportadoras. Dados agregados por município e categoria; nomes, CPF, telefone, e-mail e endereços individuais não são publicados pelo atlas."},"geometry":{"type":"Point","coordinates":[-53.2705,-22.2944]}},{"type":"Feature","properties":{"municipio":"Fátima do Sul","total_registros":1,"categorias":"{\"Transportadora Turística\":1}","situacoes_cadastrais":"{\"Regular\":1}","natureza":"Síntese municipal de registros Cadastur. Não expõe dados pessoais ou cadastrais individualizados.","precisao_geometria":"sede municipal representativa","data_captura":"2026-08-12T02:31:32.438Z","fonte_oficial":"Ministério do Turismo. Cadastur, agências, guias e transportadoras. Dados agregados por município e categoria; nomes, CPF, telefone, e-mail e endereços individuais não são publicados pelo atlas."},"geometry":{"type":"Point","coordinates":[-54.5131,-22.3789]}},{"type":"Feature","properties":{"municipio":"Rio Brilhante","total_registros":1,"categorias":"{\"Transportadora Turística\":1}","situacoes_cadastrais":"{\"Regular\":1}","natureza":"Síntese municipal de registros Cadastur. Não expõe dados pessoais ou cadastrais individualizados.","precisao_geometria":"sede municipal representativa","data_captura":"2026-08-12T02:31:32.438Z","fonte_oficial":"Ministério do Turismo. Cadastur, agências, guias e transportadoras. Dados agregados por município e categoria; nomes, CPF, telefone, e-mail e endereços individuais não são publicados pelo atlas."},"geometry":{"type":"Point","coordinates":[-54.5427,-21.8033]}},{"type":"Feature","properties":{"municipio":"Eldorado","total_registros":1,"categorias":"{\"Transportadora Turística\":1}","situacoes_cadastrais":"{\"Regular\":1}","natureza":"Síntese municipal de registros Cadastur. Não expõe dados pessoais ou cadastrais individualizados.","precisao_geometria":"sede municipal representativa","data_captura":"2026-08-12T02:31:32.438Z","fonte_oficial":"Ministério do Turismo. Cadastur, agências, guias e transportadoras. Dados agregados por município e categoria; nomes, CPF, telefone, e-mail e endereços individuais não são publicados pelo atlas."},"geometry":{"type":"Point","coordinates":[-54.2838,-23.7868]}}],"atlas_metadata":{"fonte":"Ministério do Turismo · Cadastur","corte":"2026-08-10","recursos":[{"key":"agencia","file":"C:\\joaju-ms\\capturas_fontes_2026_08_10\\cadastur_ict\\agencia_agencia_agencia-de-turismo.xlsx","sourceFile":"C:\\joaju-ms\\capturas_fontes_2026_08_10\\cadastur_ict\\agencia_agencia-de-turismo.xlsx","sourcePage":"https://dados.turismo.gov.br/pt_BR/dataset/agencia-de-turismo","periodo":"arquivo oficial local","via":"Downloads","sha256":"f816e6d9e88549052422b032b42519e82a8ba92328b5968e092cb4ebf7ffbc47"},{"key":"guia","file":"C:\\joaju-ms\\capturas_fontes_2026_08_10\\cadastur_ict\\guia_guia_guia-de-turismo.xlsx","sourceFile":"C:\\joaju-ms\\capturas_fontes_2026_08_10\\cadastur_ict\\guia_guia-de-turismo.xlsx","sourcePage":"https://dados.turismo.gov.br/pt_BR/dataset/prestadores-de-servicos-turisticos-guia-turismo_2","periodo":"arquivo oficial local","via":"Downloads","sha256":"5376ebc8b7f90186323264187aa235fe49563683c77fe5a5e33ca3eab92834b0"},{"key":"transportadora","file":"C:\\joaju-ms\\capturas_fontes_2026_08_10\\cadastur_ict\\transportadora_transportadora_transportadora-turistica.xlsx","sourceFile":"C:\\joaju-ms\\capturas_fontes_2026_08_10\\cadastur_ict\\transportadora_transportadora-turistica.xlsx","sourcePage":"https://dados.turismo.gov.br/pt_BR/dataset/transportadora-turistica","periodo":"arquivo oficial local","via":"Downloads","sha256":"27ce2ec3288bc1ae368b10024be34922f68d4779661ea085dbaa5e5dc5d65bc3"}],"linhas_lidas":98725,"metodo":"agências + guias + transportadoras, síntese municipal"}}