<?xml version="1.0" encoding="UTF-8"?><kml xmlns="http://www.opengis.net/kml/2.2"><Document><name>mapa_qualidade_agua_ana</name><Placemark><name>ALTO ARAGUAIA</name><description><![CDATA[<table><tr><th>OBJECTID</th><td>1182</td></tr><tr><th>NOME</th><td>ALTO ARAGUAIA</td></tr><tr><th>TIPOESTACAO</th><td>1</td></tr><tr><th>CODIGO</th><td>24050000</td></tr><tr><th>LATITUDE</th><td>-17.3011</td></tr><tr><th>LONGITUDE</th><td>-53.217200000000005</td></tr><tr><th>ALTITUDE</th><td>655</td></tr><tr><th>AREADRENAGEM</th><td>2080</td></tr><tr><th>ULTIMAATUALIZACAO</th><td>1381968000000</td></tr><tr><th>OPERANDO</th><td>1</td></tr><tr><th>BACIANOME</th><td>RIO TOCANTINS</td></tr><tr><th>SUBBACIANOME</th><td>RIO ARAGUAIA,CAIAPÓ,CLARO.....</td></tr><tr><th>ESTADONOME</th><td>MATO GROSSO</td></tr></table>]]></description><Point><coordinates>-53.21719999999999,-17.301099999463638</coordinates></Point></Placemark><Placemark><name>MONTANTE DO RIBEIRÃO BABILÔNIA</name><description><![CDATA[<table><tr><th>OBJECTID</th><td>1185</td></tr><tr><th>NOME</th><td>MONTANTE DO RIBEIRÃO BABILÔNIA</td></tr><tr><th>TIPOESTACAO</th><td>1</td></tr><tr><th>CODIGO</th><td>24070000</td></tr><tr><th>LATITUDE</th><td>-17.2192</td></tr><tr><th>LONGITUDE</th><td>-53.1608</td></tr><tr><th>ALTITUDE</th><td>622</td></tr><tr><th>AREADRENAGEM</th><td>1760</td></tr><tr><th>ULTIMAATUALIZACAO</th><td>1290384000000</td></tr><tr><th>OPERANDO</th><td>1</td></tr><tr><th>BACIANOME</th><td>RIO TOCANTINS</td></tr><tr><th>SUBBACIANOME</th><td>RIO ARAGUAIA,CAIAPÓ,CLARO.....</td></tr><tr><th>ESTADONOME</th><td>GOIÁS</td></tr></table>]]></description><Point><coordinates>-53.160799999999995,-17.219199999465847</coordinates></Point></Placemark><Placemark><name>PORTO DE PEDRAS</name><description><![CDATA[<table><tr><th>OBJECTID</th><td>1133</td></tr><tr><th>NOME</th><td>PORTO DE PEDRAS</td></tr><tr><th>TIPOESTACAO</th><td>1</td></tr><tr><th>CODIGO</th><td>63001200</td></tr><tr><th>LATITUDE</th><td>-19.0567</td></tr><tr><th>LONGITUDE</th><td>-53.0189</td></tr><tr><th>ALTITUDE</th><td>454</td></tr><tr><th>AREADRENAGEM</th><td>3770</td></tr><tr><th>ULTIMAATUALIZACAO</th><td>1289865600000</td></tr><tr><th>OPERANDO</th><td>1</td></tr><tr><th>BACIANOME</th><td>RIO PARANÁ</td></tr><tr><th>SUBBACIANOME</th><td>RIOS PARANÁ,PARDO E OUTROS</td></tr><tr><th>ESTADONOME</th><td>MATO GROSSO DO SUL</td></tr></table>]]></description><Point><coordinates>-53.018899999999974,-19.056699999417024</coordinates></Point></Placemark><Placemark><name>PONTE DO CEDRO</name><description><![CDATA[<table><tr><th>OBJECTID</th><td>1510</td></tr><tr><th>NOME</th><td>PONTE DO CEDRO</td></tr><tr><th>TIPOESTACAO</th><td>1</td></tr><tr><th>CODIGO</th><td>60910000</td></tr><tr><th>LATITUDE</th><td>-17.5794</td></tr><tr><th>LONGITUDE</th><td>-52.601400000000005</td></tr><tr><th>AREADRENAGEM</th><td>638</td></tr><tr><th>ULTIMAATUALIZACAO</th><td>1399248000000</td></tr><tr><th>OPERANDO</th><td>1</td></tr><tr><th>BACIANOME</th><td>RIO PARANÁ</td></tr><tr><th>SUBBACIANOME</th><td>RIO PARANAÍBA</td></tr><tr><th>ESTADONOME</th><td>GOIÁS</td></tr></table>]]></description><Point><coordinates>-52.60140000000001,-17.579399999456115</coordinates></Point></Placemark><Placemark><name>INDÁIA GRANDE</name><description><![CDATA[<table><tr><th>OBJECTID</th><td>532</td></tr><tr><th>NOME</th><td>INDÁIA GRANDE</td></tr><tr><th>TIPOESTACAO</th><td>1</td></tr><tr><th>CODIGO</th><td>63001600</td></tr><tr><th>LATITUDE</th><td>-18.9953</td></tr><tr><th>LONGITUDE</th><td>-52.585300000000004</td></tr><tr><th>ALTITUDE</th><td>600</td></tr><tr><th>AREADRENAGEM</th><td>794</td></tr><tr><th>ULTIMAATUALIZACAO</th><td>1289865600000</td></tr><tr><th>OPERANDO</th><td>1</td></tr><tr><th>BACIANOME</th><td>RIO PARANÁ</td></tr><tr><th>SUBBACIANOME</th><td>RIOS PARANÁ,PARDO E OUTROS</td></tr><tr><th>ESTADONOME</th><td>MATO GROSSO DO SUL</td></tr></table>]]></description><Point><coordinates>-52.58530000000002,-18.995299999418627</coordinates></Point></Placemark><Placemark><name>FAZENDA FORMOSO</name><description><![CDATA[<table><tr><th>OBJECTID</th><td>939</td></tr><tr><th>NOME</th><td>FAZENDA FORMOSO</td></tr><tr><th>TIPOESTACAO</th><td>1</td></tr><tr><th>CODIGO</th><td>60930000</td></tr><tr><th>LATITUDE</th><td>-18.4067</td></tr><tr><th>LONGITUDE</th><td>-52.532500000000006</td></tr><tr><th>AREADRENAGEM</th><td>1450</td></tr><tr><th>ULTIMAATUALIZACAO</th><td>1399248000000</td></tr><tr><th>OPERANDO</th><td>1</td></tr><tr><th>BACIANOME</th><td>RIO PARANÁ</td></tr><tr><th>SUBBACIANOME</th><td>RIO PARANAÍBA</td></tr><tr><th>ESTADONOME</th><td>GOIÁS</td></tr></table>]]></description><Point><coordinates>-52.532500000000034,-18.40669999943404</coordinates></Point></Placemark><Placemark><name>BARRA DO PRATA</name><description><![CDATA[<table><tr><th>OBJECTID</th><td>525</td></tr><tr><th>NOME</th><td>BARRA DO PRATA</td></tr><tr><th>TIPOESTACAO</th><td>1</td></tr><tr><th>CODIGO</th><td>60960000</td></tr><tr><th>LATITUDE</th><td>-18.845000000000002</td></tr><tr><th>LONGITUDE</th><td>-52.213100000000004</td></tr><tr><th>ALTITUDE</th><td>701</td></tr><tr><th>ULTIMAATUALIZACAO</th><td>1395878400000</td></tr><tr><th>OPERANDO</th><td>1</td></tr><tr><th>BACIANOME</th><td>RIO PARANÁ</td></tr><tr><th>SUBBACIANOME</th><td>RIO PARANAÍBA</td></tr><tr><th>ESTADONOME</th><td>MATO GROSSO DO SUL</td></tr></table>]]></description><Point><coordinates>-52.2131,-18.844999999422576</coordinates></Point></Placemark><Placemark><name>CAMPO ALEGRE</name><description><![CDATA[<table><tr><th>OBJECTID</th><td>940</td></tr><tr><th>NOME</th><td>CAMPO ALEGRE</td></tr><tr><th>TIPOESTACAO</th><td>1</td></tr><tr><th>CODIGO</th><td>60940000</td></tr><tr><th>LATITUDE</th><td>-18.5161</td></tr><tr><th>LONGITUDE</th><td>-52.0964</td></tr><tr><th>ALTITUDE</th><td>659</td></tr><tr><th>AREADRENAGEM</th><td>3190</td></tr><tr><th>ULTIMAATUALIZACAO</th><td>1420416000000</td></tr><tr><th>OPERANDO</th><td>1</td></tr><tr><th>BACIANOME</th><td>RIO PARANÁ</td></tr><tr><th>SUBBACIANOME</th><td>RIO PARANAÍBA</td></tr><tr><th>ESTADONOME</th><td>GOIÁS</td></tr></table>]]></description><Point><coordinates>-52.09640000000002,-18.516099999431155</coordinates></Point></Placemark><Placemark><name>CASSILÂNDIA</name><description><![CDATA[<table><tr><th>OBJECTID</th><td>526</td></tr><tr><th>NOME</th><td>CASSILÂNDIA</td></tr><tr><th>TIPOESTACAO</th><td>1</td></tr><tr><th>CODIGO</th><td>60968000</td></tr><tr><th>LATITUDE</th><td>-19.1075</td></tr><tr><th>LONGITUDE</th><td>-51.720800000000004</td></tr><tr><th>ALTITUDE</th><td>443</td></tr><tr><th>AREADRENAGEM</th><td>4700</td></tr><tr><th>ULTIMAATUALIZACAO</th><td>1367280000000</td></tr><tr><th>OPERANDO</th><td>1</td></tr><tr><th>BACIANOME</th><td>RIO PARANÁ</td></tr><tr><th>SUBBACIANOME</th><td>RIO PARANAÍBA</td></tr><tr><th>ESTADONOME</th><td>MATO GROSSO DO SUL</td></tr></table>]]></description><Point><coordinates>-51.7208,-19.10749999941575</coordinates></Point></Placemark><Placemark><name>ITAJÁ</name><description><![CDATA[<table><tr><th>OBJECTID</th><td>294</td></tr><tr><th>NOME</th><td>ITAJÁ</td></tr><tr><th>TIPOESTACAO</th><td>1</td></tr><tr><th>CODIGO</th><td>60970000</td></tr><tr><th>LATITUDE</th><td>-19.1397</td></tr><tr><th>LONGITUDE</th><td>-51.5336</td></tr><tr><th>ALTITUDE</th><td>662</td></tr><tr><th>AREADRENAGEM</th><td>5220</td></tr><tr><th>ULTIMAATUALIZACAO</th><td>1399248000000</td></tr><tr><th>OPERANDO</th><td>1</td></tr><tr><th>BACIANOME</th><td>RIO PARANÁ</td></tr><tr><th>SUBBACIANOME</th><td>RIO PARANAÍBA</td></tr><tr><th>ESTADONOME</th><td>GOIÁS</td></tr></table>]]></description><Point><coordinates>-51.53359999999998,-19.139699999414905</coordinates></Point></Placemark><Placemark><name>PONTE RIO DOCE</name><description><![CDATA[<table><tr><th>OBJECTID</th><td>1395</td></tr><tr><th>NOME</th><td>PONTE RIO DOCE</td></tr><tr><th>TIPOESTACAO</th><td>1</td></tr><tr><th>CODIGO</th><td>60895000</td></tr><tr><th>LATITUDE</th><td>-17.8608</td></tr><tr><th>LONGITUDE</th><td>-51.39</td></tr><tr><th>AREADRENAGEM</th><td>1280</td></tr><tr><th>ULTIMAATUALIZACAO</th><td>1399248000000</td></tr><tr><th>OPERANDO</th><td>1</td></tr><tr><th>BACIANOME</th><td>RIO PARANÁ</td></tr><tr><th>SUBBACIANOME</th><td>RIO PARANAÍBA</td></tr><tr><th>ESTADONOME</th><td>GOIÁS</td></tr></table>]]></description><Point><coordinates>-51.389999999999986,-17.860799999448535</coordinates></Point></Placemark><Placemark><name>CANASTRA</name><description><![CDATA[<table><tr><th>OBJECTID</th><td>524</td></tr><tr><th>NOME</th><td>CANASTRA</td></tr><tr><th>TIPOESTACAO</th><td>1</td></tr><tr><th>CODIGO</th><td>60950000</td></tr><tr><th>LATITUDE</th><td>-19.1003</td></tr><tr><th>LONGITUDE</th><td>-51.1492</td></tr><tr><th>AREADRENAGEM</th><td>6850</td></tr><tr><th>ULTIMAATUALIZACAO</th><td>1399248000000</td></tr><tr><th>OPERANDO</th><td>1</td></tr><tr><th>BACIANOME</th><td>RIO PARANÁ</td></tr><tr><th>SUBBACIANOME</th><td>RIO PARANAÍBA</td></tr><tr><th>ESTADONOME</th><td>GOIÁS</td></tr></table>]]></description><Point><coordinates>-51.14920000000001,-19.100299999415924</coordinates></Point></Placemark><Placemark><name>MONTIVIDIU</name><description><![CDATA[<table><tr><th>OBJECTID</th><td>935</td></tr><tr><th>NOME</th><td>MONTIVIDIU</td></tr><tr><th>TIPOESTACAO</th><td>1</td></tr><tr><th>CODIGO</th><td>60774000</td></tr><tr><th>LATITUDE</th><td>-17.3592</td></tr><tr><th>LONGITUDE</th><td>-51.075300000000006</td></tr><tr><th>AREADRENAGEM</th><td>1020</td></tr><tr><th>ULTIMAATUALIZACAO</th><td>1399248000000</td></tr><tr><th>OPERANDO</th><td>1</td></tr><tr><th>BACIANOME</th><td>RIO PARANÁ</td></tr><tr><th>SUBBACIANOME</th><td>RIO PARANAÍBA</td></tr><tr><th>ESTADONOME</th><td>GOIÁS</td></tr></table>]]></description><Point><coordinates>-51.07530000000003,-17.359199999462035</coordinates></Point></Placemark><Placemark><name>PORTO DA MANGA</name><description><![CDATA[<table><tr><th>OBJECTID</th><td>1356</td></tr><tr><th>NOME</th><td>PORTO DA MANGA</td></tr><tr><th>TIPOESTACAO</th><td>1</td></tr><tr><th>CODIGO</th><td>66895000</td></tr><tr><th>LATITUDE</th><td>-19.258300000000002</td></tr><tr><th>LONGITUDE</th><td>-57.2353</td></tr><tr><th>ALTITUDE</th><td>79</td></tr><tr><th>AREADRENAGEM</th><td>327000</td></tr><tr><th>ULTIMAATUALIZACAO</th><td>1277424000000</td></tr><tr><th>OPERANDO</th><td>1</td></tr><tr><th>BACIANOME</th><td>RIO PARANÁ</td></tr><tr><th>SUBBACIANOME</th><td>RIOS PARAGUAI,SÃO LOURENÇO E .</td></tr><tr><th>ESTADONOME</th><td>MATO GROSSO DO SUL</td></tr></table>]]></description><Point><coordinates>-57.2353,-19.258299999411854</coordinates></Point></Placemark><Placemark><name>PRÓXIMO RIO VERDE</name><description><![CDATA[<table><tr><th>OBJECTID</th><td>795</td></tr><tr><th>NOME</th><td>PRÓXIMO RIO VERDE</td></tr><tr><th>TIPOESTACAO</th><td>1</td></tr><tr><th>CODIGO</th><td>66865000</td></tr><tr><th>LATITUDE</th><td>-18.9003</td></tr><tr><th>LONGITUDE</th><td>-54.809400000000004</td></tr><tr><th>ALTITUDE</th><td>288</td></tr><tr><th>AREADRENAGEM</th><td>498</td></tr><tr><th>ULTIMAATUALIZACAO</th><td>1285632000000</td></tr><tr><th>OPERANDO</th><td>1</td></tr><tr><th>BACIANOME</th><td>RIO PARANÁ</td></tr><tr><th>SUBBACIANOME</th><td>RIOS PARAGUAI,SÃO LOURENÇO E .</td></tr><tr><th>ESTADONOME</th><td>MATO GROSSO DO SUL</td></tr></table>]]></description><Point><coordinates>-54.80939999999998,-18.900299999421133</coordinates></Point></Placemark><Placemark><name>CONFLUÊNCIA  RIO JAURU</name><description><![CDATA[<table><tr><th>OBJECTID</th><td>1193</td></tr><tr><th>NOME</th><td>CONFLUÊNCIA  RIO JAURU</td></tr><tr><th>TIPOESTACAO</th><td>1</td></tr><tr><th>CODIGO</th><td>66849000</td></tr><tr><th>LATITUDE</th><td>-18.7303</td></tr><tr><th>LONGITUDE</th><td>-54.5786</td></tr><tr><th>ALTITUDE</th><td>223</td></tr><tr><th>AREADRENAGEM</th><td>7380</td></tr><tr><th>ULTIMAATUALIZACAO</th><td>1285632000000</td></tr><tr><th>OPERANDO</th><td>1</td></tr><tr><th>BACIANOME</th><td>RIO PARANÁ</td></tr><tr><th>SUBBACIANOME</th><td>RIOS PARAGUAI,SÃO LOURENÇO E .</td></tr><tr><th>ESTADONOME</th><td>MATO GROSSO DO SUL</td></tr></table>]]></description><Point><coordinates>-54.578599999999994,-18.73029999942555</coordinates></Point></Placemark><Placemark><name>CONTRAVERTENTE</name><description><![CDATA[<table><tr><th>OBJECTID</th><td>998</td></tr><tr><th>NOME</th><td>CONTRAVERTENTE</td></tr><tr><th>TIPOESTACAO</th><td>1</td></tr><tr><th>CODIGO</th><td>66850000</td></tr><tr><th>LATITUDE</th><td>-18.7244</td></tr><tr><th>LONGITUDE</th><td>-54.529700000000005</td></tr><tr><th>ALTITUDE</th><td>214</td></tr><tr><th>AREADRENAGEM</th><td>6320</td></tr><tr><th>ULTIMAATUALIZACAO</th><td>1277683200000</td></tr><tr><th>OPERANDO</th><td>1</td></tr><tr><th>BACIANOME</th><td>RIO PARANÁ</td></tr><tr><th>SUBBACIANOME</th><td>RIOS PARAGUAI,SÃO LOURENÇO E .</td></tr><tr><th>ESTADONOME</th><td>MATO GROSSO DO SUL</td></tr></table>]]></description><Point><coordinates>-54.52969999999999,-18.7243999994257</coordinates></Point></Placemark><Placemark><name>GARIMPAGEM</name><description><![CDATA[<table><tr><th>OBJECTID</th><td>1586</td></tr><tr><th>NOME</th><td>GARIMPAGEM</td></tr><tr><th>TIPOESTACAO</th><td>1</td></tr><tr><th>CODIGO</th><td>66855000</td></tr><tr><th>LATITUDE</th><td>-18.712500000000002</td></tr><tr><th>LONGITUDE</th><td>-54.566900000000004</td></tr><tr><th>ALTITUDE</th><td>238</td></tr><tr><th>AREADRENAGEM</th><td>6330</td></tr><tr><th>ULTIMAATUALIZACAO</th><td>1277683200000</td></tr><tr><th>OPERANDO</th><td>1</td></tr><tr><th>BACIANOME</th><td>RIO PARANÁ</td></tr><tr><th>SUBBACIANOME</th><td>RIOS PARAGUAI,SÃO LOURENÇO E .</td></tr><tr><th>ESTADONOME</th><td>MATO GROSSO DO SUL</td></tr></table>]]></description><Point><coordinates>-54.56689999999998,-18.712499999425987</coordinates></Point></Placemark><Placemark><name>COXIM</name><description><![CDATA[<table><tr><th>OBJECTID</th><td>388</td></tr><tr><th>NOME</th><td>COXIM</td></tr><tr><th>TIPOESTACAO</th><td>1</td></tr><tr><th>CODIGO</th><td>66870000</td></tr><tr><th>LATITUDE</th><td>-18.5078</td></tr><tr><th>LONGITUDE</th><td>-54.761900000000004</td></tr><tr><th>ALTITUDE</th><td>190</td></tr><tr><th>AREADRENAGEM</th><td>27600</td></tr><tr><th>ULTIMAATUALIZACAO</th><td>1394496000000</td></tr><tr><th>OPERANDO</th><td>1</td></tr><tr><th>BACIANOME</th><td>RIO PARANÁ</td></tr><tr><th>SUBBACIANOME</th><td>RIOS PARAGUAI,SÃO LOURENÇO E .</td></tr><tr><th>ESTADONOME</th><td>MATO GROSSO DO SUL</td></tr></table>]]></description><Point><coordinates>-54.76190000000003,-18.507799999431352</coordinates></Point></Placemark><Placemark><name>SÃO FRANCISCO</name><description><![CDATA[<table><tr><th>OBJECTID</th><td>1351</td></tr><tr><th>NOME</th><td>SÃO FRANCISCO</td></tr><tr><th>TIPOESTACAO</th><td>1</td></tr><tr><th>CODIGO</th><td>66810000</td></tr><tr><th>LATITUDE</th><td>-18.393900000000002</td></tr><tr><th>LONGITUDE</th><td>-57.3911</td></tr><tr><th>ALTITUDE</th><td>83</td></tr><tr><th>AREADRENAGEM</th><td>243000</td></tr><tr><th>ULTIMAATUALIZACAO</th><td>1352678400000</td></tr><tr><th>OPERANDO</th><td>1</td></tr><tr><th>BACIANOME</th><td>RIO PARANÁ</td></tr><tr><th>SUBBACIANOME</th><td>RIOS PARAGUAI,SÃO LOURENÇO E .</td></tr><tr><th>ESTADONOME</th><td>MATO GROSSO DO SUL</td></tr></table>]]></description><Point><coordinates>-57.39109999999999,-18.39389999943436</coordinates></Point></Placemark><Placemark><name>PEDRO GOMES</name><description><![CDATA[<table><tr><th>OBJECTID</th><td>1585</td></tr><tr><th>NOME</th><td>PEDRO GOMES</td></tr><tr><th>TIPOESTACAO</th><td>1</td></tr><tr><th>CODIGO</th><td>66845000</td></tr><tr><th>LATITUDE</th><td>-18.1675</td></tr><tr><th>LONGITUDE</th><td>-54.4703</td></tr><tr><th>ALTITUDE</th><td>321</td></tr><tr><th>AREADRENAGEM</th><td>9730</td></tr><tr><th>ULTIMAATUALIZACAO</th><td>1284076800000</td></tr><tr><th>OPERANDO</th><td>1</td></tr><tr><th>BACIANOME</th><td>RIO PARANÁ</td></tr><tr><th>SUBBACIANOME</th><td>RIOS PARAGUAI,SÃO LOURENÇO E .</td></tr><tr><th>ESTADONOME</th><td>MATO GROSSO DO SUL</td></tr></table>]]></description><Point><coordinates>-54.47030000000001,-18.16749999944039</coordinates></Point></Placemark><Placemark><name>AMOLAR</name><description><![CDATA[<table><tr><th>OBJECTID</th><td>754</td></tr><tr><th>NOME</th><td>AMOLAR</td></tr><tr><th>TIPOESTACAO</th><td>1</td></tr><tr><th>CODIGO</th><td>66800000</td></tr><tr><th>LATITUDE</th><td>-18.038600000000002</td></tr><tr><th>LONGITUDE</th><td>-57.488600000000005</td></tr><tr><th>ALTITUDE</th><td>85</td></tr><tr><th>AREADRENAGEM</th><td>234000</td></tr><tr><th>ULTIMAATUALIZACAO</th><td>1277424000000</td></tr><tr><th>OPERANDO</th><td>1</td></tr><tr><th>BACIANOME</th><td>RIO PARANÁ</td></tr><tr><th>SUBBACIANOME</th><td>RIOS PARAGUAI,SÃO LOURENÇO E .</td></tr><tr><th>ESTADONOME</th><td>MATO GROSSO DO SUL</td></tr></table>]]></description><Point><coordinates>-57.48860000000002,-18.038599999443772</coordinates></Point></Placemark><Placemark><name>PORTO DO ALEGRE</name><description><![CDATA[<table><tr><th>OBJECTID</th><td>753</td></tr><tr><th>NOME</th><td>PORTO DO ALEGRE</td></tr><tr><th>TIPOESTACAO</th><td>1</td></tr><tr><th>CODIGO</th><td>66750000</td></tr><tr><th>LATITUDE</th><td>-17.6233</td></tr><tr><th>LONGITUDE</th><td>-56.965</td></tr><tr><th>ALTITUDE</th><td>91</td></tr><tr><th>AREADRENAGEM</th><td>103000</td></tr><tr><th>ULTIMAATUALIZACAO</th><td>1352678400000</td></tr><tr><th>OPERANDO</th><td>1</td></tr><tr><th>BACIANOME</th><td>RIO PARANÁ</td></tr><tr><th>SUBBACIANOME</th><td>RIOS PARAGUAI,SÃO LOURENÇO E .</td></tr><tr><th>ESTADONOME</th><td>MATO GROSSO DO SUL</td></tr></table>]]></description><Point><coordinates>-56.96499999999997,-17.623299999454886</coordinates></Point></Placemark><Placemark><name>ESTRADA BR-163</name><description><![CDATA[<table><tr><th>OBJECTID</th><td>1584</td></tr><tr><th>NOME</th><td>ESTRADA BR-163</td></tr><tr><th>TIPOESTACAO</th><td>1</td></tr><tr><th>CODIGO</th><td>66490000</td></tr><tr><th>LATITUDE</th><td>-17.6108</td></tr><tr><th>LONGITUDE</th><td>-54.8325</td></tr><tr><th>ALTITUDE</th><td>358</td></tr><tr><th>AREADRENAGEM</th><td>3970</td></tr><tr><th>ULTIMAATUALIZACAO</th><td>1352678400000</td></tr><tr><th>OPERANDO</th><td>1</td></tr><tr><th>BACIANOME</th><td>RIO PARANÁ</td></tr><tr><th>SUBBACIANOME</th><td>RIOS PARAGUAI,SÃO LOURENÇO E .</td></tr><tr><th>ESTADONOME</th><td>MATO GROSSO</td></tr></table>]]></description><Point><coordinates>-54.832499999999975,-17.61079999945524</coordinates></Point></Placemark><Placemark><name>POUSADA TAIAMÃ  (Ex-Porto Jofre)</name><description><![CDATA[<table><tr><th>OBJECTID</th><td>1542</td></tr><tr><th>NOME</th><td>POUSADA TAIAMÃ  (Ex-Porto Jofre)</td></tr><tr><th>TIPOESTACAO</th><td>1</td></tr><tr><th>CODIGO</th><td>66710000</td></tr><tr><th>LATITUDE</th><td>-17.3656</td></tr><tr><th>LONGITUDE</th><td>-56.7747</td></tr><tr><th>ALTITUDE</th><td>109</td></tr><tr><th>AREADRENAGEM</th><td>95200</td></tr><tr><th>ULTIMAATUALIZACAO</th><td>1394496000000</td></tr><tr><th>OPERANDO</th><td>1</td></tr><tr><th>BACIANOME</th><td>RIO PARANÁ</td></tr><tr><th>SUBBACIANOME</th><td>RIOS PARAGUAI,SÃO LOURENÇO E .</td></tr><tr><th>ESTADONOME</th><td>MATO GROSSO</td></tr></table>]]></description><Point><coordinates>-56.774699999999996,-17.36559999946185</coordinates></Point></Placemark><Placemark><name>SÃO JOSÉ DO PIQUIRI</name><description><![CDATA[<table><tr><th>OBJECTID</th><td>555</td></tr><tr><th>NOME</th><td>SÃO JOSÉ DO PIQUIRI</td></tr><tr><th>TIPOESTACAO</th><td>1</td></tr><tr><th>CODIGO</th><td>66650000</td></tr><tr><th>LATITUDE</th><td>-17.291700000000002</td></tr><tr><th>LONGITUDE</th><td>-56.3872</td></tr><tr><th>ALTITUDE</th><td>150</td></tr><tr><th>AREADRENAGEM</th><td>30000</td></tr><tr><th>ULTIMAATUALIZACAO</th><td>1369699200000</td></tr><tr><th>OPERANDO</th><td>1</td></tr><tr><th>BACIANOME</th><td>RIO PARANÁ</td></tr><tr><th>SUBBACIANOME</th><td>RIOS PARAGUAI,SÃO LOURENÇO E .</td></tr><tr><th>ESTADONOME</th><td>MATO GROSSO</td></tr></table>]]></description><Point><coordinates>-56.3872,-17.291699999463862</coordinates></Point></Placemark><Placemark><name>ITIQUIRA</name><description><![CDATA[<table><tr><th>OBJECTID</th><td>142</td></tr><tr><th>NOME</th><td>ITIQUIRA</td></tr><tr><th>TIPOESTACAO</th><td>1</td></tr><tr><th>CODIGO</th><td>66520000</td></tr><tr><th>LATITUDE</th><td>-17.207800000000002</td></tr><tr><th>LONGITUDE</th><td>-54.1511</td></tr><tr><th>ALTITUDE</th><td>484</td></tr><tr><th>AREADRENAGEM</th><td>2920</td></tr><tr><th>ULTIMAATUALIZACAO</th><td>1277683200000</td></tr><tr><th>OPERANDO</th><td>1</td></tr><tr><th>BACIANOME</th><td>RIO PARANÁ</td></tr><tr><th>SUBBACIANOME</th><td>RIOS PARAGUAI,SÃO LOURENÇO E .</td></tr><tr><th>ESTADONOME</th><td>MATO GROSSO</td></tr></table>]]></description><Point><coordinates>-54.151099999999985,-17.20779999946618</coordinates></Point></Placemark><Placemark><name>SÃO JERÔNIMO</name><description><![CDATA[<table><tr><th>OBJECTID</th><td>1541</td></tr><tr><th>NOME</th><td>SÃO JERÔNIMO</td></tr><tr><th>TIPOESTACAO</th><td>1</td></tr><tr><th>CODIGO</th><td>66600000</td></tr><tr><th>LATITUDE</th><td>-17.201700000000002</td></tr><tr><th>LONGITUDE</th><td>-56.0086</td></tr><tr><th>ALTITUDE</th><td>112</td></tr><tr><th>AREADRENAGEM</th><td>23300</td></tr><tr><th>ULTIMAATUALIZACAO</th><td>1420416000000</td></tr><tr><th>OPERANDO</th><td>1</td></tr><tr><th>BACIANOME</th><td>RIO PARANÁ</td></tr><tr><th>SUBBACIANOME</th><td>RIOS PARAGUAI,SÃO LOURENÇO E .</td></tr><tr><th>ESTADONOME</th><td>MATO GROSSO</td></tr></table>]]></description><Point><coordinates>-56.0086,-17.201699999466335</coordinates></Point></Placemark><Placemark><name>PORTO CONCEIÇÃO</name><description><![CDATA[<table><tr><th>OBJECTID</th><td>318</td></tr><tr><th>NOME</th><td>PORTO CONCEIÇÃO</td></tr><tr><th>TIPOESTACAO</th><td>1</td></tr><tr><th>CODIGO</th><td>66120000</td></tr><tr><th>LATITUDE</th><td>-17.1433</td></tr><tr><th>LONGITUDE</th><td>-57.3594</td></tr><tr><th>ALTITUDE</th><td>107</td></tr><tr><th>AREADRENAGEM</th><td>64000</td></tr><tr><th>ULTIMAATUALIZACAO</th><td>1352678400000</td></tr><tr><th>OPERANDO</th><td>1</td></tr><tr><th>BACIANOME</th><td>RIO PARANÁ</td></tr><tr><th>SUBBACIANOME</th><td>RIOS PARAGUAI,SÃO LOURENÇO E .</td></tr><tr><th>ESTADONOME</th><td>MATO GROSSO</td></tr></table>]]></description><Point><coordinates>-57.3594,-17.143299999467914</coordinates></Point></Placemark><Placemark><name>ILHA CAMARGO</name><description><![CDATA[<table><tr><th>OBJECTID</th><td>744</td></tr><tr><th>NOME</th><td>ILHA CAMARGO</td></tr><tr><th>TIPOESTACAO</th><td>1</td></tr><tr><th>CODIGO</th><td>66370000</td></tr><tr><th>LATITUDE</th><td>-17.0564</td></tr><tr><th>LONGITUDE</th><td>-56.580600000000004</td></tr><tr><th>ALTITUDE</th><td>114</td></tr><tr><th>AREADRENAGEM</th><td>39000</td></tr><tr><th>ULTIMAATUALIZACAO</th><td>1352678400000</td></tr><tr><th>OPERANDO</th><td>1</td></tr><tr><th>BACIANOME</th><td>RIO PARANÁ</td></tr><tr><th>SUBBACIANOME</th><td>RIOS PARAGUAI,SÃO LOURENÇO E .</td></tr><tr><th>ESTADONOME</th><td>MATO GROSSO</td></tr></table>]]></description><Point><coordinates>-56.580600000000004,-17.05639999947028</coordinates></Point></Placemark><Placemark><name>NOVO PORTO TAQUARA</name><description><![CDATA[<table><tr><th>OBJECTID</th><td>1547</td></tr><tr><th>NOME</th><td>NOVO PORTO TAQUARA</td></tr><tr><th>TIPOESTACAO</th><td>1</td></tr><tr><th>CODIGO</th><td>64693000</td></tr><tr><th>LATITUDE</th><td>-23.1981</td></tr><tr><th>LONGITUDE</th><td>-53.3042</td></tr><tr><th>ALTITUDE</th><td>240</td></tr><tr><th>AREADRENAGEM</th><td>34400</td></tr><tr><th>ULTIMAATUALIZACAO</th><td>1372204800000</td></tr><tr><th>OPERANDO</th><td>1</td></tr><tr><th>BACIANOME</th><td>RIO PARANÁ</td></tr><tr><th>SUBBACIANOME</th><td>RIOS PARANÁ,PARANAPANEMA E ...</td></tr><tr><th>ESTADONOME</th><td>PARANÁ</td></tr></table>]]></description><Point><coordinates>-53.30419999999998,-23.198099999316195</coordinates></Point></Placemark><Placemark><name>NAVIRAI</name><description><![CDATA[<table><tr><th>OBJECTID</th><td>758</td></tr><tr><th>NOME</th><td>NAVIRAI</td></tr><tr><th>TIPOESTACAO</th><td>1</td></tr><tr><th>CODIGO</th><td>64717000</td></tr><tr><th>LATITUDE</th><td>-23.1322</td></tr><tr><th>LONGITUDE</th><td>-54.195</td></tr><tr><th>ALTITUDE</th><td>250</td></tr><tr><th>AREADRENAGEM</th><td>8970</td></tr><tr><th>ULTIMAATUALIZACAO</th><td>1360713600000</td></tr><tr><th>OPERANDO</th><td>1</td></tr><tr><th>BACIANOME</th><td>RIO PARANÁ</td></tr><tr><th>SUBBACIANOME</th><td>RIOS PARANÁ,PARANAPANEMA E ...</td></tr><tr><th>ESTADONOME</th><td>MATO GROSSO DO SUL</td></tr></table>]]></description><Point><coordinates>-54.19499999999999,-23.132199999317695</coordinates></Point></Placemark><Placemark><name>PONTE RIO AMAMBAI</name><description><![CDATA[<table><tr><th>OBJECTID</th><td>328</td></tr><tr><th>NOME</th><td>PONTE RIO AMAMBAI</td></tr><tr><th>TIPOESTACAO</th><td>1</td></tr><tr><th>CODIGO</th><td>64700000</td></tr><tr><th>LATITUDE</th><td>-22.942800000000002</td></tr><tr><th>LONGITUDE</th><td>-55.2211</td></tr><tr><th>ALTITUDE</th><td>395</td></tr><tr><th>AREADRENAGEM</th><td>1830</td></tr><tr><th>ULTIMAATUALIZACAO</th><td>1420416000000</td></tr><tr><th>OPERANDO</th><td>1</td></tr><tr><th>BACIANOME</th><td>RIO PARANÁ</td></tr><tr><th>SUBBACIANOME</th><td>RIOS PARANÁ,PARANAPANEMA E ...</td></tr><tr><th>ESTADONOME</th><td>MATO GROSSO DO SUL</td></tr></table>]]></description><Point><coordinates>-55.22109999999998,-22.94279999932199</coordinates></Point></Placemark><Placemark><name>FAZENDA CAMPANÁRIO</name><description><![CDATA[<table><tr><th>OBJECTID</th><td>999</td></tr><tr><th>NOME</th><td>FAZENDA CAMPANÁRIO</td></tr><tr><th>TIPOESTACAO</th><td>1</td></tr><tr><th>CODIGO</th><td>64702000</td></tr><tr><th>LATITUDE</th><td>-22.9194</td></tr><tr><th>LONGITUDE</th><td>-55.041700000000006</td></tr><tr><th>ALTITUDE</th><td>325</td></tr><tr><th>AREADRENAGEM</th><td>3520</td></tr><tr><th>ULTIMAATUALIZACAO</th><td>1289520000000</td></tr><tr><th>OPERANDO</th><td>1</td></tr><tr><th>BACIANOME</th><td>RIO PARANÁ</td></tr><tr><th>SUBBACIANOME</th><td>RIOS PARANÁ,PARANAPANEMA E ...</td></tr><tr><th>ESTADONOME</th><td>MATO GROSSO DO SUL</td></tr></table>]]></description><Point><coordinates>-55.04169999999999,-22.919399999322547</coordinates></Point></Placemark><Placemark><name>FAZENDA JANGADA</name><description><![CDATA[<table><tr><th>OBJECTID</th><td>140</td></tr><tr><th>NOME</th><td>FAZENDA JANGADA</td></tr><tr><th>TIPOESTACAO</th><td>1</td></tr><tr><th>CODIGO</th><td>64618000</td></tr><tr><th>LATITUDE</th><td>-22.5456</td></tr><tr><th>LONGITUDE</th><td>-54.025000000000006</td></tr><tr><th>ALTITUDE</th><td>288</td></tr><tr><th>AREADRENAGEM</th><td>1190</td></tr><tr><th>ULTIMAATUALIZACAO</th><td>1310601600000</td></tr><tr><th>OPERANDO</th><td>1</td></tr><tr><th>BACIANOME</th><td>RIO PARANÁ</td></tr><tr><th>SUBBACIANOME</th><td>RIOS PARANÁ,PARANAPANEMA E ...</td></tr><tr><th>ESTADONOME</th><td>MATO GROSSO DO SUL</td></tr></table>]]></description><Point><coordinates>-54.02499999999998,-22.545599999331156</coordinates></Point></Placemark><Placemark><name>USINA SÃO JOÃO II</name><description><![CDATA[<table><tr><th>OBJECTID</th><td>549</td></tr><tr><th>NOME</th><td>USINA SÃO JOÃO II</td></tr><tr><th>TIPOESTACAO</th><td>1</td></tr><tr><th>CODIGO</th><td>64608000</td></tr><tr><th>LATITUDE</th><td>-22.4117</td></tr><tr><th>LONGITUDE</th><td>-55.4386</td></tr><tr><th>ALTITUDE</th><td>450</td></tr><tr><th>AREADRENAGEM</th><td>731</td></tr><tr><th>ULTIMAATUALIZACAO</th><td>1277337600000</td></tr><tr><th>OPERANDO</th><td>1</td></tr><tr><th>BACIANOME</th><td>RIO PARANÁ</td></tr><tr><th>SUBBACIANOME</th><td>RIOS PARANÁ,PARANAPANEMA E ...</td></tr><tr><th>ESTADONOME</th><td>MATO GROSSO DO SUL</td></tr></table>]]></description><Point><coordinates>-55.43860000000001,-22.411699999334296</coordinates></Point></Placemark><Placemark><name>DOURADOS</name><description><![CDATA[<table><tr><th>OBJECTID</th><td>964</td></tr><tr><th>NOME</th><td>DOURADOS</td></tr><tr><th>TIPOESTACAO</th><td>1</td></tr><tr><th>CODIGO</th><td>64609000</td></tr><tr><th>LATITUDE</th><td>-22.3972</td></tr><tr><th>LONGITUDE</th><td>-54.791900000000005</td></tr><tr><th>ALTITUDE</th><td>348</td></tr><tr><th>AREADRENAGEM</th><td>5700</td></tr><tr><th>ULTIMAATUALIZACAO</th><td>1277251200000</td></tr><tr><th>OPERANDO</th><td>1</td></tr><tr><th>BACIANOME</th><td>RIO PARANÁ</td></tr><tr><th>SUBBACIANOME</th><td>RIOS PARANÁ,PARANAPANEMA E ...</td></tr><tr><th>ESTADONOME</th><td>MATO GROSSO DO SUL</td></tr></table>]]></description><Point><coordinates>-54.7919,-22.397199999334642</coordinates></Point></Placemark><Placemark><name>IVINHEMA</name><description><![CDATA[<table><tr><th>OBJECTID</th><td>791</td></tr><tr><th>NOME</th><td>IVINHEMA</td></tr><tr><th>TIPOESTACAO</th><td>1</td></tr><tr><th>CODIGO</th><td>64617000</td></tr><tr><th>LATITUDE</th><td>-22.3825</td></tr><tr><th>LONGITUDE</th><td>-53.528600000000004</td></tr><tr><th>ALTITUDE</th><td>243</td></tr><tr><th>AREADRENAGEM</th><td>31900</td></tr><tr><th>ULTIMAATUALIZACAO</th><td>1409529600000</td></tr><tr><th>OPERANDO</th><td>1</td></tr><tr><th>BACIANOME</th><td>RIO PARANÁ</td></tr><tr><th>SUBBACIANOME</th><td>RIOS PARANÁ,PARANAPANEMA E ...</td></tr><tr><th>ESTADONOME</th><td>MATO GROSSO DO SUL</td></tr></table>]]></description><Point><coordinates>-53.52859999999998,-22.38249999933497</coordinates></Point></Placemark><Placemark><name>SÃO CARLOS</name><description><![CDATA[<table><tr><th>OBJECTID</th><td>330</td></tr><tr><th>NOME</th><td>SÃO CARLOS</td></tr><tr><th>TIPOESTACAO</th><td>1</td></tr><tr><th>CODIGO</th><td>67170000</td></tr><tr><th>LATITUDE</th><td>-22.2236</td></tr><tr><th>LONGITUDE</th><td>-57.303900000000006</td></tr><tr><th>ALTITUDE</th><td>109.7</td></tr><tr><th>AREADRENAGEM</th><td>10200</td></tr><tr><th>ULTIMAATUALIZACAO</th><td>1277337600000</td></tr><tr><th>OPERANDO</th><td>1</td></tr><tr><th>BACIANOME</th><td>RIO PARANÁ</td></tr><tr><th>SUBBACIANOME</th><td>RIOS PARAGUAI,APA E OUTROS</td></tr><tr><th>ESTADONOME</th><td>MATO GROSSO DO SUL</td></tr></table>]]></description><Point><coordinates>-57.3039,-22.22359999933869</coordinates></Point></Placemark><Placemark><name>PORTO WILMA</name><description><![CDATA[<table><tr><th>OBJECTID</th><td>137</td></tr><tr><th>NOME</th><td>PORTO WILMA</td></tr><tr><th>TIPOESTACAO</th><td>1</td></tr><tr><th>CODIGO</th><td>64610000</td></tr><tr><th>LATITUDE</th><td>-22.0689</td></tr><tr><th>LONGITUDE</th><td>-54.2286</td></tr><tr><th>ALTITUDE</th><td>283</td></tr><tr><th>AREADRENAGEM</th><td>9030</td></tr><tr><th>ULTIMAATUALIZACAO</th><td>1352678400000</td></tr><tr><th>OPERANDO</th><td>1</td></tr><tr><th>BACIANOME</th><td>RIO PARANÁ</td></tr><tr><th>SUBBACIANOME</th><td>RIOS PARANÁ,PARANAPANEMA E ...</td></tr><tr><th>ESTADONOME</th><td>MATO GROSSO DO SUL</td></tr></table>]]></description><Point><coordinates>-54.228599999999965,-22.068899999342342</coordinates></Point></Placemark><Placemark><name>FAZENDA ESPERANÇA</name><description><![CDATA[<table><tr><th>OBJECTID</th><td>1551</td></tr><tr><th>NOME</th><td>FAZENDA ESPERANÇA</td></tr><tr><th>TIPOESTACAO</th><td>1</td></tr><tr><th>CODIGO</th><td>67176000</td></tr><tr><th>LATITUDE</th><td>-21.9697</td></tr><tr><th>LONGITUDE</th><td>-57.3772</td></tr><tr><th>ALTITUDE</th><td>135</td></tr><tr><th>AREADRENAGEM</th><td>2930</td></tr><tr><th>ULTIMAATUALIZACAO</th><td>1285632000000</td></tr><tr><th>OPERANDO</th><td>1</td></tr><tr><th>BACIANOME</th><td>RIO PARANÁ</td></tr><tr><th>SUBBACIANOME</th><td>RIOS PARAGUAI,APA E OUTROS</td></tr><tr><th>ESTADONOME</th><td>MATO GROSSO DO SUL</td></tr></table>]]></description><Point><coordinates>-57.377200000000016,-21.969699999344698</coordinates></Point></Placemark><Placemark><name>FAZENDA IPACARAI</name><description><![CDATA[<table><tr><th>OBJECTID</th><td>748</td></tr><tr><th>NOME</th><td>FAZENDA IPACARAI</td></tr><tr><th>TIPOESTACAO</th><td>1</td></tr><tr><th>CODIGO</th><td>64614000</td></tr><tr><th>LATITUDE</th><td>-21.956400000000002</td></tr><tr><th>LONGITUDE</th><td>-53.767500000000005</td></tr><tr><th>ALTITUDE</th><td>260</td></tr><tr><th>AREADRENAGEM</th><td>28400</td></tr><tr><th>ULTIMAATUALIZACAO</th><td>1285632000000</td></tr><tr><th>OPERANDO</th><td>1</td></tr><tr><th>BACIANOME</th><td>RIO PARANÁ</td></tr><tr><th>SUBBACIANOME</th><td>RIOS PARANÁ,PARANAPANEMA E ...</td></tr><tr><th>ESTADONOME</th><td>MATO GROSSO DO SUL</td></tr></table>]]></description><Point><coordinates>-53.767499999999984,-21.956399999344995</coordinates></Point></Placemark><Placemark><name>FAZENDA SÃO JOAQUIM</name><description><![CDATA[<table><tr><th>OBJECTID</th><td>747</td></tr><tr><th>NOME</th><td>FAZENDA SÃO JOAQUIM</td></tr><tr><th>TIPOESTACAO</th><td>1</td></tr><tr><th>CODIGO</th><td>64613800</td></tr><tr><th>LATITUDE</th><td>-21.846700000000002</td></tr><tr><th>LONGITUDE</th><td>-53.960800000000006</td></tr><tr><th>ALTITUDE</th><td>266</td></tr><tr><th>AREADRENAGEM</th><td>6500</td></tr><tr><th>ULTIMAATUALIZACAO</th><td>1285632000000</td></tr><tr><th>OPERANDO</th><td>1</td></tr><tr><th>BACIANOME</th><td>RIO PARANÁ</td></tr><tr><th>SUBBACIANOME</th><td>RIOS PARANÁ,PARANAPANEMA E ...</td></tr><tr><th>ESTADONOME</th><td>MATO GROSSO DO SUL</td></tr></table>]]></description><Point><coordinates>-53.960800000000006,-21.846699999347617</coordinates></Point></Placemark><Placemark><name>PORTO MURTINHO</name><description><![CDATA[<table><tr><th>OBJECTID</th><td>146</td></tr><tr><th>NOME</th><td>PORTO MURTINHO</td></tr><tr><th>TIPOESTACAO</th><td>1</td></tr><tr><th>CODIGO</th><td>67100000</td></tr><tr><th>LATITUDE</th><td>-21.700300000000002</td></tr><tr><th>LONGITUDE</th><td>-57.8911</td></tr><tr><th>ALTITUDE</th><td>70.75</td></tr><tr><th>AREADRENAGEM</th><td>576000</td></tr><tr><th>ULTIMAATUALIZACAO</th><td>1352678400000</td></tr><tr><th>OPERANDO</th><td>1</td></tr><tr><th>BACIANOME</th><td>RIO PARANÁ</td></tr><tr><th>SUBBACIANOME</th><td>RIOS PARAGUAI,APA E OUTROS</td></tr><tr><th>ESTADONOME</th><td>MATO GROSSO DO SUL</td></tr></table>]]></description><Point><coordinates>-57.891099999999994,-21.700299999351145</coordinates></Point></Placemark><Placemark><name>AROEIRA</name><description><![CDATA[<table><tr><th>OBJECTID</th><td>323</td></tr><tr><th>NOME</th><td>AROEIRA</td></tr><tr><th>TIPOESTACAO</th><td>1</td></tr><tr><th>CODIGO</th><td>64613000</td></tr><tr><th>LATITUDE</th><td>-21.6414</td></tr><tr><th>LONGITUDE</th><td>-54.4219</td></tr><tr><th>ALTITUDE</th><td>297</td></tr><tr><th>AREADRENAGEM</th><td>4470</td></tr><tr><th>ULTIMAATUALIZACAO</th><td>1289865600000</td></tr><tr><th>OPERANDO</th><td>1</td></tr><tr><th>BACIANOME</th><td>RIO PARANÁ</td></tr><tr><th>SUBBACIANOME</th><td>RIOS PARANÁ,PARANAPANEMA E ...</td></tr><tr><th>ESTADONOME</th><td>MATO GROSSO DO SUL</td></tr></table>]]></description><Point><coordinates>-54.4219,-21.641399999352505</coordinates></Point></Placemark><Placemark><name>FAZENDA BARRA GRANDE</name><description><![CDATA[<table><tr><th>OBJECTID</th><td>734</td></tr><tr><th>NOME</th><td>FAZENDA BARRA GRANDE</td></tr><tr><th>TIPOESTACAO</th><td>1</td></tr><tr><th>CODIGO</th><td>63950280</td></tr><tr><th>LATITUDE</th><td>-21.5728</td></tr><tr><th>LONGITUDE</th><td>-53.6192</td></tr><tr><th>ALTITUDE</th><td>286</td></tr><tr><th>AREADRENAGEM</th><td>11100</td></tr><tr><th>ULTIMAATUALIZACAO</th><td>1289865600000</td></tr><tr><th>OPERANDO</th><td>1</td></tr><tr><th>BACIANOME</th><td>RIO PARANÁ</td></tr><tr><th>SUBBACIANOME</th><td>RIOS PARANÁ,PARDO E OUTROS</td></tr><tr><th>ESTADONOME</th><td>MATO GROSSO DO SUL</td></tr></table>]]></description><Point><coordinates>-53.619199999999985,-21.572799999354142</coordinates></Point></Placemark><Placemark><name>FAZENDA SANTA LUZIA</name><description><![CDATA[<table><tr><th>OBJECTID</th><td>732</td></tr><tr><th>NOME</th><td>FAZENDA SANTA LUZIA</td></tr><tr><th>TIPOESTACAO</th><td>1</td></tr><tr><th>CODIGO</th><td>63950150</td></tr><tr><th>LATITUDE</th><td>-21.4278</td></tr><tr><th>LONGITUDE</th><td>-54.3128</td></tr><tr><th>ALTITUDE</th><td>377</td></tr><tr><th>AREADRENAGEM</th><td>501</td></tr><tr><th>ULTIMAATUALIZACAO</th><td>1289865600000</td></tr><tr><th>OPERANDO</th><td>1</td></tr><tr><th>BACIANOME</th><td>RIO PARANÁ</td></tr><tr><th>SUBBACIANOME</th><td>RIOS PARANÁ,PARDO E OUTROS</td></tr><tr><th>ESTADONOME</th><td>MATO GROSSO DO SUL</td></tr></table>]]></description><Point><coordinates>-54.31279999999998,-21.427799999357656</coordinates></Point></Placemark><Placemark><name>PASSAGEM RIBEIRÃO LONTRA</name><description><![CDATA[<table><tr><th>OBJECTID</th><td>130</td></tr><tr><th>NOME</th><td>PASSAGEM RIBEIRÃO LONTRA</td></tr><tr><th>TIPOESTACAO</th><td>1</td></tr><tr><th>CODIGO</th><td>63950300</td></tr><tr><th>LATITUDE</th><td>-21.4114</td></tr><tr><th>LONGITUDE</th><td>-53.618300000000005</td></tr><tr><th>ALTITUDE</th><td>298</td></tr><tr><th>AREADRENAGEM</th><td>2590</td></tr><tr><th>ULTIMAATUALIZACAO</th><td>1289865600000</td></tr><tr><th>OPERANDO</th><td>1</td></tr><tr><th>BACIANOME</th><td>RIO PARANÁ</td></tr><tr><th>SUBBACIANOME</th><td>RIOS PARANÁ,PARDO E OUTROS</td></tr><tr><th>ESTADONOME</th><td>MATO GROSSO DO SUL</td></tr></table>]]></description><Point><coordinates>-53.61829999999998,-21.41139999935808</coordinates></Point></Placemark><Placemark><name>FAZENDA PONTE</name><description><![CDATA[<table><tr><th>OBJECTID</th><td>731</td></tr><tr><th>NOME</th><td>FAZENDA PONTE</td></tr><tr><th>TIPOESTACAO</th><td>1</td></tr><tr><th>CODIGO</th><td>63950100</td></tr><tr><th>LATITUDE</th><td>-21.3047</td></tr><tr><th>LONGITUDE</th><td>-54.203900000000004</td></tr><tr><th>ALTITUDE</th><td>344</td></tr><tr><th>AREADRENAGEM</th><td>3830</td></tr><tr><th>ULTIMAATUALIZACAO</th><td>1420416000000</td></tr><tr><th>OPERANDO</th><td>1</td></tr><tr><th>BACIANOME</th><td>RIO PARANÁ</td></tr><tr><th>SUBBACIANOME</th><td>RIOS PARANÁ,PARDO E OUTROS</td></tr><tr><th>ESTADONOME</th><td>MATO GROSSO DO SUL</td></tr></table>]]></description><Point><coordinates>-54.203899999999976,-21.304699999360672</coordinates></Point></Placemark><Placemark><name>FAZENDA DIVISA</name><description><![CDATA[<table><tr><th>OBJECTID</th><td>954</td></tr><tr><th>NOME</th><td>FAZENDA DIVISA</td></tr><tr><th>TIPOESTACAO</th><td>1</td></tr><tr><th>CODIGO</th><td>63950250</td></tr><tr><th>LATITUDE</th><td>-21.2075</td></tr><tr><th>LONGITUDE</th><td>-53.955000000000005</td></tr><tr><th>ALTITUDE</th><td>337</td></tr><tr><th>AREADRENAGEM</th><td>1460</td></tr><tr><th>ULTIMAATUALIZACAO</th><td>1289865600000</td></tr><tr><th>OPERANDO</th><td>1</td></tr><tr><th>BACIANOME</th><td>RIO PARANÁ</td></tr><tr><th>SUBBACIANOME</th><td>RIOS PARANÁ,PARDO E OUTROS</td></tr><tr><th>ESTADONOME</th><td>MATO GROSSO DO SUL</td></tr></table>]]></description><Point><coordinates>-53.954999999999984,-21.20749999936299</coordinates></Point></Placemark><Placemark><name>VAU DO BALSAMO</name><description><![CDATA[<table><tr><th>OBJECTID</th><td>535</td></tr><tr><th>NOME</th><td>VAU DO BALSAMO</td></tr><tr><th>TIPOESTACAO</th><td>1</td></tr><tr><th>CODIGO</th><td>63950010</td></tr><tr><th>LATITUDE</th><td>-20.9942</td></tr><tr><th>LONGITUDE</th><td>-54.507200000000005</td></tr><tr><th>ALTITUDE</th><td>384</td></tr><tr><th>AREADRENAGEM</th><td>2530</td></tr><tr><th>ULTIMAATUALIZACAO</th><td>1289865600000</td></tr><tr><th>OPERANDO</th><td>1</td></tr><tr><th>BACIANOME</th><td>RIO PARANÁ</td></tr><tr><th>SUBBACIANOME</th><td>RIOS PARANÁ,PARDO E OUTROS</td></tr><tr><th>ESTADONOME</th><td>MATO GROSSO DO SUL</td></tr></table>]]></description><Point><coordinates>-54.50720000000001,-20.99419999936819</coordinates></Point></Placemark><Placemark><name>CAMPOS ELISIOS</name><description><![CDATA[<table><tr><th>OBJECTID</th><td>1518</td></tr><tr><th>NOME</th><td>CAMPOS ELISIOS</td></tr><tr><th>TIPOESTACAO</th><td>1</td></tr><tr><th>CODIGO</th><td>63930000</td></tr><tr><th>LATITUDE</th><td>-20.9753</td></tr><tr><th>LONGITUDE</th><td>-53.283100000000005</td></tr><tr><th>ALTITUDE</th><td>291</td></tr><tr><th>AREADRENAGEM</th><td>13200</td></tr><tr><th>ULTIMAATUALIZACAO</th><td>1289865600000</td></tr><tr><th>OPERANDO</th><td>1</td></tr><tr><th>BACIANOME</th><td>RIO PARANÁ</td></tr><tr><th>SUBBACIANOME</th><td>RIOS PARANÁ,PARDO E OUTROS</td></tr><tr><th>ESTADONOME</th><td>MATO GROSSO DO SUL</td></tr></table>]]></description><Point><coordinates>-53.2831,-20.975299999368676</coordinates></Point></Placemark><Placemark><name>ESTRADA MT-738</name><description><![CDATA[<table><tr><th>OBJECTID</th><td>556</td></tr><tr><th>NOME</th><td>ESTRADA MT-738</td></tr><tr><th>TIPOESTACAO</th><td>1</td></tr><tr><th>CODIGO</th><td>66900000</td></tr><tr><th>LATITUDE</th><td>-20.7619</td></tr><tr><th>LONGITUDE</th><td>-56.091100000000004</td></tr><tr><th>ALTITUDE</th><td>133</td></tr><tr><th>AREADRENAGEM</th><td>11600</td></tr><tr><th>ULTIMAATUALIZACAO</th><td>1365033600000</td></tr><tr><th>OPERANDO</th><td>1</td></tr><tr><th>BACIANOME</th><td>RIO PARANÁ</td></tr><tr><th>SUBBACIANOME</th><td>RIOS PARAGUAI,SÃO LOURENÇO E .</td></tr><tr><th>ESTADONOME</th><td>MATO GROSSO DO SUL</td></tr></table>]]></description><Point><coordinates>-56.09109999999998,-20.76189999937395</coordinates></Point></Placemark><Placemark><name>AQUIDAUANA</name><description><![CDATA[<table><tr><th>OBJECTID</th><td>145</td></tr><tr><th>NOME</th><td>AQUIDAUANA</td></tr><tr><th>TIPOESTACAO</th><td>1</td></tr><tr><th>CODIGO</th><td>66945000</td></tr><tr><th>LATITUDE</th><td>-20.4781</td></tr><tr><th>LONGITUDE</th><td>-55.8014</td></tr><tr><th>ALTITUDE</th><td>133</td></tr><tr><th>AREADRENAGEM</th><td>15700</td></tr><tr><th>ULTIMAATUALIZACAO</th><td>1409529600000</td></tr><tr><th>OPERANDO</th><td>1</td></tr><tr><th>BACIANOME</th><td>RIO PARANÁ</td></tr><tr><th>SUBBACIANOME</th><td>RIOS PARAGUAI,SÃO LOURENÇO E .</td></tr><tr><th>ESTADONOME</th><td>MATO GROSSO DO SUL</td></tr></table>]]></description><Point><coordinates>-55.8014,-20.478099999380934</coordinates></Point></Placemark><Placemark><name>PALMEIRAS</name><description><![CDATA[<table><tr><th>OBJECTID</th><td>755</td></tr><tr><th>NOME</th><td>PALMEIRAS</td></tr><tr><th>TIPOESTACAO</th><td>1</td></tr><tr><th>CODIGO</th><td>66941000</td></tr><tr><th>LATITUDE</th><td>-20.4481</td></tr><tr><th>LONGITUDE</th><td>-55.4281</td></tr><tr><th>ALTITUDE</th><td>162</td></tr><tr><th>AREADRENAGEM</th><td>10900</td></tr><tr><th>ULTIMAATUALIZACAO</th><td>1425945600000</td></tr><tr><th>OPERANDO</th><td>1</td></tr><tr><th>BACIANOME</th><td>RIO PARANÁ</td></tr><tr><th>SUBBACIANOME</th><td>RIOS PARAGUAI,SÃO LOURENÇO E .</td></tr><tr><th>ESTADONOME</th><td>MATO GROSSO DO SUL</td></tr></table>]]></description><Point><coordinates>-55.42809999999997,-20.448099999381693</coordinates></Point></Placemark><Placemark><name>RIBAS DO RIO PARDO</name><description><![CDATA[<table><tr><th>OBJECTID</th><td>536</td></tr><tr><th>NOME</th><td>RIBAS DO RIO PARDO</td></tr><tr><th>TIPOESTACAO</th><td>1</td></tr><tr><th>CODIGO</th><td>63900001</td></tr><tr><th>LATITUDE</th><td>-20.4414</td></tr><tr><th>LONGITUDE</th><td>-53.7181</td></tr><tr><th>ALTITUDE</th><td>343</td></tr><tr><th>AREADRENAGEM</th><td>8150</td></tr><tr><th>ULTIMAATUALIZACAO</th><td>1289865600000</td></tr><tr><th>OPERANDO</th><td>1</td></tr><tr><th>BACIANOME</th><td>RIO PARANÁ</td></tr><tr><th>SUBBACIANOME</th><td>RIOS PARANÁ,PARDO E OUTROS</td></tr><tr><th>ESTADONOME</th><td>MATO GROSSO DO SUL</td></tr></table>]]></description><Point><coordinates>-53.71809999999999,-20.441399999381844</coordinates></Point></Placemark><Placemark><name>MIRANDA</name><description><![CDATA[<table><tr><th>OBJECTID</th><td>1357</td></tr><tr><th>NOME</th><td>MIRANDA</td></tr><tr><th>TIPOESTACAO</th><td>1</td></tr><tr><th>CODIGO</th><td>66910000</td></tr><tr><th>LATITUDE</th><td>-20.2408</td></tr><tr><th>LONGITUDE</th><td>-56.3992</td></tr><tr><th>ALTITUDE</th><td>108</td></tr><tr><th>AREADRENAGEM</th><td>15000</td></tr><tr><th>ULTIMAATUALIZACAO</th><td>1429833600000</td></tr><tr><th>OPERANDO</th><td>1</td></tr><tr><th>BACIANOME</th><td>RIO PARANÁ</td></tr><tr><th>SUBBACIANOME</th><td>RIOS PARAGUAI,SÃO LOURENÇO E .</td></tr><tr><th>ESTADONOME</th><td>MATO GROSSO DO SUL</td></tr></table>]]></description><Point><coordinates>-56.39920000000001,-20.24079999938685</coordinates></Point></Placemark><Placemark><name>PONTE DO GREGO</name><description><![CDATA[<table><tr><th>OBJECTID</th><td>968</td></tr><tr><th>NOME</th><td>PONTE DO GREGO</td></tr><tr><th>TIPOESTACAO</th><td>1</td></tr><tr><th>CODIGO</th><td>66926000</td></tr><tr><th>LATITUDE</th><td>-20.1558</td></tr><tr><th>LONGITUDE</th><td>-55.09</td></tr><tr><th>ALTITUDE</th><td>203</td></tr><tr><th>AREADRENAGEM</th><td>6330</td></tr><tr><th>ULTIMAATUALIZACAO</th><td>1289952000000</td></tr><tr><th>OPERANDO</th><td>1</td></tr><tr><th>BACIANOME</th><td>RIO PARANÁ</td></tr><tr><th>SUBBACIANOME</th><td>RIOS PARAGUAI,SÃO LOURENÇO E .</td></tr><tr><th>ESTADONOME</th><td>MATO GROSSO DO SUL</td></tr></table>]]></description><Point><coordinates>-55.089999999999975,-20.155799999389</coordinates></Point></Placemark><Placemark><name>PRÓXIMO A BANDEIRANTES</name><description><![CDATA[<table><tr><th>OBJECTID</th><td>1587</td></tr><tr><th>NOME</th><td>PRÓXIMO A BANDEIRANTES</td></tr><tr><th>TIPOESTACAO</th><td>1</td></tr><tr><th>CODIGO</th><td>66923000</td></tr><tr><th>LATITUDE</th><td>-19.874200000000002</td></tr><tr><th>LONGITUDE</th><td>-54.4378</td></tr><tr><th>ALTITUDE</th><td>478</td></tr><tr><th>AREADRENAGEM</th><td>76</td></tr><tr><th>ULTIMAATUALIZACAO</th><td>1311120000000</td></tr><tr><th>OPERANDO</th><td>1</td></tr><tr><th>BACIANOME</th><td>RIO PARANÁ</td></tr><tr><th>SUBBACIANOME</th><td>RIOS PARAGUAI,SÃO LOURENÇO E .</td></tr><tr><th>ESTADONOME</th><td>MATO GROSSO DO SUL</td></tr></table>]]></description><Point><coordinates>-54.43779999999998,-19.874199999396076</coordinates></Point></Placemark><Placemark><name>PORTO CIRIACO</name><description><![CDATA[<table><tr><th>OBJECTID</th><td>1149</td></tr><tr><th>NOME</th><td>PORTO CIRIACO</td></tr><tr><th>TIPOESTACAO</th><td>1</td></tr><tr><th>CODIGO</th><td>66950000</td></tr><tr><th>LATITUDE</th><td>-19.698600000000003</td></tr><tr><th>LONGITUDE</th><td>-56.2811</td></tr><tr><th>ALTITUDE</th><td>103</td></tr><tr><th>AREADRENAGEM</th><td>17200</td></tr><tr><th>ULTIMAATUALIZACAO</th><td>1427241600000</td></tr><tr><th>OPERANDO</th><td>1</td></tr><tr><th>BACIANOME</th><td>RIO PARANÁ</td></tr><tr><th>SUBBACIANOME</th><td>RIOS PARAGUAI,SÃO LOURENÇO E .</td></tr><tr><th>ESTADONOME</th><td>MATO GROSSO DO SUL</td></tr></table>]]></description><Point><coordinates>-56.28109999999998,-19.698599999400567</coordinates></Point></Placemark><Placemark><name>ALTO RIO VERDE</name><description><![CDATA[<table><tr><th>OBJECTID</th><td>953</td></tr><tr><th>NOME</th><td>ALTO RIO VERDE</td></tr><tr><th>TIPOESTACAO</th><td>1</td></tr><tr><th>CODIGO</th><td>63250000</td></tr><tr><th>LATITUDE</th><td>-19.3775</td></tr><tr><th>LONGITUDE</th><td>-53.5711</td></tr><tr><th>ALTITUDE</th><td>437</td></tr><tr><th>AREADRENAGEM</th><td>2940</td></tr><tr><th>ULTIMAATUALIZACAO</th><td>1289865600000</td></tr><tr><th>OPERANDO</th><td>1</td></tr><tr><th>BACIANOME</th><td>RIO PARANÁ</td></tr><tr><th>SUBBACIANOME</th><td>RIOS PARANÁ,PARDO E OUTROS</td></tr><tr><th>ESTADONOME</th><td>MATO GROSSO DO SUL</td></tr></table>]]></description><Point><coordinates>-53.57110000000001,-19.377499999408766</coordinates></Point></Placemark><Placemark><name>ASSAÍ MTE. ETA SANEPAR</name><description><![CDATA[<table><tr><th>OBJECTID</th><td>780</td></tr><tr><th>NOME</th><td>ASSAÍ MTE. ETA SANEPAR</td></tr><tr><th>TIPOESTACAO</th><td>1</td></tr><tr><th>CODIGO</th><td>64504100</td></tr><tr><th>LATITUDE</th><td>-23.4386</td></tr><tr><th>LONGITUDE</th><td>-50.823100000000004</td></tr><tr><th>ALTITUDE</th><td>520</td></tr><tr><th>AREADRENAGEM</th><td>29.6</td></tr><tr><th>ULTIMAATUALIZACAO</th><td>1372204800000</td></tr><tr><th>OPERANDO</th><td>1</td></tr><tr><th>BACIANOME</th><td>RIO PARANÁ</td></tr><tr><th>SUBBACIANOME</th><td>RIOS PARANÁ,PARANAPANEMA E ...</td></tr><tr><th>ESTADONOME</th><td>PARANÁ</td></tr></table>]]></description><Point><coordinates>-50.82310000000001,-23.438599999310764</coordinates></Point></Placemark><Placemark><name>LONDRINA MTE. ETA SANEPAR</name><description><![CDATA[<table><tr><th>OBJECTID</th><td>1345</td></tr><tr><th>NOME</th><td>LONDRINA MTE. ETA SANEPAR</td></tr><tr><th>TIPOESTACAO</th><td>1</td></tr><tr><th>CODIGO</th><td>64504591</td></tr><tr><th>LATITUDE</th><td>-23.3578</td></tr><tr><th>LONGITUDE</th><td>-51.1939</td></tr><tr><th>ALTITUDE</th><td>485</td></tr><tr><th>AREADRENAGEM</th><td>134</td></tr><tr><th>ULTIMAATUALIZACAO</th><td>1372204800000</td></tr><tr><th>OPERANDO</th><td>1</td></tr><tr><th>BACIANOME</th><td>RIO PARANÁ</td></tr><tr><th>SUBBACIANOME</th><td>RIOS PARANÁ,PARANAPANEMA E ...</td></tr><tr><th>ESTADONOME</th><td>PARANÁ</td></tr></table>]]></description><Point><coordinates>-51.193899999999985,-23.357799999312576</coordinates></Point></Placemark><Placemark><name>MARINGÁ MTE. ETA SANEPAR</name><description><![CDATA[<table><tr><th>OBJECTID</th><td>1433</td></tr><tr><th>NOME</th><td>MARINGÁ MTE. ETA SANEPAR</td></tr><tr><th>TIPOESTACAO</th><td>1</td></tr><tr><th>CODIGO</th><td>64541000</td></tr><tr><th>LATITUDE</th><td>-23.3331</td></tr><tr><th>LONGITUDE</th><td>-51.849700000000006</td></tr><tr><th>ALTITUDE</th><td>400</td></tr><tr><th>AREADRENAGEM</th><td>1240</td></tr><tr><th>ULTIMAATUALIZACAO</th><td>1391472000000</td></tr><tr><th>OPERANDO</th><td>1</td></tr><tr><th>BACIANOME</th><td>RIO PARANÁ</td></tr><tr><th>SUBBACIANOME</th><td>RIOS PARANÁ,PARANAPANEMA E ...</td></tr><tr><th>ESTADONOME</th><td>PARANÁ</td></tr></table>]]></description><Point><coordinates>-51.849699999999984,-23.333099999313138</coordinates></Point></Placemark><Placemark><name>PORTO PARAÍSO DO NORTE</name><description><![CDATA[<table><tr><th>OBJECTID</th><td>327</td></tr><tr><th>NOME</th><td>PORTO PARAÍSO DO NORTE</td></tr><tr><th>TIPOESTACAO</th><td>1</td></tr><tr><th>CODIGO</th><td>64685000</td></tr><tr><th>LATITUDE</th><td>-23.3231</td></tr><tr><th>LONGITUDE</th><td>-52.6644</td></tr><tr><th>ALTITUDE</th><td>250</td></tr><tr><th>AREADRENAGEM</th><td>28400</td></tr><tr><th>ULTIMAATUALIZACAO</th><td>1372204800000</td></tr><tr><th>OPERANDO</th><td>1</td></tr><tr><th>BACIANOME</th><td>RIO PARANÁ</td></tr><tr><th>SUBBACIANOME</th><td>RIOS PARANÁ,PARANAPANEMA E ...</td></tr><tr><th>ESTADONOME</th><td>PARANÁ</td></tr></table>]]></description><Point><coordinates>-52.6644,-23.323099999313364</coordinates></Point></Placemark><Placemark><name>CHACARA ANA CLAÚDIA</name><description><![CDATA[<table><tr><th>OBJECTID</th><td>1346</td></tr><tr><th>NOME</th><td>CHACARA ANA CLAÚDIA</td></tr><tr><th>TIPOESTACAO</th><td>1</td></tr><tr><th>CODIGO</th><td>64506000</td></tr><tr><th>LATITUDE</th><td>-23.3125</td></tr><tr><th>LONGITUDE</th><td>-50.9958</td></tr><tr><th>ALTITUDE</th><td>346</td></tr><tr><th>AREADRENAGEM</th><td>21900</td></tr><tr><th>ULTIMAATUALIZACAO</th><td>1391472000000</td></tr><tr><th>OPERANDO</th><td>1</td></tr><tr><th>BACIANOME</th><td>RIO PARANÁ</td></tr><tr><th>SUBBACIANOME</th><td>RIOS PARANÁ,PARANAPANEMA E ...</td></tr><tr><th>ESTADONOME</th><td>PARANÁ</td></tr></table>]]></description><Point><coordinates>-50.995799999999974,-23.312499999313598</coordinates></Point></Placemark><Placemark><name>ETA  IBIPORÃ (ICM ECOL)</name><description><![CDATA[<table><tr><th>OBJECTID</th><td>742</td></tr><tr><th>NOME</th><td>ETA  IBIPORÃ (ICM ECOL)</td></tr><tr><th>TIPOESTACAO</th><td>1</td></tr><tr><th>CODIGO</th><td>64507100</td></tr><tr><th>LATITUDE</th><td>-23.2483</td></tr><tr><th>LONGITUDE</th><td>-51.066900000000004</td></tr><tr><th>ALTITUDE</th><td>395</td></tr><tr><th>AREADRENAGEM</th><td>178</td></tr><tr><th>ULTIMAATUALIZACAO</th><td>1372204800000</td></tr><tr><th>OPERANDO</th><td>1</td></tr><tr><th>BACIANOME</th><td>RIO PARANÁ</td></tr><tr><th>SUBBACIANOME</th><td>RIOS PARANÁ,PARANAPANEMA E ...</td></tr><tr><th>ESTADONOME</th><td>PARANÁ</td></tr></table>]]></description><Point><coordinates>-51.06689999999998,-23.24829999931503</coordinates></Point></Placemark><Placemark><name>VILA SILVA JARDIM</name><description><![CDATA[<table><tr><th>OBJECTID</th><td>304</td></tr><tr><th>NOME</th><td>VILA SILVA JARDIM</td></tr><tr><th>TIPOESTACAO</th><td>1</td></tr><tr><th>CODIGO</th><td>64550000</td></tr><tr><th>LATITUDE</th><td>-22.8569</td></tr><tr><th>LONGITUDE</th><td>-52.0781</td></tr><tr><th>ALTITUDE</th><td>250</td></tr><tr><th>AREADRENAGEM</th><td>4490</td></tr><tr><th>ULTIMAATUALIZACAO</th><td>1391472000000</td></tr><tr><th>OPERANDO</th><td>1</td></tr><tr><th>BACIANOME</th><td>RIO PARANÁ</td></tr><tr><th>SUBBACIANOME</th><td>RIOS PARANÁ,PARANAPANEMA E ...</td></tr><tr><th>ESTADONOME</th><td>PARANÁ</td></tr></table>]]></description><Point><coordinates>-52.078100000000006,-22.85689999932398</coordinates></Point></Placemark><Placemark><name>PORTO SÃO JOSÉ - JUSANTE</name><description><![CDATA[<table><tr><th>OBJECTID</th><td>548</td></tr><tr><th>NOME</th><td>PORTO SÃO JOSÉ - JUSANTE</td></tr><tr><th>TIPOESTACAO</th><td>1</td></tr><tr><th>CODIGO</th><td>64575003</td></tr><tr><th>LATITUDE</th><td>-22.7131</td></tr><tr><th>LONGITUDE</th><td>-53.1728</td></tr><tr><th>ALTITUDE</th><td>232</td></tr><tr><th>AREADRENAGEM</th><td>676000</td></tr><tr><th>ULTIMAATUALIZACAO</th><td>1363132800000</td></tr><tr><th>OPERANDO</th><td>1</td></tr><tr><th>BACIANOME</th><td>RIO PARANÁ</td></tr><tr><th>SUBBACIANOME</th><td>RIOS PARANÁ,PARANAPANEMA E ...</td></tr><tr><th>ESTADONOME</th><td>PARANÁ</td></tr></table>]]></description><Point><coordinates>-53.172799999999995,-22.7130999993273</coordinates></Point></Placemark><Placemark><name>FAZENDA BURITI</name><description><![CDATA[<table><tr><th>OBJECTID</th><td>956</td></tr><tr><th>NOME</th><td>FAZENDA BURITI</td></tr><tr><th>TIPOESTACAO</th><td>1</td></tr><tr><th>CODIGO</th><td>63970000</td></tr><tr><th>LATITUDE</th><td>-21.6633</td></tr><tr><th>LONGITUDE</th><td>-52.8675</td></tr><tr><th>ALTITUDE</th><td>259</td></tr><tr><th>AREADRENAGEM</th><td>31000</td></tr><tr><th>ULTIMAATUALIZACAO</th><td>1367280000000</td></tr><tr><th>OPERANDO</th><td>1</td></tr><tr><th>BACIANOME</th><td>RIO PARANÁ</td></tr><tr><th>SUBBACIANOME</th><td>RIOS PARANÁ,PARDO E OUTROS</td></tr><tr><th>ESTADONOME</th><td>MATO GROSSO DO SUL</td></tr></table>]]></description><Point><coordinates>-52.86750000000001,-21.663299999352</coordinates></Point></Placemark><Placemark><name>DELFINO COSTA</name><description><![CDATA[<table><tr><th>OBJECTID</th><td>311</td></tr><tr><th>NOME</th><td>DELFINO COSTA</td></tr><tr><th>TIPOESTACAO</th><td>1</td></tr><tr><th>CODIGO</th><td>63955000</td></tr><tr><th>LATITUDE</th><td>-21.6097</td></tr><tr><th>LONGITUDE</th><td>-53.0533</td></tr><tr><th>ALTITUDE</th><td>257</td></tr><tr><th>AREADRENAGEM</th><td>13600</td></tr><tr><th>ULTIMAATUALIZACAO</th><td>1289865600000</td></tr><tr><th>OPERANDO</th><td>1</td></tr><tr><th>BACIANOME</th><td>RIO PARANÁ</td></tr><tr><th>SUBBACIANOME</th><td>RIOS PARANÁ,PARDO E OUTROS</td></tr><tr><th>ESTADONOME</th><td>MATO GROSSO DO SUL</td></tr></table>]]></description><Point><coordinates>-53.05329999999998,-21.60969999935326</coordinates></Point></Placemark><Placemark><name>ÁGUA CLARA</name><description><![CDATA[<table><tr><th>OBJECTID</th><td>302</td></tr><tr><th>NOME</th><td>ÁGUA CLARA</td></tr><tr><th>TIPOESTACAO</th><td>1</td></tr><tr><th>CODIGO</th><td>63350100</td></tr><tr><th>LATITUDE</th><td>-20.445</td></tr><tr><th>LONGITUDE</th><td>-52.901700000000005</td></tr><tr><th>ALTITUDE</th><td>284</td></tr><tr><th>AREADRENAGEM</th><td>14500</td></tr><tr><th>ULTIMAATUALIZACAO</th><td>1420416000000</td></tr><tr><th>OPERANDO</th><td>1</td></tr><tr><th>BACIANOME</th><td>RIO PARANÁ</td></tr><tr><th>SUBBACIANOME</th><td>RIOS PARANÁ,PARDO E OUTROS</td></tr><tr><th>ESTADONOME</th><td>MATO GROSSO DO SUL</td></tr></table>]]></description><Point><coordinates>-52.901700000000005,-20.444999999381753</coordinates></Point></Placemark><Placemark><name>PORTO GALEANO</name><description><![CDATA[<table><tr><th>OBJECTID</th><td>729</td></tr><tr><th>NOME</th><td>PORTO GALEANO</td></tr><tr><th>TIPOESTACAO</th><td>1</td></tr><tr><th>CODIGO</th><td>63003100</td></tr><tr><th>LATITUDE</th><td>-20.0944</td></tr><tr><th>LONGITUDE</th><td>-52.1497</td></tr><tr><th>ALTITUDE</th><td>316</td></tr><tr><th>AREADRENAGEM</th><td>19000</td></tr><tr><th>ULTIMAATUALIZACAO</th><td>1318982400000</td></tr><tr><th>OPERANDO</th><td>1</td></tr><tr><th>BACIANOME</th><td>RIO PARANÁ</td></tr><tr><th>SUBBACIANOME</th><td>RIOS PARANÁ,PARDO E OUTROS</td></tr><tr><th>ESTADONOME</th><td>MATO GROSSO DO SUL</td></tr></table>]]></description><Point><coordinates>-52.1497,-20.09439999939055</coordinates></Point></Placemark><Placemark><name>MORANGAS</name><description><![CDATA[<table><tr><th>OBJECTID</th><td>1338</td></tr><tr><th>NOME</th><td>MORANGAS</td></tr><tr><th>TIPOESTACAO</th><td>1</td></tr><tr><th>CODIGO</th><td>63001750</td></tr><tr><th>LATITUDE</th><td>-19.5544</td></tr><tr><th>LONGITUDE</th><td>-52.165</td></tr><tr><th>ALTITUDE</th><td>391</td></tr><tr><th>AREADRENAGEM</th><td>1080</td></tr><tr><th>ULTIMAATUALIZACAO</th><td>1289865600000</td></tr><tr><th>OPERANDO</th><td>1</td></tr><tr><th>BACIANOME</th><td>RIO PARANÁ</td></tr><tr><th>SUBBACIANOME</th><td>RIOS PARANÁ,PARDO E OUTROS</td></tr><tr><th>ESTADONOME</th><td>MATO GROSSO DO SUL</td></tr></table>]]></description><Point><coordinates>-52.16500000000002,-19.55439999940422</coordinates></Point></Placemark><Placemark><name>PORTO SÃO DOMINGOS</name><description><![CDATA[<table><tr><th>OBJECTID</th><td>1359</td></tr><tr><th>NOME</th><td>PORTO SÃO DOMINGOS</td></tr><tr><th>TIPOESTACAO</th><td>1</td></tr><tr><th>CODIGO</th><td>64723000</td></tr><tr><th>LATITUDE</th><td>-23.6481</td></tr><tr><th>LONGITUDE</th><td>-55.3894</td></tr><tr><th>ALTITUDE</th><td>319</td></tr><tr><th>AREADRENAGEM</th><td>1060</td></tr><tr><th>ULTIMAATUALIZACAO</th><td>1285632000000</td></tr><tr><th>OPERANDO</th><td>1</td></tr><tr><th>BACIANOME</th><td>RIO PARANÁ</td></tr><tr><th>SUBBACIANOME</th><td>RIOS PARANÁ,PARANAPANEMA E ...</td></tr><tr><th>ESTADONOME</th><td>MATO GROSSO DO SUL</td></tr></table>]]></description><Point><coordinates>-55.38940000000003,-23.648099999306062</coordinates></Point></Placemark><Placemark><name>GUAÍRA</name><description><![CDATA[<table><tr><th>OBJECTID</th><td>1152</td></tr><tr><th>NOME</th><td>GUAÍRA</td></tr><tr><th>TIPOESTACAO</th><td>1</td></tr><tr><th>CODIGO</th><td>64843000</td></tr><tr><th>LATITUDE</th><td>-24.0694</td></tr><tr><th>LONGITUDE</th><td>-54.248900000000006</td></tr><tr><th>ALTITUDE</th><td>218</td></tr><tr><th>AREADRENAGEM</th><td>804000</td></tr><tr><th>ULTIMAATUALIZACAO</th><td>1363132800000</td></tr><tr><th>OPERANDO</th><td>1</td></tr><tr><th>BACIANOME</th><td>RIO PARANÁ</td></tr><tr><th>SUBBACIANOME</th><td>RIOS PARANÁ,PARANAPANEMA E ...</td></tr><tr><th>ESTADONOME</th><td>PARANÁ</td></tr></table>]]></description><Point><coordinates>-54.248899999999985,-24.069399999296696</coordinates></Point></Placemark><Placemark><name>IPORÃ</name><description><![CDATA[<table><tr><th>OBJECTID</th><td>559</td></tr><tr><th>NOME</th><td>IPORÃ</td></tr><tr><th>TIPOESTACAO</th><td>1</td></tr><tr><th>CODIGO</th><td>64833000</td></tr><tr><th>LATITUDE</th><td>-23.9694</td></tr><tr><th>LONGITUDE</th><td>-53.752500000000005</td></tr><tr><th>ALTITUDE</th><td>260</td></tr><tr><th>AREADRENAGEM</th><td>1070</td></tr><tr><th>ULTIMAATUALIZACAO</th><td>1391472000000</td></tr><tr><th>OPERANDO</th><td>1</td></tr><tr><th>BACIANOME</th><td>RIO PARANÁ</td></tr><tr><th>SUBBACIANOME</th><td>RIOS PARANÁ,PARANAPANEMA E ...</td></tr><tr><th>ESTADONOME</th><td>PARANÁ</td></tr></table>]]></description><Point><coordinates>-53.752500000000005,-23.969399999298936</coordinates></Point></Placemark><Placemark><name>BALSA DO GOIO - ERE</name><description><![CDATA[<table><tr><th>OBJECTID</th><td>148</td></tr><tr><th>NOME</th><td>BALSA DO GOIO - ERE</td></tr><tr><th>TIPOESTACAO</th><td>1</td></tr><tr><th>CODIGO</th><td>64810000</td></tr><tr><th>LATITUDE</th><td>-23.916700000000002</td></tr><tr><th>LONGITUDE</th><td>-53.133100000000006</td></tr><tr><th>ALTITUDE</th><td>320</td></tr><tr><th>AREADRENAGEM</th><td>2040</td></tr><tr><th>ULTIMAATUALIZACAO</th><td>1352678400000</td></tr><tr><th>OPERANDO</th><td>1</td></tr><tr><th>BACIANOME</th><td>RIO PARANÁ</td></tr><tr><th>SUBBACIANOME</th><td>RIOS PARANÁ,PARANAPANEMA E ...</td></tr><tr><th>ESTADONOME</th><td>PARANÁ</td></tr></table>]]></description><Point><coordinates>-53.13310000000001,-23.91669999930009</coordinates></Point></Placemark><Placemark><name>JAPURÁ - RIO DOS ÍNDIOS</name><description><![CDATA[<table><tr><th>OBJECTID</th><td>1354</td></tr><tr><th>NOME</th><td>JAPURÁ - RIO DOS ÍNDIOS</td></tr><tr><th>TIPOESTACAO</th><td>1</td></tr><tr><th>CODIGO</th><td>64682000</td></tr><tr><th>LATITUDE</th><td>-23.4414</td></tr><tr><th>LONGITUDE</th><td>-52.6047</td></tr><tr><th>ALTITUDE</th><td>285</td></tr><tr><th>AREADRENAGEM</th><td>818</td></tr><tr><th>ULTIMAATUALIZACAO</th><td>1391472000000</td></tr><tr><th>OPERANDO</th><td>1</td></tr><tr><th>BACIANOME</th><td>RIO PARANÁ</td></tr><tr><th>SUBBACIANOME</th><td>RIOS PARANÁ,PARANAPANEMA E ...</td></tr><tr><th>ESTADONOME</th><td>PARANÁ</td></tr></table>]]></description><Point><coordinates>-52.60469999999999,-23.441399999310665</coordinates></Point></Placemark><Placemark><name>CAMPO MOURÃO ETA SANEPAR</name><description><![CDATA[<table><tr><th>OBJECTID</th><td>1049</td></tr><tr><th>NOME</th><td>CAMPO MOURÃO ETA SANEPAR</td></tr><tr><th>TIPOESTACAO</th><td>1</td></tr><tr><th>CODIGO</th><td>64671950</td></tr><tr><th>LATITUDE</th><td>-24.0653</td></tr><tr><th>LONGITUDE</th><td>-52.4164</td></tr><tr><th>ALTITUDE</th><td>620</td></tr><tr><th>AREADRENAGEM</th><td>79</td></tr><tr><th>ULTIMAATUALIZACAO</th><td>1372204800000</td></tr><tr><th>OPERANDO</th><td>1</td></tr><tr><th>BACIANOME</th><td>RIO PARANÁ</td></tr><tr><th>SUBBACIANOME</th><td>RIOS PARANÁ,PARANAPANEMA E ...</td></tr><tr><th>ESTADONOME</th><td>PARANÁ</td></tr></table>]]></description><Point><coordinates>-52.4164,-24.06529999929679</coordinates></Point></Placemark><Placemark><name>QUINTA DO SOL</name><description><![CDATA[<table><tr><th>OBJECTID</th><td>752</td></tr><tr><th>NOME</th><td>QUINTA DO SOL</td></tr><tr><th>TIPOESTACAO</th><td>1</td></tr><tr><th>CODIGO</th><td>64673000</td></tr><tr><th>LATITUDE</th><td>-23.828100000000003</td></tr><tr><th>LONGITUDE</th><td>-52.1831</td></tr><tr><th>ALTITUDE</th><td>315</td></tr><tr><th>AREADRENAGEM</th><td>1530</td></tr><tr><th>ULTIMAATUALIZACAO</th><td>1352678400000</td></tr><tr><th>OPERANDO</th><td>1</td></tr><tr><th>BACIANOME</th><td>RIO PARANÁ</td></tr><tr><th>SUBBACIANOME</th><td>RIOS PARANÁ,PARANAPANEMA E ...</td></tr><tr><th>ESTADONOME</th><td>PARANÁ</td></tr></table>]]></description><Point><coordinates>-52.183100000000024,-23.82809999930205</coordinates></Point></Placemark><Placemark><name>PORTO BANANEIRA</name><description><![CDATA[<table><tr><th>OBJECTID</th><td>1353</td></tr><tr><th>NOME</th><td>PORTO BANANEIRA</td></tr><tr><th>TIPOESTACAO</th><td>1</td></tr><tr><th>CODIGO</th><td>64675002</td></tr><tr><th>LATITUDE</th><td>-23.6747</td></tr><tr><th>LONGITUDE</th><td>-52.117200000000004</td></tr><tr><th>ALTITUDE</th><td>520</td></tr><tr><th>AREADRENAGEM</th><td>23100</td></tr><tr><th>ULTIMAATUALIZACAO</th><td>1391472000000</td></tr><tr><th>OPERANDO</th><td>1</td></tr><tr><th>BACIANOME</th><td>RIO PARANÁ</td></tr><tr><th>SUBBACIANOME</th><td>RIOS PARANÁ,PARANAPANEMA E ...</td></tr><tr><th>ESTADONOME</th><td>PARANÁ</td></tr></table>]]></description><Point><coordinates>-52.117200000000025,-23.674699999305435</coordinates></Point></Placemark><Placemark><name>BARBOSA FERRAZ</name><description><![CDATA[<table><tr><th>OBJECTID</th><td>1147</td></tr><tr><th>NOME</th><td>BARBOSA FERRAZ</td></tr><tr><th>TIPOESTACAO</th><td>1</td></tr><tr><th>CODIGO</th><td>64659000</td></tr><tr><th>LATITUDE</th><td>-24.0167</td></tr><tr><th>LONGITUDE</th><td>-51.95</td></tr><tr><th>ALTITUDE</th><td>320</td></tr><tr><th>AREADRENAGEM</th><td>3290</td></tr><tr><th>ULTIMAATUALIZACAO</th><td>1395014400000</td></tr><tr><th>OPERANDO</th><td>1</td></tr><tr><th>BACIANOME</th><td>RIO PARANÁ</td></tr><tr><th>SUBBACIANOME</th><td>RIOS PARANÁ,PARANAPANEMA E ...</td></tr><tr><th>ESTADONOME</th><td>PARANÁ</td></tr></table>]]></description><Point><coordinates>-51.949999999999996,-24.016699999297895</coordinates></Point></Placemark><Placemark><name>UBÁ DO SUL</name><description><![CDATA[<table><tr><th>OBJECTID</th><td>143</td></tr><tr><th>NOME</th><td>UBÁ DO SUL</td></tr><tr><th>TIPOESTACAO</th><td>1</td></tr><tr><th>CODIGO</th><td>64655000</td></tr><tr><th>LATITUDE</th><td>-24.041700000000002</td></tr><tr><th>LONGITUDE</th><td>-51.622800000000005</td></tr><tr><th>ALTITUDE</th><td>380</td></tr><tr><th>AREADRENAGEM</th><td>12700</td></tr><tr><th>ULTIMAATUALIZACAO</th><td>1352678400000</td></tr><tr><th>OPERANDO</th><td>1</td></tr><tr><th>BACIANOME</th><td>RIO PARANÁ</td></tr><tr><th>SUBBACIANOME</th><td>RIOS PARANÁ,PARANAPANEMA E ...</td></tr><tr><th>ESTADONOME</th><td>PARANÁ</td></tr></table>]]></description><Point><coordinates>-51.622799999999984,-24.041699999297325</coordinates></Point></Placemark><Placemark><name>APUCARANA MTE. ETA SANEPAR</name><description><![CDATA[<table><tr><th>OBJECTID</th><td>573</td></tr><tr><th>NOME</th><td>APUCARANA MTE. ETA SANEPAR</td></tr><tr><th>TIPOESTACAO</th><td>1</td></tr><tr><th>CODIGO</th><td>64529900</td></tr><tr><th>LATITUDE</th><td>-23.5</td></tr><tr><th>LONGITUDE</th><td>-51.4722</td></tr><tr><th>ALTITUDE</th><td>600</td></tr><tr><th>AREADRENAGEM</th><td>22</td></tr><tr><th>ULTIMAATUALIZACAO</th><td>1372204800000</td></tr><tr><th>OPERANDO</th><td>1</td></tr><tr><th>BACIANOME</th><td>RIO PARANÁ</td></tr><tr><th>SUBBACIANOME</th><td>RIOS PARANÁ,PARANAPANEMA E ...</td></tr><tr><th>ESTADONOME</th><td>PARANÁ</td></tr></table>]]></description><Point><coordinates>-51.47219999999999,-23.49999999930937</coordinates></Point></Placemark><Placemark><name>PORTO LONDRINA</name><description><![CDATA[<table><tr><th>OBJECTID</th><td>547</td></tr><tr><th>NOME</th><td>PORTO LONDRINA</td></tr><tr><th>TIPOESTACAO</th><td>1</td></tr><tr><th>CODIGO</th><td>64501000</td></tr><tr><th>LATITUDE</th><td>-23.6372</td></tr><tr><th>LONGITUDE</th><td>-50.923100000000005</td></tr><tr><th>ALTITUDE</th><td>400</td></tr><tr><th>AREADRENAGEM</th><td>18700</td></tr><tr><th>ULTIMAATUALIZACAO</th><td>1391472000000</td></tr><tr><th>OPERANDO</th><td>1</td></tr><tr><th>BACIANOME</th><td>RIO PARANÁ</td></tr><tr><th>SUBBACIANOME</th><td>RIOS PARANÁ,PARANAPANEMA E ...</td></tr><tr><th>ESTADONOME</th><td>PARANÁ</td></tr></table>]]></description><Point><coordinates>-50.92309999999998,-23.63719999930631</coordinates></Point></Placemark></Document></kml>