{"type":"FeatureCollection","name":"cavidades_em_unidades_conservacao","features":[{"type":"Feature","geometry":{"type":"Point","coordinates":[-56.833828,-20.60043901]},"properties":{"ogc_fid":194,"num_canie":"005666.00026.50.02159","nome":"Gruta do Cateto Sumido","estado":"Mato Grosso do Sul","municipio":"Bodoquena","longitude":"-56.833828","latitude":"-20.600439","nvl_valida":"Nível 1","__atlas_fonte_oficial":"CANIE/CECAV/ICMBio","__atlas_metodo_captura":"WFS oficial ICMBio/INDE","__atlas_tipo_servico":"ICMBio:canie_052026_p","__atlas_capturado_em":"2026-08-10T12:53:17.009Z","__atlas_recorte":"Mato Grosso do Sul por atributo ou interseção com envelope estadual","__atlas_aviso":"Cadastro não representa todo o universo de cavernas e não substitui validação de campo ou autorização de visitação.","cnuc":"0000.00.0143","nome_uc":"PARQUE NACIONAL DA SERRA DA BODOQUENA","categoria_uc":"Parque Nacional","esfera_administrativa":"Federal","tipo_relacao":"ponto CANIE dentro do polígono CNUC","metodo":"teste ponto–polígono sobre snapshots locais","fonte_cavidade":"CANIE/CECAV/ICMBio · snapshot local capturado em 10/08/2026","fonte_uc":"CNUC/MMA · snapshot local capturado em 10/08/2026","data_corte":"2026-08-10","natureza_resultado":"análise espacial derivada","limitacoes":"A relação cartográfica depende da precisão e atualização das bases CANIE e CNUC e não substitui validação institucional ou de campo."}},{"type":"Feature","geometry":{"type":"Point","coordinates":[-56.810801,-20.72566401]},"properties":{"ogc_fid":209,"num_canie":"005681.00038.50.02159","nome":"Gruta Toca da Onça","estado":"Mato Grosso do Sul","municipio":"Bodoquena","longitude":"-56.810801","latitude":"-20.725664","nvl_valida":"Nível 1","__atlas_fonte_oficial":"CANIE/CECAV/ICMBio","__atlas_metodo_captura":"WFS oficial ICMBio/INDE","__atlas_tipo_servico":"ICMBio:canie_052026_p","__atlas_capturado_em":"2026-08-10T12:53:17.009Z","__atlas_recorte":"Mato Grosso do Sul por atributo ou interseção com envelope estadual","__atlas_aviso":"Cadastro não representa todo o universo de cavernas e não substitui validação de campo ou autorização de visitação.","cnuc":"0000.00.0143","nome_uc":"PARQUE NACIONAL DA SERRA DA BODOQUENA","categoria_uc":"Parque Nacional","esfera_administrativa":"Federal","tipo_relacao":"ponto CANIE dentro do polígono CNUC","metodo":"teste ponto–polígono sobre snapshots locais","fonte_cavidade":"CANIE/CECAV/ICMBio · snapshot local capturado em 10/08/2026","fonte_uc":"CNUC/MMA · snapshot local capturado em 10/08/2026","data_corte":"2026-08-10","natureza_resultado":"análise espacial derivada","limitacoes":"A relação cartográfica depende da precisão e atualização das bases CANIE e CNUC e não substitui validação institucional ou de campo."}},{"type":"Feature","geometry":{"type":"Point","coordinates":[-56.807843,-20.72820301]},"properties":{"ogc_fid":211,"num_canie":"005683.00040.50.02159","nome":"Gruta do Senhor Valdemar","estado":"Mato Grosso do Sul","municipio":"Bodoquena","longitude":"-56.807843","latitude":"-20.728203","nvl_valida":"Nível 1","__atlas_fonte_oficial":"CANIE/CECAV/ICMBio","__atlas_metodo_captura":"WFS oficial ICMBio/INDE","__atlas_tipo_servico":"ICMBio:canie_052026_p","__atlas_capturado_em":"2026-08-10T12:53:17.009Z","__atlas_recorte":"Mato Grosso do Sul por atributo ou interseção com envelope estadual","__atlas_aviso":"Cadastro não representa todo o universo de cavernas e não substitui validação de campo ou autorização de visitação.","cnuc":"0000.00.0143","nome_uc":"PARQUE NACIONAL DA SERRA DA BODOQUENA","categoria_uc":"Parque Nacional","esfera_administrativa":"Federal","tipo_relacao":"ponto CANIE dentro do polígono CNUC","metodo":"teste ponto–polígono sobre snapshots locais","fonte_cavidade":"CANIE/CECAV/ICMBio · snapshot local capturado em 10/08/2026","fonte_uc":"CNUC/MMA · snapshot local capturado em 10/08/2026","data_corte":"2026-08-10","natureza_resultado":"análise espacial derivada","limitacoes":"A relação cartográfica depende da precisão e atualização das bases CANIE e CNUC e não substitui validação institucional ou de campo."}},{"type":"Feature","geometry":{"type":"Point","coordinates":[-56.807193,-20.72754101]},"properties":{"ogc_fid":213,"num_canie":"005685.00041.50.02159","nome":"Caverna do Carlinhos (Fenda II do Carlinhos)","estado":"Mato Grosso do Sul","municipio":"Bodoquena","longitude":"-56.807193","latitude":"-20.727541","nvl_valida":"Nível 1","__atlas_fonte_oficial":"CANIE/CECAV/ICMBio","__atlas_metodo_captura":"WFS oficial ICMBio/INDE","__atlas_tipo_servico":"ICMBio:canie_052026_p","__atlas_capturado_em":"2026-08-10T12:53:17.009Z","__atlas_recorte":"Mato Grosso do Sul por atributo ou interseção com envelope estadual","__atlas_aviso":"Cadastro não representa todo o universo de cavernas e não substitui validação de campo ou autorização de visitação.","cnuc":"0000.00.0143","nome_uc":"PARQUE NACIONAL DA SERRA DA BODOQUENA","categoria_uc":"Parque Nacional","esfera_administrativa":"Federal","tipo_relacao":"ponto CANIE dentro do polígono CNUC","metodo":"teste ponto–polígono sobre snapshots locais","fonte_cavidade":"CANIE/CECAV/ICMBio · snapshot local capturado em 10/08/2026","fonte_uc":"CNUC/MMA · snapshot local capturado em 10/08/2026","data_corte":"2026-08-10","natureza_resultado":"análise espacial derivada","limitacoes":"A relação cartográfica depende da precisão e atualização das bases CANIE e CNUC e não substitui validação institucional ou de campo."}},{"type":"Feature","geometry":{"type":"Point","coordinates":[-56.804093,-20.76334101]},"properties":{"ogc_fid":214,"num_canie":"005686.00042.50.02159","nome":"Gruta da Cachoeirinha III","estado":"Mato Grosso do Sul","municipio":"Bodoquena","longitude":"-56.804093","latitude":"-20.763341","nvl_valida":"Nível 1","__atlas_fonte_oficial":"CANIE/CECAV/ICMBio","__atlas_metodo_captura":"WFS oficial ICMBio/INDE","__atlas_tipo_servico":"ICMBio:canie_052026_p","__atlas_capturado_em":"2026-08-10T12:53:17.009Z","__atlas_recorte":"Mato Grosso do Sul por atributo ou interseção com envelope estadual","__atlas_aviso":"Cadastro não representa todo o universo de cavernas e não substitui validação de campo ou autorização de visitação.","cnuc":"0000.00.0143","nome_uc":"PARQUE NACIONAL DA SERRA DA BODOQUENA","categoria_uc":"Parque Nacional","esfera_administrativa":"Federal","tipo_relacao":"ponto CANIE dentro do polígono CNUC","metodo":"teste ponto–polígono sobre snapshots locais","fonte_cavidade":"CANIE/CECAV/ICMBio · snapshot local capturado em 10/08/2026","fonte_uc":"CNUC/MMA · snapshot local capturado em 10/08/2026","data_corte":"2026-08-10","natureza_resultado":"análise espacial derivada","limitacoes":"A relação cartográfica depende da precisão e atualização das bases CANIE e CNUC e não substitui validação institucional ou de campo."}},{"type":"Feature","geometry":{"type":"Point","coordinates":[-56.803693,-20.75904101]},"properties":{"ogc_fid":215,"num_canie":"005687.00043.50.02159","nome":"Abismo da Estrada","estado":"Mato Grosso do Sul","municipio":"Bodoquena","longitude":"-56.803693","latitude":"-20.759041","nvl_valida":"Nível 1","__atlas_fonte_oficial":"CANIE/CECAV/ICMBio","__atlas_metodo_captura":"WFS oficial ICMBio/INDE","__atlas_tipo_servico":"ICMBio:canie_052026_p","__atlas_capturado_em":"2026-08-10T12:53:17.009Z","__atlas_recorte":"Mato Grosso do Sul por atributo ou interseção com envelope estadual","__atlas_aviso":"Cadastro não representa todo o universo de cavernas e não substitui validação de campo ou autorização de visitação.","cnuc":"0000.00.0143","nome_uc":"PARQUE NACIONAL DA SERRA DA BODOQUENA","categoria_uc":"Parque Nacional","esfera_administrativa":"Federal","tipo_relacao":"ponto CANIE dentro do polígono CNUC","metodo":"teste ponto–polígono sobre snapshots locais","fonte_cavidade":"CANIE/CECAV/ICMBio · snapshot local capturado em 10/08/2026","fonte_uc":"CNUC/MMA · snapshot local capturado em 10/08/2026","data_corte":"2026-08-10","natureza_resultado":"análise espacial derivada","limitacoes":"A relação cartográfica depende da precisão e atualização das bases CANIE e CNUC e não substitui validação institucional ou de campo."}},{"type":"Feature","geometry":{"type":"Point","coordinates":[-56.802907,-20.76454901]},"properties":{"ogc_fid":216,"num_canie":"005688.00044.50.02159","nome":"Gruta Flor da Bodoquena","estado":"Mato Grosso do Sul","municipio":"Bodoquena","longitude":"-56.802907","latitude":"-20.764549","nvl_valida":"Nível 1","__atlas_fonte_oficial":"CANIE/CECAV/ICMBio","__atlas_metodo_captura":"WFS oficial ICMBio/INDE","__atlas_tipo_servico":"ICMBio:canie_052026_p","__atlas_capturado_em":"2026-08-10T12:53:17.009Z","__atlas_recorte":"Mato Grosso do Sul por atributo ou interseção com envelope estadual","__atlas_aviso":"Cadastro não representa todo o universo de cavernas e não substitui validação de campo ou autorização de visitação.","cnuc":"0000.00.0143","nome_uc":"PARQUE NACIONAL DA SERRA DA BODOQUENA","categoria_uc":"Parque Nacional","esfera_administrativa":"Federal","tipo_relacao":"ponto CANIE dentro do polígono CNUC","metodo":"teste ponto–polígono sobre snapshots locais","fonte_cavidade":"CANIE/CECAV/ICMBio · snapshot local capturado em 10/08/2026","fonte_uc":"CNUC/MMA · snapshot local capturado em 10/08/2026","data_corte":"2026-08-10","natureza_resultado":"análise espacial derivada","limitacoes":"A relação cartográfica depende da precisão e atualização das bases CANIE e CNUC e não substitui validação institucional ou de campo."}},{"type":"Feature","geometry":{"type":"Point","coordinates":[-56.802293,-20.76364101]},"properties":{"ogc_fid":217,"num_canie":"005689.00045.50.02159","nome":"Gruta da Cachoeirinha II","estado":"Mato Grosso do Sul","municipio":"Bodoquena","longitude":"-56.802293","latitude":"-20.763641","nvl_valida":"Nível 1","__atlas_fonte_oficial":"CANIE/CECAV/ICMBio","__atlas_metodo_captura":"WFS oficial ICMBio/INDE","__atlas_tipo_servico":"ICMBio:canie_052026_p","__atlas_capturado_em":"2026-08-10T12:53:17.009Z","__atlas_recorte":"Mato Grosso do Sul por atributo ou interseção com envelope estadual","__atlas_aviso":"Cadastro não representa todo o universo de cavernas e não substitui validação de campo ou autorização de visitação.","cnuc":"0000.00.0143","nome_uc":"PARQUE NACIONAL DA SERRA DA BODOQUENA","categoria_uc":"Parque Nacional","esfera_administrativa":"Federal","tipo_relacao":"ponto CANIE dentro do polígono CNUC","metodo":"teste ponto–polígono sobre snapshots locais","fonte_cavidade":"CANIE/CECAV/ICMBio · snapshot local capturado em 10/08/2026","fonte_uc":"CNUC/MMA · snapshot local capturado em 10/08/2026","data_corte":"2026-08-10","natureza_resultado":"análise espacial derivada","limitacoes":"A relação cartográfica depende da precisão e atualização das bases CANIE e CNUC e não substitui validação institucional ou de campo."}},{"type":"Feature","geometry":{"type":"Point","coordinates":[-56.801993,-20.76364101]},"properties":{"ogc_fid":218,"num_canie":"005690.00046.50.02159","nome":"Gruta da Cachoeirinha I","estado":"Mato Grosso do Sul","municipio":"Bodoquena","longitude":"-56.801993","latitude":"-20.763641","nvl_valida":"Nível 1","__atlas_fonte_oficial":"CANIE/CECAV/ICMBio","__atlas_metodo_captura":"WFS oficial ICMBio/INDE","__atlas_tipo_servico":"ICMBio:canie_052026_p","__atlas_capturado_em":"2026-08-10T12:53:17.009Z","__atlas_recorte":"Mato Grosso do Sul por atributo ou interseção com envelope estadual","__atlas_aviso":"Cadastro não representa todo o universo de cavernas e não substitui validação de campo ou autorização de visitação.","cnuc":"0000.00.0143","nome_uc":"PARQUE NACIONAL DA SERRA DA BODOQUENA","categoria_uc":"Parque Nacional","esfera_administrativa":"Federal","tipo_relacao":"ponto CANIE dentro do polígono CNUC","metodo":"teste ponto–polígono sobre snapshots locais","fonte_cavidade":"CANIE/CECAV/ICMBio · snapshot local capturado em 10/08/2026","fonte_uc":"CNUC/MMA · snapshot local capturado em 10/08/2026","data_corte":"2026-08-10","natureza_resultado":"análise espacial derivada","limitacoes":"A relação cartográfica depende da precisão e atualização das bases CANIE e CNUC e não substitui validação institucional ou de campo."}},{"type":"Feature","geometry":{"type":"Point","coordinates":[-56.796193,-20.74884101]},"properties":{"ogc_fid":223,"num_canie":"005695.00049.50.02159","nome":"Gruta do Imbé","estado":"Mato Grosso do Sul","municipio":"Bodoquena","longitude":"-56.796193","latitude":"-20.748841","nvl_valida":"Nível 1","__atlas_fonte_oficial":"CANIE/CECAV/ICMBio","__atlas_metodo_captura":"WFS oficial ICMBio/INDE","__atlas_tipo_servico":"ICMBio:canie_052026_p","__atlas_capturado_em":"2026-08-10T12:53:17.009Z","__atlas_recorte":"Mato Grosso do Sul por atributo ou interseção com envelope estadual","__atlas_aviso":"Cadastro não representa todo o universo de cavernas e não substitui validação de campo ou autorização de visitação.","cnuc":"0000.00.0143","nome_uc":"PARQUE NACIONAL DA SERRA DA BODOQUENA","categoria_uc":"Parque Nacional","esfera_administrativa":"Federal","tipo_relacao":"ponto CANIE dentro do polígono CNUC","metodo":"teste ponto–polígono sobre snapshots locais","fonte_cavidade":"CANIE/CECAV/ICMBio · snapshot local capturado em 10/08/2026","fonte_uc":"CNUC/MMA · snapshot local capturado em 10/08/2026","data_corte":"2026-08-10","natureza_resultado":"análise espacial derivada","limitacoes":"A relação cartográfica depende da precisão e atualização das bases CANIE e CNUC e não substitui validação institucional ou de campo."}},{"type":"Feature","geometry":{"type":"Point","coordinates":[-56.79538,-20.74686101]},"properties":{"ogc_fid":224,"num_canie":"005696.00050.50.02159","nome":"Abismo do Lote II","estado":"Mato Grosso do Sul","municipio":"Bodoquena","longitude":"-56.79538","latitude":"-20.746861","nvl_valida":"Nível 1","__atlas_fonte_oficial":"CANIE/CECAV/ICMBio","__atlas_metodo_captura":"WFS oficial ICMBio/INDE","__atlas_tipo_servico":"ICMBio:canie_052026_p","__atlas_capturado_em":"2026-08-10T12:53:17.009Z","__atlas_recorte":"Mato Grosso do Sul por atributo ou interseção com envelope estadual","__atlas_aviso":"Cadastro não representa todo o universo de cavernas e não substitui validação de campo ou autorização de visitação.","cnuc":"0000.00.0143","nome_uc":"PARQUE NACIONAL DA SERRA DA BODOQUENA","categoria_uc":"Parque Nacional","esfera_administrativa":"Federal","tipo_relacao":"ponto CANIE dentro do polígono CNUC","metodo":"teste ponto–polígono sobre snapshots locais","fonte_cavidade":"CANIE/CECAV/ICMBio · snapshot local capturado em 10/08/2026","fonte_uc":"CNUC/MMA · snapshot local capturado em 10/08/2026","data_corte":"2026-08-10","natureza_resultado":"análise espacial derivada","limitacoes":"A relação cartográfica depende da precisão e atualização das bases CANIE e CNUC e não substitui validação institucional ou de campo."}},{"type":"Feature","geometry":{"type":"Point","coordinates":[-56.795193,-20.74774101]},"properties":{"ogc_fid":225,"num_canie":"005697.00051.50.02159","nome":"Abismo do Lote I","estado":"Mato Grosso do Sul","municipio":"Bodoquena","longitude":"-56.795193","latitude":"-20.747741","nvl_valida":"Nível 1","__atlas_fonte_oficial":"CANIE/CECAV/ICMBio","__atlas_metodo_captura":"WFS oficial ICMBio/INDE","__atlas_tipo_servico":"ICMBio:canie_052026_p","__atlas_capturado_em":"2026-08-10T12:53:17.009Z","__atlas_recorte":"Mato Grosso do Sul por atributo ou interseção com envelope estadual","__atlas_aviso":"Cadastro não representa todo o universo de cavernas e não substitui validação de campo ou autorização de visitação.","cnuc":"0000.00.0143","nome_uc":"PARQUE NACIONAL DA SERRA DA BODOQUENA","categoria_uc":"Parque Nacional","esfera_administrativa":"Federal","tipo_relacao":"ponto CANIE dentro do polígono CNUC","metodo":"teste ponto–polígono sobre snapshots locais","fonte_cavidade":"CANIE/CECAV/ICMBio · snapshot local capturado em 10/08/2026","fonte_uc":"CNUC/MMA · snapshot local capturado em 10/08/2026","data_corte":"2026-08-10","natureza_resultado":"análise espacial derivada","limitacoes":"A relação cartográfica depende da precisão e atualização das bases CANIE e CNUC e não substitui validação institucional ou de campo."}},{"type":"Feature","geometry":{"type":"Point","coordinates":[-56.791893,-20.74734101]},"properties":{"ogc_fid":226,"num_canie":"005698.00052.50.02159","nome":"Abismo Dente de Cão","estado":"Mato Grosso do Sul","municipio":"Bodoquena","longitude":"-56.791893","latitude":"-20.747341","nvl_valida":"Nível 1","__atlas_fonte_oficial":"CANIE/CECAV/ICMBio","__atlas_metodo_captura":"WFS oficial ICMBio/INDE","__atlas_tipo_servico":"ICMBio:canie_052026_p","__atlas_capturado_em":"2026-08-10T12:53:17.009Z","__atlas_recorte":"Mato Grosso do Sul por atributo ou interseção com envelope estadual","__atlas_aviso":"Cadastro não representa todo o universo de cavernas e não substitui validação de campo ou autorização de visitação.","cnuc":"0000.00.0143","nome_uc":"PARQUE NACIONAL DA SERRA DA BODOQUENA","categoria_uc":"Parque Nacional","esfera_administrativa":"Federal","tipo_relacao":"ponto CANIE dentro do polígono CNUC","metodo":"teste ponto–polígono sobre snapshots locais","fonte_cavidade":"CANIE/CECAV/ICMBio · snapshot local capturado em 10/08/2026","fonte_uc":"CNUC/MMA · snapshot local capturado em 10/08/2026","data_corte":"2026-08-10","natureza_resultado":"análise espacial derivada","limitacoes":"A relação cartográfica depende da precisão e atualização das bases CANIE e CNUC e não substitui validação institucional ou de campo."}},{"type":"Feature","geometry":{"type":"Point","coordinates":[-56.791192,-20.68854101]},"properties":{"ogc_fid":227,"num_canie":"005699.00053.50.02159","nome":"Gruta do Vertedouro","estado":"Mato Grosso do Sul","municipio":"Bodoquena","longitude":"-56.791192","latitude":"-20.688541","nvl_valida":"Nível 1","__atlas_fonte_oficial":"CANIE/CECAV/ICMBio","__atlas_metodo_captura":"WFS oficial ICMBio/INDE","__atlas_tipo_servico":"ICMBio:canie_052026_p","__atlas_capturado_em":"2026-08-10T12:53:17.009Z","__atlas_recorte":"Mato Grosso do Sul por atributo ou interseção com envelope estadual","__atlas_aviso":"Cadastro não representa todo o universo de cavernas e não substitui validação de campo ou autorização de visitação.","cnuc":"0000.00.0143","nome_uc":"PARQUE NACIONAL DA SERRA DA BODOQUENA","categoria_uc":"Parque Nacional","esfera_administrativa":"Federal","tipo_relacao":"ponto CANIE dentro do polígono CNUC","metodo":"teste ponto–polígono sobre snapshots locais","fonte_cavidade":"CANIE/CECAV/ICMBio · snapshot local capturado em 10/08/2026","fonte_uc":"CNUC/MMA · snapshot local capturado em 10/08/2026","data_corte":"2026-08-10","natureza_resultado":"análise espacial derivada","limitacoes":"A relação cartográfica depende da precisão e atualização das bases CANIE e CNUC e não substitui validação institucional ou de campo."}},{"type":"Feature","geometry":{"type":"Point","coordinates":[-56.791192,-20.68164101]},"properties":{"ogc_fid":228,"num_canie":"005700.00054.50.02159","nome":"Caverna Córrego Santa Maria I","estado":"Mato Grosso do Sul","municipio":"Bodoquena","longitude":"-56.791192","latitude":"-20.681641","nvl_valida":"Nível 1","__atlas_fonte_oficial":"CANIE/CECAV/ICMBio","__atlas_metodo_captura":"WFS oficial ICMBio/INDE","__atlas_tipo_servico":"ICMBio:canie_052026_p","__atlas_capturado_em":"2026-08-10T12:53:17.009Z","__atlas_recorte":"Mato Grosso do Sul por atributo ou interseção com envelope estadual","__atlas_aviso":"Cadastro não representa todo o universo de cavernas e não substitui validação de campo ou autorização de visitação.","cnuc":"0000.00.0143","nome_uc":"PARQUE NACIONAL DA SERRA DA BODOQUENA","categoria_uc":"Parque Nacional","esfera_administrativa":"Federal","tipo_relacao":"ponto CANIE dentro do polígono CNUC","metodo":"teste ponto–polígono sobre snapshots locais","fonte_cavidade":"CANIE/CECAV/ICMBio · snapshot local capturado em 10/08/2026","fonte_uc":"CNUC/MMA · snapshot local capturado em 10/08/2026","data_corte":"2026-08-10","natureza_resultado":"análise espacial derivada","limitacoes":"A relação cartográfica depende da precisão e atualização das bases CANIE e CNUC e não substitui validação institucional ou de campo."}},{"type":"Feature","geometry":{"type":"Point","coordinates":[-56.790692,-20.68184101]},"properties":{"ogc_fid":229,"num_canie":"005701.00055.50.02159","nome":"Caverna Córrego Santa Maria II","estado":"Mato Grosso do Sul","municipio":"Bodoquena","longitude":"-56.790692","latitude":"-20.681841","nvl_valida":"Nível 1","__atlas_fonte_oficial":"CANIE/CECAV/ICMBio","__atlas_metodo_captura":"WFS oficial ICMBio/INDE","__atlas_tipo_servico":"ICMBio:canie_052026_p","__atlas_capturado_em":"2026-08-10T12:53:17.009Z","__atlas_recorte":"Mato Grosso do Sul por atributo ou interseção com envelope estadual","__atlas_aviso":"Cadastro não representa todo o universo de cavernas e não substitui validação de campo ou autorização de visitação.","cnuc":"0000.00.0143","nome_uc":"PARQUE NACIONAL DA SERRA DA BODOQUENA","categoria_uc":"Parque Nacional","esfera_administrativa":"Federal","tipo_relacao":"ponto CANIE dentro do polígono CNUC","metodo":"teste ponto–polígono sobre snapshots locais","fonte_cavidade":"CANIE/CECAV/ICMBio · snapshot local capturado em 10/08/2026","fonte_uc":"CNUC/MMA · snapshot local capturado em 10/08/2026","data_corte":"2026-08-10","natureza_resultado":"análise espacial derivada","limitacoes":"A relação cartográfica depende da precisão e atualização das bases CANIE e CNUC e não substitui validação institucional ou de campo."}},{"type":"Feature","geometry":{"type":"Point","coordinates":[-56.77558,-21.42827501]},"properties":{"ogc_fid":243,"num_canie":"005715.00067.50.06903","nome":"Gruta do Bezerro","estado":"Mato Grosso do Sul","municipio":"Porto Murtinho","longitude":"-56.77558","latitude":"-21.428275","nvl_valida":"Nível 1","__atlas_fonte_oficial":"CANIE/CECAV/ICMBio","__atlas_metodo_captura":"WFS oficial ICMBio/INDE","__atlas_tipo_servico":"ICMBio:canie_052026_p","__atlas_capturado_em":"2026-08-10T12:53:17.009Z","__atlas_recorte":"Mato Grosso do Sul por atributo ou interseção com envelope estadual","__atlas_aviso":"Cadastro não representa todo o universo de cavernas e não substitui validação de campo ou autorização de visitação.","cnuc":"0000.00.0143","nome_uc":"PARQUE NACIONAL DA SERRA DA BODOQUENA","categoria_uc":"Parque Nacional","esfera_administrativa":"Federal","tipo_relacao":"ponto CANIE dentro do polígono CNUC","metodo":"teste ponto–polígono sobre snapshots locais","fonte_cavidade":"CANIE/CECAV/ICMBio · snapshot local capturado em 10/08/2026","fonte_uc":"CNUC/MMA · snapshot local capturado em 10/08/2026","data_corte":"2026-08-10","natureza_resultado":"análise espacial derivada","limitacoes":"A relação cartográfica depende da precisão e atualização das bases CANIE e CNUC e não substitui validação institucional ou de campo."}},{"type":"Feature","geometry":{"type":"Point","coordinates":[-56.773186,-20.75615901]},"properties":{"ogc_fid":246,"num_canie":"005718.00069.50.02159","nome":"Gruta do Bacuri","estado":"Mato Grosso do Sul","municipio":"Bodoquena","longitude":"-56.773186","latitude":"-20.756159","nvl_valida":"Nível 1","__atlas_fonte_oficial":"CANIE/CECAV/ICMBio","__atlas_metodo_captura":"WFS oficial ICMBio/INDE","__atlas_tipo_servico":"ICMBio:canie_052026_p","__atlas_capturado_em":"2026-08-10T12:53:17.009Z","__atlas_recorte":"Mato Grosso do Sul por atributo ou interseção com envelope estadual","__atlas_aviso":"Cadastro não representa todo o universo de cavernas e não substitui validação de campo ou autorização de visitação.","cnuc":"0000.00.0143","nome_uc":"PARQUE NACIONAL DA SERRA DA BODOQUENA","categoria_uc":"Parque Nacional","esfera_administrativa":"Federal","tipo_relacao":"ponto CANIE dentro do polígono CNUC","metodo":"teste ponto–polígono sobre snapshots locais","fonte_cavidade":"CANIE/CECAV/ICMBio · snapshot local capturado em 10/08/2026","fonte_uc":"CNUC/MMA · snapshot local capturado em 10/08/2026","data_corte":"2026-08-10","natureza_resultado":"análise espacial derivada","limitacoes":"A relação cartográfica depende da precisão e atualização das bases CANIE e CNUC e não substitui validação institucional ou de campo."}},{"type":"Feature","geometry":{"type":"Point","coordinates":[-56.768395,-21.42904301]},"properties":{"ogc_fid":252,"num_canie":"005724.00075.50.06903","nome":"Gruta da Ponte de Pedra","estado":"Mato Grosso do Sul","municipio":"Porto Murtinho","longitude":"-56.768395","latitude":"-21.429043","nvl_valida":"Nível 1","__atlas_fonte_oficial":"CANIE/CECAV/ICMBio","__atlas_metodo_captura":"WFS oficial ICMBio/INDE","__atlas_tipo_servico":"ICMBio:canie_052026_p","__atlas_capturado_em":"2026-08-10T12:53:17.009Z","__atlas_recorte":"Mato Grosso do Sul por atributo ou interseção com envelope estadual","__atlas_aviso":"Cadastro não representa todo o universo de cavernas e não substitui validação de campo ou autorização de visitação.","cnuc":"0000.00.0143","nome_uc":"PARQUE NACIONAL DA SERRA DA BODOQUENA","categoria_uc":"Parque Nacional","esfera_administrativa":"Federal","tipo_relacao":"ponto CANIE dentro do polígono CNUC","metodo":"teste ponto–polígono sobre snapshots locais","fonte_cavidade":"CANIE/CECAV/ICMBio · snapshot local capturado em 10/08/2026","fonte_uc":"CNUC/MMA · snapshot local capturado em 10/08/2026","data_corte":"2026-08-10","natureza_resultado":"análise espacial derivada","limitacoes":"A relação cartográfica depende da precisão e atualização das bases CANIE e CNUC e não substitui validação institucional ou de campo."}},{"type":"Feature","geometry":{"type":"Point","coordinates":[-56.757563,-21.49308601]},"properties":{"ogc_fid":259,"num_canie":"005731.00082.50.05004","nome":"Gruta da Onça","estado":"Mato Grosso do Sul","municipio":"Jardim","longitude":"-56.757563","latitude":"-21.493086","nvl_valida":"Nível 1","__atlas_fonte_oficial":"CANIE/CECAV/ICMBio","__atlas_metodo_captura":"WFS oficial ICMBio/INDE","__atlas_tipo_servico":"ICMBio:canie_052026_p","__atlas_capturado_em":"2026-08-10T12:53:17.009Z","__atlas_recorte":"Mato Grosso do Sul por atributo ou interseção com envelope estadual","__atlas_aviso":"Cadastro não representa todo o universo de cavernas e não substitui validação de campo ou autorização de visitação.","cnuc":"0000.00.0143","nome_uc":"PARQUE NACIONAL DA SERRA DA BODOQUENA","categoria_uc":"Parque Nacional","esfera_administrativa":"Federal","tipo_relacao":"ponto CANIE dentro do polígono CNUC","metodo":"teste ponto–polígono sobre snapshots locais","fonte_cavidade":"CANIE/CECAV/ICMBio · snapshot local capturado em 10/08/2026","fonte_uc":"CNUC/MMA · snapshot local capturado em 10/08/2026","data_corte":"2026-08-10","natureza_resultado":"análise espacial derivada","limitacoes":"A relação cartográfica depende da precisão e atualização das bases CANIE e CNUC e não substitui validação institucional ou de campo."}},{"type":"Feature","geometry":{"type":"Point","coordinates":[-56.756687,-21.22842601]},"properties":{"ogc_fid":261,"num_canie":"005733.00084.50.06903","nome":"Abismo da Lagoa","estado":"Mato Grosso do Sul","municipio":"Porto Murtinho","longitude":"-56.756687","latitude":"-21.228426","nvl_valida":"Nível 1","__atlas_fonte_oficial":"CANIE/CECAV/ICMBio","__atlas_metodo_captura":"WFS oficial ICMBio/INDE","__atlas_tipo_servico":"ICMBio:canie_052026_p","__atlas_capturado_em":"2026-08-10T12:53:17.009Z","__atlas_recorte":"Mato Grosso do Sul por atributo ou interseção com envelope estadual","__atlas_aviso":"Cadastro não representa todo o universo de cavernas e não substitui validação de campo ou autorização de visitação.","cnuc":"0000.00.0143","nome_uc":"PARQUE NACIONAL DA SERRA DA BODOQUENA","categoria_uc":"Parque Nacional","esfera_administrativa":"Federal","tipo_relacao":"ponto CANIE dentro do polígono CNUC","metodo":"teste ponto–polígono sobre snapshots locais","fonte_cavidade":"CANIE/CECAV/ICMBio · snapshot local capturado em 10/08/2026","fonte_uc":"CNUC/MMA · snapshot local capturado em 10/08/2026","data_corte":"2026-08-10","natureza_resultado":"análise espacial derivada","limitacoes":"A relação cartográfica depende da precisão e atualização das bases CANIE e CNUC e não substitui validação institucional ou de campo."}},{"type":"Feature","geometry":{"type":"Point","coordinates":[-56.749647,-20.77264101]},"properties":{"ogc_fid":270,"num_canie":"005742.00089.50.02159","nome":"Caverna do Morro do Jericó","estado":"Mato Grosso do Sul","municipio":"Bodoquena","longitude":"-56.749647","latitude":"-20.772641","nvl_valida":"Nível 1","__atlas_fonte_oficial":"CANIE/CECAV/ICMBio","__atlas_metodo_captura":"WFS oficial ICMBio/INDE","__atlas_tipo_servico":"ICMBio:canie_052026_p","__atlas_capturado_em":"2026-08-10T12:53:17.009Z","__atlas_recorte":"Mato Grosso do Sul por atributo ou interseção com envelope estadual","__atlas_aviso":"Cadastro não representa todo o universo de cavernas e não substitui validação de campo ou autorização de visitação.","cnuc":"0000.00.0143","nome_uc":"PARQUE NACIONAL DA SERRA DA BODOQUENA","categoria_uc":"Parque Nacional","esfera_administrativa":"Federal","tipo_relacao":"ponto CANIE dentro do polígono CNUC","metodo":"teste ponto–polígono sobre snapshots locais","fonte_cavidade":"CANIE/CECAV/ICMBio · snapshot local capturado em 10/08/2026","fonte_uc":"CNUC/MMA · snapshot local capturado em 10/08/2026","data_corte":"2026-08-10","natureza_resultado":"análise espacial derivada","limitacoes":"A relação cartográfica depende da precisão e atualização das bases CANIE e CNUC e não substitui validação institucional ou de campo."}},{"type":"Feature","geometry":{"type":"Point","coordinates":[-56.748192,-20.77874201]},"properties":{"ogc_fid":271,"num_canie":"005743.00090.50.02159","nome":"Caverna Paredão do Salobra","estado":"Mato Grosso do Sul","municipio":"Bodoquena","longitude":"-56.748192","latitude":"-20.778742","nvl_valida":"Nível 1","__atlas_fonte_oficial":"CANIE/CECAV/ICMBio","__atlas_metodo_captura":"WFS oficial ICMBio/INDE","__atlas_tipo_servico":"ICMBio:canie_052026_p","__atlas_capturado_em":"2026-08-10T12:53:17.009Z","__atlas_recorte":"Mato Grosso do Sul por atributo ou interseção com envelope estadual","__atlas_aviso":"Cadastro não representa todo o universo de cavernas e não substitui validação de campo ou autorização de visitação.","cnuc":"0000.00.0143","nome_uc":"PARQUE NACIONAL DA SERRA DA BODOQUENA","categoria_uc":"Parque Nacional","esfera_administrativa":"Federal","tipo_relacao":"ponto CANIE dentro do polígono CNUC","metodo":"teste ponto–polígono sobre snapshots locais","fonte_cavidade":"CANIE/CECAV/ICMBio · snapshot local capturado em 10/08/2026","fonte_uc":"CNUC/MMA · snapshot local capturado em 10/08/2026","data_corte":"2026-08-10","natureza_resultado":"análise espacial derivada","limitacoes":"A relação cartográfica depende da precisão e atualização das bases CANIE e CNUC e não substitui validação institucional ou de campo."}},{"type":"Feature","geometry":{"type":"Point","coordinates":[-56.744575,-21.42297301]},"properties":{"ogc_fid":272,"num_canie":"005744.00091.50.06903","nome":"Gruta do Panelão","estado":"Mato Grosso do Sul","municipio":"Porto Murtinho","longitude":"-56.744575","latitude":"-21.422973","nvl_valida":"Nível 1","__atlas_fonte_oficial":"CANIE/CECAV/ICMBio","__atlas_metodo_captura":"WFS oficial ICMBio/INDE","__atlas_tipo_servico":"ICMBio:canie_052026_p","__atlas_capturado_em":"2026-08-10T12:53:17.009Z","__atlas_recorte":"Mato Grosso do Sul por atributo ou interseção com envelope estadual","__atlas_aviso":"Cadastro não representa todo o universo de cavernas e não substitui validação de campo ou autorização de visitação.","cnuc":"0000.00.0143","nome_uc":"PARQUE NACIONAL DA SERRA DA BODOQUENA","categoria_uc":"Parque Nacional","esfera_administrativa":"Federal","tipo_relacao":"ponto CANIE dentro do polígono CNUC","metodo":"teste ponto–polígono sobre snapshots locais","fonte_cavidade":"CANIE/CECAV/ICMBio · snapshot local capturado em 10/08/2026","fonte_uc":"CNUC/MMA · snapshot local capturado em 10/08/2026","data_corte":"2026-08-10","natureza_resultado":"análise espacial derivada","limitacoes":"A relação cartográfica depende da precisão e atualização das bases CANIE e CNUC e não substitui validação institucional ou de campo."}},{"type":"Feature","geometry":{"type":"Point","coordinates":[-56.741162,-21.43207501]},"properties":{"ogc_fid":273,"num_canie":"005745.00092.50.06903","nome":"Gruta Aroeirinha I","estado":"Mato Grosso do Sul","municipio":"Porto Murtinho","longitude":"-56.741162","latitude":"-21.432075","nvl_valida":"Nível 1","__atlas_fonte_oficial":"CANIE/CECAV/ICMBio","__atlas_metodo_captura":"WFS oficial ICMBio/INDE","__atlas_tipo_servico":"ICMBio:canie_052026_p","__atlas_capturado_em":"2026-08-10T12:53:17.009Z","__atlas_recorte":"Mato Grosso do Sul por atributo ou interseção com envelope estadual","__atlas_aviso":"Cadastro não representa todo o universo de cavernas e não substitui validação de campo ou autorização de visitação.","cnuc":"0000.00.0143","nome_uc":"PARQUE NACIONAL DA SERRA DA BODOQUENA","categoria_uc":"Parque Nacional","esfera_administrativa":"Federal","tipo_relacao":"ponto CANIE dentro do polígono CNUC","metodo":"teste ponto–polígono sobre snapshots locais","fonte_cavidade":"CANIE/CECAV/ICMBio · snapshot local capturado em 10/08/2026","fonte_uc":"CNUC/MMA · snapshot local capturado em 10/08/2026","data_corte":"2026-08-10","natureza_resultado":"análise espacial derivada","limitacoes":"A relação cartográfica depende da precisão e atualização das bases CANIE e CNUC e não substitui validação institucional ou de campo."}},{"type":"Feature","geometry":{"type":"Point","coordinates":[-56.740967,-21.43358301]},"properties":{"ogc_fid":274,"num_canie":"005746.00093.50.06903","nome":"Abismo da Aroeirinha","estado":"Mato Grosso do Sul","municipio":"Porto Murtinho","longitude":"-56.740967","latitude":"-21.433583","nvl_valida":"Nível 1","__atlas_fonte_oficial":"CANIE/CECAV/ICMBio","__atlas_metodo_captura":"WFS oficial ICMBio/INDE","__atlas_tipo_servico":"ICMBio:canie_052026_p","__atlas_capturado_em":"2026-08-10T12:53:17.009Z","__atlas_recorte":"Mato Grosso do Sul por atributo ou interseção com envelope estadual","__atlas_aviso":"Cadastro não representa todo o universo de cavernas e não substitui validação de campo ou autorização de visitação.","cnuc":"0000.00.0143","nome_uc":"PARQUE NACIONAL DA SERRA DA BODOQUENA","categoria_uc":"Parque Nacional","esfera_administrativa":"Federal","tipo_relacao":"ponto CANIE dentro do polígono CNUC","metodo":"teste ponto–polígono sobre snapshots locais","fonte_cavidade":"CANIE/CECAV/ICMBio · snapshot local capturado em 10/08/2026","fonte_uc":"CNUC/MMA · snapshot local capturado em 10/08/2026","data_corte":"2026-08-10","natureza_resultado":"análise espacial derivada","limitacoes":"A relação cartográfica depende da precisão e atualização das bases CANIE e CNUC e não substitui validação institucional ou de campo."}},{"type":"Feature","geometry":{"type":"Point","coordinates":[-56.739804,-21.43085301]},"properties":{"ogc_fid":275,"num_canie":"005747.00094.50.06903","nome":"Gruta Aroeirinha II","estado":"Mato Grosso do Sul","municipio":"Porto Murtinho","longitude":"-56.739804","latitude":"-21.430853","nvl_valida":"Nível 1","__atlas_fonte_oficial":"CANIE/CECAV/ICMBio","__atlas_metodo_captura":"WFS oficial ICMBio/INDE","__atlas_tipo_servico":"ICMBio:canie_052026_p","__atlas_capturado_em":"2026-08-10T12:53:17.009Z","__atlas_recorte":"Mato Grosso do Sul por atributo ou interseção com envelope estadual","__atlas_aviso":"Cadastro não representa todo o universo de cavernas e não substitui validação de campo ou autorização de visitação.","cnuc":"0000.00.0143","nome_uc":"PARQUE NACIONAL DA SERRA DA BODOQUENA","categoria_uc":"Parque Nacional","esfera_administrativa":"Federal","tipo_relacao":"ponto CANIE dentro do polígono CNUC","metodo":"teste ponto–polígono sobre snapshots locais","fonte_cavidade":"CANIE/CECAV/ICMBio · snapshot local capturado em 10/08/2026","fonte_uc":"CNUC/MMA · snapshot local capturado em 10/08/2026","data_corte":"2026-08-10","natureza_resultado":"análise espacial derivada","limitacoes":"A relação cartográfica depende da precisão e atualização das bases CANIE e CNUC e não substitui validação institucional ou de campo."}},{"type":"Feature","geometry":{"type":"Point","coordinates":[-56.724351,-21.48783901]},"properties":{"ogc_fid":295,"num_canie":"005768.00115.50.05004","nome":"Buraco das Abelhas","estado":"Mato Grosso do Sul","municipio":"Jardim","longitude":"-56.724351","latitude":"-21.487839","nvl_valida":"Nível 1","__atlas_fonte_oficial":"CANIE/CECAV/ICMBio","__atlas_metodo_captura":"WFS oficial ICMBio/INDE","__atlas_tipo_servico":"ICMBio:canie_052026_p","__atlas_capturado_em":"2026-08-10T12:53:17.009Z","__atlas_recorte":"Mato Grosso do Sul por atributo ou interseção com envelope estadual","__atlas_aviso":"Cadastro não representa todo o universo de cavernas e não substitui validação de campo ou autorização de visitação.","cnuc":"0000.00.0143","nome_uc":"PARQUE NACIONAL DA SERRA DA BODOQUENA","categoria_uc":"Parque Nacional","esfera_administrativa":"Federal","tipo_relacao":"ponto CANIE dentro do polígono CNUC","metodo":"teste ponto–polígono sobre snapshots locais","fonte_cavidade":"CANIE/CECAV/ICMBio · snapshot local capturado em 10/08/2026","fonte_uc":"CNUC/MMA · snapshot local capturado em 10/08/2026","data_corte":"2026-08-10","natureza_resultado":"análise espacial derivada","limitacoes":"A relação cartográfica depende da precisão e atualização das bases CANIE e CNUC e não substitui validação institucional ou de campo."}},{"type":"Feature","geometry":{"type":"Point","coordinates":[-56.720685,-21.12042501]},"properties":{"ogc_fid":309,"num_canie":"005782.00129.50.02209","nome":"Sumidouro Fazenda Boqueirão","estado":"Mato Grosso do Sul","municipio":"Bonito","longitude":"-56.720685","latitude":"-21.120425","nvl_valida":"Nível 1","__atlas_fonte_oficial":"CANIE/CECAV/ICMBio","__atlas_metodo_captura":"WFS oficial ICMBio/INDE","__atlas_tipo_servico":"ICMBio:canie_052026_p","__atlas_capturado_em":"2026-08-10T12:53:17.009Z","__atlas_recorte":"Mato Grosso do Sul por atributo ou interseção com envelope estadual","__atlas_aviso":"Cadastro não representa todo o universo de cavernas e não substitui validação de campo ou autorização de visitação.","cnuc":"0000.00.0143","nome_uc":"PARQUE NACIONAL DA SERRA DA BODOQUENA","categoria_uc":"Parque Nacional","esfera_administrativa":"Federal","tipo_relacao":"ponto CANIE dentro do polígono CNUC","metodo":"teste ponto–polígono sobre snapshots locais","fonte_cavidade":"CANIE/CECAV/ICMBio · snapshot local capturado em 10/08/2026","fonte_uc":"CNUC/MMA · snapshot local capturado em 10/08/2026","data_corte":"2026-08-10","natureza_resultado":"análise espacial derivada","limitacoes":"A relação cartográfica depende da precisão e atualização das bases CANIE e CNUC e não substitui validação institucional ou de campo."}},{"type":"Feature","geometry":{"type":"Point","coordinates":[-56.720685,-21.12039801]},"properties":{"ogc_fid":310,"num_canie":"005783.00130.50.02209","nome":"Sumidouro do Rio Perdido","estado":"Mato Grosso do Sul","municipio":"Bonito","longitude":"-56.720685","latitude":"-21.120398","nvl_valida":"Nível 1","__atlas_fonte_oficial":"CANIE/CECAV/ICMBio","__atlas_metodo_captura":"WFS oficial ICMBio/INDE","__atlas_tipo_servico":"ICMBio:canie_052026_p","__atlas_capturado_em":"2026-08-10T12:53:17.009Z","__atlas_recorte":"Mato Grosso do Sul por atributo ou interseção com envelope estadual","__atlas_aviso":"Cadastro não representa todo o universo de cavernas e não substitui validação de campo ou autorização de visitação.","cnuc":"0000.00.0143","nome_uc":"PARQUE NACIONAL DA SERRA DA BODOQUENA","categoria_uc":"Parque Nacional","esfera_administrativa":"Federal","tipo_relacao":"ponto CANIE dentro do polígono CNUC","metodo":"teste ponto–polígono sobre snapshots locais","fonte_cavidade":"CANIE/CECAV/ICMBio · snapshot local capturado em 10/08/2026","fonte_uc":"CNUC/MMA · snapshot local capturado em 10/08/2026","data_corte":"2026-08-10","natureza_resultado":"análise espacial derivada","limitacoes":"A relação cartográfica depende da precisão e atualização das bases CANIE e CNUC e não substitui validação institucional ou de campo."}},{"type":"Feature","geometry":{"type":"Point","coordinates":[-56.719693,-21.12674201]},"properties":{"ogc_fid":314,"num_canie":"005787.00134.50.02209","nome":"Abismo da Fazenda Boqueirão II","estado":"Mato Grosso do Sul","municipio":"Bonito","longitude":"-56.719693","latitude":"-21.126742","nvl_valida":"Nível 1","__atlas_fonte_oficial":"CANIE/CECAV/ICMBio","__atlas_metodo_captura":"WFS oficial ICMBio/INDE","__atlas_tipo_servico":"ICMBio:canie_052026_p","__atlas_capturado_em":"2026-08-10T12:53:17.009Z","__atlas_recorte":"Mato Grosso do Sul por atributo ou interseção com envelope estadual","__atlas_aviso":"Cadastro não representa todo o universo de cavernas e não substitui validação de campo ou autorização de visitação.","cnuc":"0000.00.0143","nome_uc":"PARQUE NACIONAL DA SERRA DA BODOQUENA","categoria_uc":"Parque Nacional","esfera_administrativa":"Federal","tipo_relacao":"ponto CANIE dentro do polígono CNUC","metodo":"teste ponto–polígono sobre snapshots locais","fonte_cavidade":"CANIE/CECAV/ICMBio · snapshot local capturado em 10/08/2026","fonte_uc":"CNUC/MMA · snapshot local capturado em 10/08/2026","data_corte":"2026-08-10","natureza_resultado":"análise espacial derivada","limitacoes":"A relação cartográfica depende da precisão e atualização das bases CANIE e CNUC e não substitui validação institucional ou de campo."}},{"type":"Feature","geometry":{"type":"Point","coordinates":[-56.718519,-21.25786701]},"properties":{"ogc_fid":316,"num_canie":"005789.00136.50.06903","nome":"Gruta Harmonia IV","estado":"Mato Grosso do Sul","municipio":"Porto Murtinho","longitude":"-56.718519","latitude":"-21.257867","nvl_valida":"Nível 1","__atlas_fonte_oficial":"CANIE/CECAV/ICMBio","__atlas_metodo_captura":"WFS oficial ICMBio/INDE","__atlas_tipo_servico":"ICMBio:canie_052026_p","__atlas_capturado_em":"2026-08-10T12:53:17.009Z","__atlas_recorte":"Mato Grosso do Sul por atributo ou interseção com envelope estadual","__atlas_aviso":"Cadastro não representa todo o universo de cavernas e não substitui validação de campo ou autorização de visitação.","cnuc":"0000.00.0143","nome_uc":"PARQUE NACIONAL DA SERRA DA BODOQUENA","categoria_uc":"Parque Nacional","esfera_administrativa":"Federal","tipo_relacao":"ponto CANIE dentro do polígono CNUC","metodo":"teste ponto–polígono sobre snapshots locais","fonte_cavidade":"CANIE/CECAV/ICMBio · snapshot local capturado em 10/08/2026","fonte_uc":"CNUC/MMA · snapshot local capturado em 10/08/2026","data_corte":"2026-08-10","natureza_resultado":"análise espacial derivada","limitacoes":"A relação cartográfica depende da precisão e atualização das bases CANIE e CNUC e não substitui validação institucional ou de campo."}},{"type":"Feature","geometry":{"type":"Point","coordinates":[-56.716194,-21.28044301]},"properties":{"ogc_fid":322,"num_canie":"005795.00142.50.06903","nome":"Abismo da Fazenda Harmonia I","estado":"Mato Grosso do Sul","municipio":"Porto Murtinho","longitude":"-56.716194","latitude":"-21.280443","nvl_valida":"Nível 1","__atlas_fonte_oficial":"CANIE/CECAV/ICMBio","__atlas_metodo_captura":"WFS oficial ICMBio/INDE","__atlas_tipo_servico":"ICMBio:canie_052026_p","__atlas_capturado_em":"2026-08-10T12:53:17.009Z","__atlas_recorte":"Mato Grosso do Sul por atributo ou interseção com envelope estadual","__atlas_aviso":"Cadastro não representa todo o universo de cavernas e não substitui validação de campo ou autorização de visitação.","cnuc":"0000.00.0143","nome_uc":"PARQUE NACIONAL DA SERRA DA BODOQUENA","categoria_uc":"Parque Nacional","esfera_administrativa":"Federal","tipo_relacao":"ponto CANIE dentro do polígono CNUC","metodo":"teste ponto–polígono sobre snapshots locais","fonte_cavidade":"CANIE/CECAV/ICMBio · snapshot local capturado em 10/08/2026","fonte_uc":"CNUC/MMA · snapshot local capturado em 10/08/2026","data_corte":"2026-08-10","natureza_resultado":"análise espacial derivada","limitacoes":"A relação cartográfica depende da precisão e atualização das bases CANIE e CNUC e não substitui validação institucional ou de campo."}},{"type":"Feature","geometry":{"type":"Point","coordinates":[-56.704593,-21.13054201]},"properties":{"ogc_fid":331,"num_canie":"005804.00151.50.02209","nome":"Caverna Fazenda Boqueirão I","estado":"Mato Grosso do Sul","municipio":"Bonito","longitude":"-56.704593","latitude":"-21.130542","nvl_valida":"Nível 1","__atlas_fonte_oficial":"CANIE/CECAV/ICMBio","__atlas_metodo_captura":"WFS oficial ICMBio/INDE","__atlas_tipo_servico":"ICMBio:canie_052026_p","__atlas_capturado_em":"2026-08-10T12:53:17.009Z","__atlas_recorte":"Mato Grosso do Sul por atributo ou interseção com envelope estadual","__atlas_aviso":"Cadastro não representa todo o universo de cavernas e não substitui validação de campo ou autorização de visitação.","cnuc":"0000.00.0143","nome_uc":"PARQUE NACIONAL DA SERRA DA BODOQUENA","categoria_uc":"Parque Nacional","esfera_administrativa":"Federal","tipo_relacao":"ponto CANIE dentro do polígono CNUC","metodo":"teste ponto–polígono sobre snapshots locais","fonte_cavidade":"CANIE/CECAV/ICMBio · snapshot local capturado em 10/08/2026","fonte_uc":"CNUC/MMA · snapshot local capturado em 10/08/2026","data_corte":"2026-08-10","natureza_resultado":"análise espacial derivada","limitacoes":"A relação cartográfica depende da precisão e atualização das bases CANIE e CNUC e não substitui validação institucional ou de campo."}},{"type":"Feature","geometry":{"type":"Point","coordinates":[-56.703093,-21.13524201]},"properties":{"ogc_fid":333,"num_canie":"005806.00153.50.02209","nome":"Abismo da Fazenda Boqueirão I","estado":"Mato Grosso do Sul","municipio":"Bonito","longitude":"-56.703093","latitude":"-21.135242","nvl_valida":"Nível 1","__atlas_fonte_oficial":"CANIE/CECAV/ICMBio","__atlas_metodo_captura":"WFS oficial ICMBio/INDE","__atlas_tipo_servico":"ICMBio:canie_052026_p","__atlas_capturado_em":"2026-08-10T12:53:17.009Z","__atlas_recorte":"Mato Grosso do Sul por atributo ou interseção com envelope estadual","__atlas_aviso":"Cadastro não representa todo o universo de cavernas e não substitui validação de campo ou autorização de visitação.","cnuc":"0000.00.0143","nome_uc":"PARQUE NACIONAL DA SERRA DA BODOQUENA","categoria_uc":"Parque Nacional","esfera_administrativa":"Federal","tipo_relacao":"ponto CANIE dentro do polígono CNUC","metodo":"teste ponto–polígono sobre snapshots locais","fonte_cavidade":"CANIE/CECAV/ICMBio · snapshot local capturado em 10/08/2026","fonte_uc":"CNUC/MMA · snapshot local capturado em 10/08/2026","data_corte":"2026-08-10","natureza_resultado":"análise espacial derivada","limitacoes":"A relação cartográfica depende da precisão e atualização das bases CANIE e CNUC e não substitui validação institucional ou de campo."}},{"type":"Feature","geometry":{"type":"Point","coordinates":[-56.701384,-21.09345701]},"properties":{"ogc_fid":336,"num_canie":"005809.00154.50.02209","nome":"Abismo III","estado":"Mato Grosso do Sul","municipio":"Bonito","longitude":"-56.701384","latitude":"-21.093457","nvl_valida":"Nível 1","__atlas_fonte_oficial":"CANIE/CECAV/ICMBio","__atlas_metodo_captura":"WFS oficial ICMBio/INDE","__atlas_tipo_servico":"ICMBio:canie_052026_p","__atlas_capturado_em":"2026-08-10T12:53:17.009Z","__atlas_recorte":"Mato Grosso do Sul por atributo ou interseção com envelope estadual","__atlas_aviso":"Cadastro não representa todo o universo de cavernas e não substitui validação de campo ou autorização de visitação.","cnuc":"0000.00.0143","nome_uc":"PARQUE NACIONAL DA SERRA DA BODOQUENA","categoria_uc":"Parque Nacional","esfera_administrativa":"Federal","tipo_relacao":"ponto CANIE dentro do polígono CNUC","metodo":"teste ponto–polígono sobre snapshots locais","fonte_cavidade":"CANIE/CECAV/ICMBio · snapshot local capturado em 10/08/2026","fonte_uc":"CNUC/MMA · snapshot local capturado em 10/08/2026","data_corte":"2026-08-10","natureza_resultado":"análise espacial derivada","limitacoes":"A relação cartográfica depende da precisão e atualização das bases CANIE e CNUC e não substitui validação institucional ou de campo."}},{"type":"Feature","geometry":{"type":"Point","coordinates":[-56.701215,-21.17762201]},"properties":{"ogc_fid":337,"num_canie":"005810.00155.50.02209","nome":"Abismo Reverendo Moon","estado":"Mato Grosso do Sul","municipio":"Bonito","longitude":"-56.701215","latitude":"-21.177622","nvl_valida":"Nível 1","__atlas_fonte_oficial":"CANIE/CECAV/ICMBio","__atlas_metodo_captura":"WFS oficial ICMBio/INDE","__atlas_tipo_servico":"ICMBio:canie_052026_p","__atlas_capturado_em":"2026-08-10T12:53:17.009Z","__atlas_recorte":"Mato Grosso do Sul por atributo ou interseção com envelope estadual","__atlas_aviso":"Cadastro não representa todo o universo de cavernas e não substitui validação de campo ou autorização de visitação.","cnuc":"0000.00.0143","nome_uc":"PARQUE NACIONAL DA SERRA DA BODOQUENA","categoria_uc":"Parque Nacional","esfera_administrativa":"Federal","tipo_relacao":"ponto CANIE dentro do polígono CNUC","metodo":"teste ponto–polígono sobre snapshots locais","fonte_cavidade":"CANIE/CECAV/ICMBio · snapshot local capturado em 10/08/2026","fonte_uc":"CNUC/MMA · snapshot local capturado em 10/08/2026","data_corte":"2026-08-10","natureza_resultado":"análise espacial derivada","limitacoes":"A relação cartográfica depende da precisão e atualização das bases CANIE e CNUC e não substitui validação institucional ou de campo."}},{"type":"Feature","geometry":{"type":"Point","coordinates":[-56.701093,-21.09484201]},"properties":{"ogc_fid":338,"num_canie":"005811.00156.50.02209","nome":"Abismo II (Sem denominação)","estado":"Mato Grosso do Sul","municipio":"Bonito","longitude":"-56.701093","latitude":"-21.094842","nvl_valida":"Nível 1","__atlas_fonte_oficial":"CANIE/CECAV/ICMBio","__atlas_metodo_captura":"WFS oficial ICMBio/INDE","__atlas_tipo_servico":"ICMBio:canie_052026_p","__atlas_capturado_em":"2026-08-10T12:53:17.009Z","__atlas_recorte":"Mato Grosso do Sul por atributo ou interseção com envelope estadual","__atlas_aviso":"Cadastro não representa todo o universo de cavernas e não substitui validação de campo ou autorização de visitação.","cnuc":"0000.00.0143","nome_uc":"PARQUE NACIONAL DA SERRA DA BODOQUENA","categoria_uc":"Parque Nacional","esfera_administrativa":"Federal","tipo_relacao":"ponto CANIE dentro do polígono CNUC","metodo":"teste ponto–polígono sobre snapshots locais","fonte_cavidade":"CANIE/CECAV/ICMBio · snapshot local capturado em 10/08/2026","fonte_uc":"CNUC/MMA · snapshot local capturado em 10/08/2026","data_corte":"2026-08-10","natureza_resultado":"análise espacial derivada","limitacoes":"A relação cartográfica depende da precisão e atualização das bases CANIE e CNUC e não substitui validação institucional ou de campo."}},{"type":"Feature","geometry":{"type":"Point","coordinates":[-56.700983,-21.08671601]},"properties":{"ogc_fid":339,"num_canie":"005812.00157.50.02209","nome":"Abismo sem nome","estado":"Mato Grosso do Sul","municipio":"Bonito","longitude":"-56.700983","latitude":"-21.086716","nvl_valida":"Nível 1","__atlas_fonte_oficial":"CANIE/CECAV/ICMBio","__atlas_metodo_captura":"WFS oficial ICMBio/INDE","__atlas_tipo_servico":"ICMBio:canie_052026_p","__atlas_capturado_em":"2026-08-10T12:53:17.009Z","__atlas_recorte":"Mato Grosso do Sul por atributo ou interseção com envelope estadual","__atlas_aviso":"Cadastro não representa todo o universo de cavernas e não substitui validação de campo ou autorização de visitação.","cnuc":"0000.00.0143","nome_uc":"PARQUE NACIONAL DA SERRA DA BODOQUENA","categoria_uc":"Parque Nacional","esfera_administrativa":"Federal","tipo_relacao":"ponto CANIE dentro do polígono CNUC","metodo":"teste ponto–polígono sobre snapshots locais","fonte_cavidade":"CANIE/CECAV/ICMBio · snapshot local capturado em 10/08/2026","fonte_uc":"CNUC/MMA · snapshot local capturado em 10/08/2026","data_corte":"2026-08-10","natureza_resultado":"análise espacial derivada","limitacoes":"A relação cartográfica depende da precisão e atualização das bases CANIE e CNUC e não substitui validação institucional ou de campo."}},{"type":"Feature","geometry":{"type":"Point","coordinates":[-56.700187,-21.13306601]},"properties":{"ogc_fid":341,"num_canie":"005814.00158.50.02209","nome":"Caverna do Lixão","estado":"Mato Grosso do Sul","municipio":"Bonito","longitude":"-56.700187","latitude":"-21.133066","nvl_valida":"Nível 1","__atlas_fonte_oficial":"CANIE/CECAV/ICMBio","__atlas_metodo_captura":"WFS oficial ICMBio/INDE","__atlas_tipo_servico":"ICMBio:canie_052026_p","__atlas_capturado_em":"2026-08-10T12:53:17.009Z","__atlas_recorte":"Mato Grosso do Sul por atributo ou interseção com envelope estadual","__atlas_aviso":"Cadastro não representa todo o universo de cavernas e não substitui validação de campo ou autorização de visitação.","cnuc":"0000.00.0143","nome_uc":"PARQUE NACIONAL DA SERRA DA BODOQUENA","categoria_uc":"Parque Nacional","esfera_administrativa":"Federal","tipo_relacao":"ponto CANIE dentro do polígono CNUC","metodo":"teste ponto–polígono sobre snapshots locais","fonte_cavidade":"CANIE/CECAV/ICMBio · snapshot local capturado em 10/08/2026","fonte_uc":"CNUC/MMA · snapshot local capturado em 10/08/2026","data_corte":"2026-08-10","natureza_resultado":"análise espacial derivada","limitacoes":"A relação cartográfica depende da precisão e atualização das bases CANIE e CNUC e não substitui validação institucional ou de campo."}},{"type":"Feature","geometry":{"type":"Point","coordinates":[-56.697716,-21.10287501]},"properties":{"ogc_fid":347,"num_canie":"005820.00159.50.02209","nome":"Fenda sem nome I","estado":"Mato Grosso do Sul","municipio":"Bonito","longitude":"-56.697716","latitude":"-21.102875","nvl_valida":"Nível 1","__atlas_fonte_oficial":"CANIE/CECAV/ICMBio","__atlas_metodo_captura":"WFS oficial ICMBio/INDE","__atlas_tipo_servico":"ICMBio:canie_052026_p","__atlas_capturado_em":"2026-08-10T12:53:17.009Z","__atlas_recorte":"Mato Grosso do Sul por atributo ou interseção com envelope estadual","__atlas_aviso":"Cadastro não representa todo o universo de cavernas e não substitui validação de campo ou autorização de visitação.","cnuc":"0000.00.0143","nome_uc":"PARQUE NACIONAL DA SERRA DA BODOQUENA","categoria_uc":"Parque Nacional","esfera_administrativa":"Federal","tipo_relacao":"ponto CANIE dentro do polígono CNUC","metodo":"teste ponto–polígono sobre snapshots locais","fonte_cavidade":"CANIE/CECAV/ICMBio · snapshot local capturado em 10/08/2026","fonte_uc":"CNUC/MMA · snapshot local capturado em 10/08/2026","data_corte":"2026-08-10","natureza_resultado":"análise espacial derivada","limitacoes":"A relação cartográfica depende da precisão e atualização das bases CANIE e CNUC e não substitui validação institucional ou de campo."}},{"type":"Feature","geometry":{"type":"Point","coordinates":[-56.697575,-21.10595501]},"properties":{"ogc_fid":348,"num_canie":"005821.00160.50.02209","nome":"Abismo da Fazenda Boqueirão IV","estado":"Mato Grosso do Sul","municipio":"Bonito","longitude":"-56.697575","latitude":"-21.105955","nvl_valida":"Nível 1","__atlas_fonte_oficial":"CANIE/CECAV/ICMBio","__atlas_metodo_captura":"WFS oficial ICMBio/INDE","__atlas_tipo_servico":"ICMBio:canie_052026_p","__atlas_capturado_em":"2026-08-10T12:53:17.009Z","__atlas_recorte":"Mato Grosso do Sul por atributo ou interseção com envelope estadual","__atlas_aviso":"Cadastro não representa todo o universo de cavernas e não substitui validação de campo ou autorização de visitação.","cnuc":"0000.00.0143","nome_uc":"PARQUE NACIONAL DA SERRA DA BODOQUENA","categoria_uc":"Parque Nacional","esfera_administrativa":"Federal","tipo_relacao":"ponto CANIE dentro do polígono CNUC","metodo":"teste ponto–polígono sobre snapshots locais","fonte_cavidade":"CANIE/CECAV/ICMBio · snapshot local capturado em 10/08/2026","fonte_uc":"CNUC/MMA · snapshot local capturado em 10/08/2026","data_corte":"2026-08-10","natureza_resultado":"análise espacial derivada","limitacoes":"A relação cartográfica depende da precisão e atualização das bases CANIE e CNUC e não substitui validação institucional ou de campo."}},{"type":"Feature","geometry":{"type":"Point","coordinates":[-56.697574,-21.10626301]},"properties":{"ogc_fid":349,"num_canie":"005822.00161.50.02209","nome":"Abismo da Fazenda Boqueirão III","estado":"Mato Grosso do Sul","municipio":"Bonito","longitude":"-56.697574","latitude":"-21.106263","nvl_valida":"Nível 1","__atlas_fonte_oficial":"CANIE/CECAV/ICMBio","__atlas_metodo_captura":"WFS oficial ICMBio/INDE","__atlas_tipo_servico":"ICMBio:canie_052026_p","__atlas_capturado_em":"2026-08-10T12:53:17.009Z","__atlas_recorte":"Mato Grosso do Sul por atributo ou interseção com envelope estadual","__atlas_aviso":"Cadastro não representa todo o universo de cavernas e não substitui validação de campo ou autorização de visitação.","cnuc":"0000.00.0143","nome_uc":"PARQUE NACIONAL DA SERRA DA BODOQUENA","categoria_uc":"Parque Nacional","esfera_administrativa":"Federal","tipo_relacao":"ponto CANIE dentro do polígono CNUC","metodo":"teste ponto–polígono sobre snapshots locais","fonte_cavidade":"CANIE/CECAV/ICMBio · snapshot local capturado em 10/08/2026","fonte_uc":"CNUC/MMA · snapshot local capturado em 10/08/2026","data_corte":"2026-08-10","natureza_resultado":"análise espacial derivada","limitacoes":"A relação cartográfica depende da precisão e atualização das bases CANIE e CNUC e não substitui validação institucional ou de campo."}},{"type":"Feature","geometry":{"type":"Point","coordinates":[-56.697157,-21.09809401]},"properties":{"ogc_fid":350,"num_canie":"005823.00162.50.02209","nome":"Fenda sem nome III","estado":"Mato Grosso do Sul","municipio":"Bonito","longitude":"-56.697157","latitude":"-21.098094","nvl_valida":"Nível 1","__atlas_fonte_oficial":"CANIE/CECAV/ICMBio","__atlas_metodo_captura":"WFS oficial ICMBio/INDE","__atlas_tipo_servico":"ICMBio:canie_052026_p","__atlas_capturado_em":"2026-08-10T12:53:17.009Z","__atlas_recorte":"Mato Grosso do Sul por atributo ou interseção com envelope estadual","__atlas_aviso":"Cadastro não representa todo o universo de cavernas e não substitui validação de campo ou autorização de visitação.","cnuc":"0000.00.0143","nome_uc":"PARQUE NACIONAL DA SERRA DA BODOQUENA","categoria_uc":"Parque Nacional","esfera_administrativa":"Federal","tipo_relacao":"ponto CANIE dentro do polígono CNUC","metodo":"teste ponto–polígono sobre snapshots locais","fonte_cavidade":"CANIE/CECAV/ICMBio · snapshot local capturado em 10/08/2026","fonte_uc":"CNUC/MMA · snapshot local capturado em 10/08/2026","data_corte":"2026-08-10","natureza_resultado":"análise espacial derivada","limitacoes":"A relação cartográfica depende da precisão e atualização das bases CANIE e CNUC e não substitui validação institucional ou de campo."}},{"type":"Feature","geometry":{"type":"Point","coordinates":[-56.697128,-21.09812101]},"properties":{"ogc_fid":351,"num_canie":"005824.00163.50.02209","nome":"Fenda sem nome II","estado":"Mato Grosso do Sul","municipio":"Bonito","longitude":"-56.697128","latitude":"-21.098121","nvl_valida":"Nível 1","__atlas_fonte_oficial":"CANIE/CECAV/ICMBio","__atlas_metodo_captura":"WFS oficial ICMBio/INDE","__atlas_tipo_servico":"ICMBio:canie_052026_p","__atlas_capturado_em":"2026-08-10T12:53:17.009Z","__atlas_recorte":"Mato Grosso do Sul por atributo ou interseção com envelope estadual","__atlas_aviso":"Cadastro não representa todo o universo de cavernas e não substitui validação de campo ou autorização de visitação.","cnuc":"0000.00.0143","nome_uc":"PARQUE NACIONAL DA SERRA DA BODOQUENA","categoria_uc":"Parque Nacional","esfera_administrativa":"Federal","tipo_relacao":"ponto CANIE dentro do polígono CNUC","metodo":"teste ponto–polígono sobre snapshots locais","fonte_cavidade":"CANIE/CECAV/ICMBio · snapshot local capturado em 10/08/2026","fonte_uc":"CNUC/MMA · snapshot local capturado em 10/08/2026","data_corte":"2026-08-10","natureza_resultado":"análise espacial derivada","limitacoes":"A relação cartográfica depende da precisão e atualização das bases CANIE e CNUC e não substitui validação institucional ou de campo."}},{"type":"Feature","geometry":{"type":"Point","coordinates":[-56.696662,-21.10490601]},"properties":{"ogc_fid":352,"num_canie":"005825.00164.50.02209","nome":"Fenda sem nome V","estado":"Mato Grosso do Sul","municipio":"Bonito","longitude":"-56.696662","latitude":"-21.104906","nvl_valida":"Nível 1","__atlas_fonte_oficial":"CANIE/CECAV/ICMBio","__atlas_metodo_captura":"WFS oficial ICMBio/INDE","__atlas_tipo_servico":"ICMBio:canie_052026_p","__atlas_capturado_em":"2026-08-10T12:53:17.009Z","__atlas_recorte":"Mato Grosso do Sul por atributo ou interseção com envelope estadual","__atlas_aviso":"Cadastro não representa todo o universo de cavernas e não substitui validação de campo ou autorização de visitação.","cnuc":"0000.00.0143","nome_uc":"PARQUE NACIONAL DA SERRA DA BODOQUENA","categoria_uc":"Parque Nacional","esfera_administrativa":"Federal","tipo_relacao":"ponto CANIE dentro do polígono CNUC","metodo":"teste ponto–polígono sobre snapshots locais","fonte_cavidade":"CANIE/CECAV/ICMBio · snapshot local capturado em 10/08/2026","fonte_uc":"CNUC/MMA · snapshot local capturado em 10/08/2026","data_corte":"2026-08-10","natureza_resultado":"análise espacial derivada","limitacoes":"A relação cartográfica depende da precisão e atualização das bases CANIE e CNUC e não substitui validação institucional ou de campo."}},{"type":"Feature","geometry":{"type":"Point","coordinates":[-56.696441,-21.10487801]},"properties":{"ogc_fid":353,"num_canie":"005826.00165.50.02209","nome":"Fenda sem nome IV","estado":"Mato Grosso do Sul","municipio":"Bonito","longitude":"-56.696441","latitude":"-21.104878","nvl_valida":"Nível 1","__atlas_fonte_oficial":"CANIE/CECAV/ICMBio","__atlas_metodo_captura":"WFS oficial ICMBio/INDE","__atlas_tipo_servico":"ICMBio:canie_052026_p","__atlas_capturado_em":"2026-08-10T12:53:17.009Z","__atlas_recorte":"Mato Grosso do Sul por atributo ou interseção com envelope estadual","__atlas_aviso":"Cadastro não representa todo o universo de cavernas e não substitui validação de campo ou autorização de visitação.","cnuc":"0000.00.0143","nome_uc":"PARQUE NACIONAL DA SERRA DA BODOQUENA","categoria_uc":"Parque Nacional","esfera_administrativa":"Federal","tipo_relacao":"ponto CANIE dentro do polígono CNUC","metodo":"teste ponto–polígono sobre snapshots locais","fonte_cavidade":"CANIE/CECAV/ICMBio · snapshot local capturado em 10/08/2026","fonte_uc":"CNUC/MMA · snapshot local capturado em 10/08/2026","data_corte":"2026-08-10","natureza_resultado":"análise espacial derivada","limitacoes":"A relação cartográfica depende da precisão e atualização das bases CANIE e CNUC e não substitui validação institucional ou de campo."}},{"type":"Feature","geometry":{"type":"Point","coordinates":[-56.692457,-21.12124301]},"properties":{"ogc_fid":354,"num_canie":"005827.00166.50.02209","nome":"Caverna da Suindara","estado":"Mato Grosso do Sul","municipio":"Bonito","longitude":"-56.692457","latitude":"-21.121243","nvl_valida":"Nível 2","__atlas_fonte_oficial":"CANIE/CECAV/ICMBio","__atlas_metodo_captura":"WFS oficial ICMBio/INDE","__atlas_tipo_servico":"ICMBio:canie_052026_p","__atlas_capturado_em":"2026-08-10T12:53:17.009Z","__atlas_recorte":"Mato Grosso do Sul por atributo ou interseção com envelope estadual","__atlas_aviso":"Cadastro não representa todo o universo de cavernas e não substitui validação de campo ou autorização de visitação.","cnuc":"0000.00.0143","nome_uc":"PARQUE NACIONAL DA SERRA DA BODOQUENA","categoria_uc":"Parque Nacional","esfera_administrativa":"Federal","tipo_relacao":"ponto CANIE dentro do polígono CNUC","metodo":"teste ponto–polígono sobre snapshots locais","fonte_cavidade":"CANIE/CECAV/ICMBio · snapshot local capturado em 10/08/2026","fonte_uc":"CNUC/MMA · snapshot local capturado em 10/08/2026","data_corte":"2026-08-10","natureza_resultado":"análise espacial derivada","limitacoes":"A relação cartográfica depende da precisão e atualização das bases CANIE e CNUC e não substitui validação institucional ou de campo."}},{"type":"Feature","geometry":{"type":"Point","coordinates":[-56.691937,-21.28486301]},"properties":{"ogc_fid":355,"num_canie":"005828.00167.50.06903","nome":"Fenda da Fazenda Harmonia","estado":"Mato Grosso do Sul","municipio":"Porto Murtinho","longitude":"-56.691937","latitude":"-21.284863","nvl_valida":"Nível 1","__atlas_fonte_oficial":"CANIE/CECAV/ICMBio","__atlas_metodo_captura":"WFS oficial ICMBio/INDE","__atlas_tipo_servico":"ICMBio:canie_052026_p","__atlas_capturado_em":"2026-08-10T12:53:17.009Z","__atlas_recorte":"Mato Grosso do Sul por atributo ou interseção com envelope estadual","__atlas_aviso":"Cadastro não representa todo o universo de cavernas e não substitui validação de campo ou autorização de visitação.","cnuc":"0000.00.0143","nome_uc":"PARQUE NACIONAL DA SERRA DA BODOQUENA","categoria_uc":"Parque Nacional","esfera_administrativa":"Federal","tipo_relacao":"ponto CANIE dentro do polígono CNUC","metodo":"teste ponto–polígono sobre snapshots locais","fonte_cavidade":"CANIE/CECAV/ICMBio · snapshot local capturado em 10/08/2026","fonte_uc":"CNUC/MMA · snapshot local capturado em 10/08/2026","data_corte":"2026-08-10","natureza_resultado":"análise espacial derivada","limitacoes":"A relação cartográfica depende da precisão e atualização das bases CANIE e CNUC e não substitui validação institucional ou de campo."}},{"type":"Feature","geometry":{"type":"Point","coordinates":[-56.685741,-21.11596401]},"properties":{"ogc_fid":356,"num_canie":"005829.00168.50.02209","nome":"Abismo do Fábio","estado":"Mato Grosso do Sul","municipio":"Bonito","longitude":"-56.685741","latitude":"-21.115964","nvl_valida":"Nível 2","__atlas_fonte_oficial":"CANIE/CECAV/ICMBio","__atlas_metodo_captura":"WFS oficial ICMBio/INDE","__atlas_tipo_servico":"ICMBio:canie_052026_p","__atlas_capturado_em":"2026-08-10T12:53:17.009Z","__atlas_recorte":"Mato Grosso do Sul por atributo ou interseção com envelope estadual","__atlas_aviso":"Cadastro não representa todo o universo de cavernas e não substitui validação de campo ou autorização de visitação.","cnuc":"0000.00.0143","nome_uc":"PARQUE NACIONAL DA SERRA DA BODOQUENA","categoria_uc":"Parque Nacional","esfera_administrativa":"Federal","tipo_relacao":"ponto CANIE dentro do polígono CNUC","metodo":"teste ponto–polígono sobre snapshots locais","fonte_cavidade":"CANIE/CECAV/ICMBio · snapshot local capturado em 10/08/2026","fonte_uc":"CNUC/MMA · snapshot local capturado em 10/08/2026","data_corte":"2026-08-10","natureza_resultado":"análise espacial derivada","limitacoes":"A relação cartográfica depende da precisão e atualização das bases CANIE e CNUC e não substitui validação institucional ou de campo."}},{"type":"Feature","geometry":{"type":"Point","coordinates":[-56.685623,-21.11418901]},"properties":{"ogc_fid":357,"num_canie":"005830.00169.50.02209","nome":"Abismo do Jonas","estado":"Mato Grosso do Sul","municipio":"Bonito","longitude":"-56.685623","latitude":"-21.114189","nvl_valida":"Nível 2","__atlas_fonte_oficial":"CANIE/CECAV/ICMBio","__atlas_metodo_captura":"WFS oficial ICMBio/INDE","__atlas_tipo_servico":"ICMBio:canie_052026_p","__atlas_capturado_em":"2026-08-10T12:53:17.009Z","__atlas_recorte":"Mato Grosso do Sul por atributo ou interseção com envelope estadual","__atlas_aviso":"Cadastro não representa todo o universo de cavernas e não substitui validação de campo ou autorização de visitação.","cnuc":"0000.00.0143","nome_uc":"PARQUE NACIONAL DA SERRA DA BODOQUENA","categoria_uc":"Parque Nacional","esfera_administrativa":"Federal","tipo_relacao":"ponto CANIE dentro do polígono CNUC","metodo":"teste ponto–polígono sobre snapshots locais","fonte_cavidade":"CANIE/CECAV/ICMBio · snapshot local capturado em 10/08/2026","fonte_uc":"CNUC/MMA · snapshot local capturado em 10/08/2026","data_corte":"2026-08-10","natureza_resultado":"análise espacial derivada","limitacoes":"A relação cartográfica depende da precisão e atualização das bases CANIE e CNUC e não substitui validação institucional ou de campo."}},{"type":"Feature","geometry":{"type":"Point","coordinates":[-56.685478,-21.11303001]},"properties":{"ogc_fid":358,"num_canie":"005831.00170.50.02209","nome":"Abismo do Edison","estado":"Mato Grosso do Sul","municipio":"Bonito","longitude":"-56.685478","latitude":"-21.11303","nvl_valida":"Nível 2","__atlas_fonte_oficial":"CANIE/CECAV/ICMBio","__atlas_metodo_captura":"WFS oficial ICMBio/INDE","__atlas_tipo_servico":"ICMBio:canie_052026_p","__atlas_capturado_em":"2026-08-10T12:53:17.009Z","__atlas_recorte":"Mato Grosso do Sul por atributo ou interseção com envelope estadual","__atlas_aviso":"Cadastro não representa todo o universo de cavernas e não substitui validação de campo ou autorização de visitação.","cnuc":"0000.00.0143","nome_uc":"PARQUE NACIONAL DA SERRA DA BODOQUENA","categoria_uc":"Parque Nacional","esfera_administrativa":"Federal","tipo_relacao":"ponto CANIE dentro do polígono CNUC","metodo":"teste ponto–polígono sobre snapshots locais","fonte_cavidade":"CANIE/CECAV/ICMBio · snapshot local capturado em 10/08/2026","fonte_uc":"CNUC/MMA · snapshot local capturado em 10/08/2026","data_corte":"2026-08-10","natureza_resultado":"análise espacial derivada","limitacoes":"A relação cartográfica depende da precisão e atualização das bases CANIE e CNUC e não substitui validação institucional ou de campo."}},{"type":"Feature","geometry":{"type":"Point","coordinates":[-56.684775,-21.11146301]},"properties":{"ogc_fid":359,"num_canie":"005832.00171.50.02209","nome":"Caverna do Villela","estado":"Mato Grosso do Sul","municipio":"Bonito","longitude":"-56.684775","latitude":"-21.111463","nvl_valida":"Nível 2","__atlas_fonte_oficial":"CANIE/CECAV/ICMBio","__atlas_metodo_captura":"WFS oficial ICMBio/INDE","__atlas_tipo_servico":"ICMBio:canie_052026_p","__atlas_capturado_em":"2026-08-10T12:53:17.009Z","__atlas_recorte":"Mato Grosso do Sul por atributo ou interseção com envelope estadual","__atlas_aviso":"Cadastro não representa todo o universo de cavernas e não substitui validação de campo ou autorização de visitação.","cnuc":"0000.00.0143","nome_uc":"PARQUE NACIONAL DA SERRA DA BODOQUENA","categoria_uc":"Parque Nacional","esfera_administrativa":"Federal","tipo_relacao":"ponto CANIE dentro do polígono CNUC","metodo":"teste ponto–polígono sobre snapshots locais","fonte_cavidade":"CANIE/CECAV/ICMBio · snapshot local capturado em 10/08/2026","fonte_uc":"CNUC/MMA · snapshot local capturado em 10/08/2026","data_corte":"2026-08-10","natureza_resultado":"análise espacial derivada","limitacoes":"A relação cartográfica depende da precisão e atualização das bases CANIE e CNUC e não substitui validação institucional ou de campo."}},{"type":"Feature","geometry":{"type":"Point","coordinates":[-56.684722,-21.11167801]},"properties":{"ogc_fid":360,"num_canie":"005833.00172.50.02209","nome":"Caverna do Alex","estado":"Mato Grosso do Sul","municipio":"Bonito","longitude":"-56.684722","latitude":"-21.111678","nvl_valida":"Nível 2","__atlas_fonte_oficial":"CANIE/CECAV/ICMBio","__atlas_metodo_captura":"WFS oficial ICMBio/INDE","__atlas_tipo_servico":"ICMBio:canie_052026_p","__atlas_capturado_em":"2026-08-10T12:53:17.009Z","__atlas_recorte":"Mato Grosso do Sul por atributo ou interseção com envelope estadual","__atlas_aviso":"Cadastro não representa todo o universo de cavernas e não substitui validação de campo ou autorização de visitação.","cnuc":"0000.00.0143","nome_uc":"PARQUE NACIONAL DA SERRA DA BODOQUENA","categoria_uc":"Parque Nacional","esfera_administrativa":"Federal","tipo_relacao":"ponto CANIE dentro do polígono CNUC","metodo":"teste ponto–polígono sobre snapshots locais","fonte_cavidade":"CANIE/CECAV/ICMBio · snapshot local capturado em 10/08/2026","fonte_uc":"CNUC/MMA · snapshot local capturado em 10/08/2026","data_corte":"2026-08-10","natureza_resultado":"análise espacial derivada","limitacoes":"A relação cartográfica depende da precisão e atualização das bases CANIE e CNUC e não substitui validação institucional ou de campo."}},{"type":"Feature","geometry":{"type":"Point","coordinates":[-56.681728,-21.11230001]},"properties":{"ogc_fid":361,"num_canie":"005834.00173.50.02209","nome":"Caverna do Fábio","estado":"Mato Grosso do Sul","municipio":"Bonito","longitude":"-56.681728","latitude":"-21.1123","nvl_valida":"Nível 2","__atlas_fonte_oficial":"CANIE/CECAV/ICMBio","__atlas_metodo_captura":"WFS oficial ICMBio/INDE","__atlas_tipo_servico":"ICMBio:canie_052026_p","__atlas_capturado_em":"2026-08-10T12:53:17.009Z","__atlas_recorte":"Mato Grosso do Sul por atributo ou interseção com envelope estadual","__atlas_aviso":"Cadastro não representa todo o universo de cavernas e não substitui validação de campo ou autorização de visitação.","cnuc":"0000.00.0143","nome_uc":"PARQUE NACIONAL DA SERRA DA BODOQUENA","categoria_uc":"Parque Nacional","esfera_administrativa":"Federal","tipo_relacao":"ponto CANIE dentro do polígono CNUC","metodo":"teste ponto–polígono sobre snapshots locais","fonte_cavidade":"CANIE/CECAV/ICMBio · snapshot local capturado em 10/08/2026","fonte_uc":"CNUC/MMA · snapshot local capturado em 10/08/2026","data_corte":"2026-08-10","natureza_resultado":"análise espacial derivada","limitacoes":"A relação cartográfica depende da precisão e atualização das bases CANIE e CNUC e não substitui validação institucional ou de campo."}},{"type":"Feature","geometry":{"type":"Point","coordinates":[-56.650498,-21.25044801]},"properties":{"ogc_fid":369,"num_canie":"005843.00179.50.02209","nome":"Gruta Nascente do Rio Formoso (Ressurgência do Formosinho)","estado":"Mato Grosso do Sul","municipio":"Bonito","longitude":"-56.650498","latitude":"-21.250448","nvl_valida":"Nível 1","__atlas_fonte_oficial":"CANIE/CECAV/ICMBio","__atlas_metodo_captura":"WFS oficial ICMBio/INDE","__atlas_tipo_servico":"ICMBio:canie_052026_p","__atlas_capturado_em":"2026-08-10T12:53:17.009Z","__atlas_recorte":"Mato Grosso do Sul por atributo ou interseção com envelope estadual","__atlas_aviso":"Cadastro não representa todo o universo de cavernas e não substitui validação de campo ou autorização de visitação.","cnuc":"0000.00.0143","nome_uc":"PARQUE NACIONAL DA SERRA DA BODOQUENA","categoria_uc":"Parque Nacional","esfera_administrativa":"Federal","tipo_relacao":"ponto CANIE dentro do polígono CNUC","metodo":"teste ponto–polígono sobre snapshots locais","fonte_cavidade":"CANIE/CECAV/ICMBio · snapshot local capturado em 10/08/2026","fonte_uc":"CNUC/MMA · snapshot local capturado em 10/08/2026","data_corte":"2026-08-10","natureza_resultado":"análise espacial derivada","limitacoes":"A relação cartográfica depende da precisão e atualização das bases CANIE e CNUC e não substitui validação institucional ou de campo."}},{"type":"Feature","geometry":{"type":"Point","coordinates":[-52.218907,-22.19940601]},"properties":{"ogc_fid":717,"num_canie":"006200.00001.35.28700","nome":"Toca da Onça","estado":"São Paulo","municipio":"Marabá Paulista","longitude":"-52.218907","latitude":"-22.199406","nvl_valida":"Nível 1","__atlas_fonte_oficial":"CANIE/CECAV/ICMBio","__atlas_metodo_captura":"WFS oficial ICMBio/INDE","__atlas_tipo_servico":"ICMBio:canie_052026_p","__atlas_capturado_em":"2026-08-10T12:53:17.009Z","__atlas_recorte":"Mato Grosso do Sul por atributo ou interseção com envelope estadual","__atlas_aviso":"Cadastro não representa todo o universo de cavernas e não substitui validação de campo ou autorização de visitação.","cnuc":"0000.00.0073","nome_uc":"ESTAÇÃO ECOLÓGICA MICO-LEÃO-PRETO","categoria_uc":"Estação Ecológica","esfera_administrativa":"Federal","tipo_relacao":"ponto CANIE dentro do polígono CNUC","metodo":"teste ponto–polígono sobre snapshots locais","fonte_cavidade":"CANIE/CECAV/ICMBio · snapshot local capturado em 10/08/2026","fonte_uc":"CNUC/MMA · snapshot local capturado em 10/08/2026","data_corte":"2026-08-10","natureza_resultado":"análise espacial derivada","limitacoes":"A relação cartográfica depende da precisão e atualização das bases CANIE e CNUC e não substitui validação institucional ou de campo."}},{"type":"Feature","geometry":{"type":"Point","coordinates":[-52.216038,-22.21089001]},"properties":{"ogc_fid":719,"num_canie":"006202.00002.35.28700","nome":"Sete Bocas 2","estado":"São Paulo","municipio":"Marabá Paulista","longitude":"-52.216038","latitude":"-22.21089","nvl_valida":"Nível 1","__atlas_fonte_oficial":"CANIE/CECAV/ICMBio","__atlas_metodo_captura":"WFS oficial ICMBio/INDE","__atlas_tipo_servico":"ICMBio:canie_052026_p","__atlas_capturado_em":"2026-08-10T12:53:17.009Z","__atlas_recorte":"Mato Grosso do Sul por atributo ou interseção com envelope estadual","__atlas_aviso":"Cadastro não representa todo o universo de cavernas e não substitui validação de campo ou autorização de visitação.","cnuc":"0000.00.0073","nome_uc":"ESTAÇÃO ECOLÓGICA MICO-LEÃO-PRETO","categoria_uc":"Estação Ecológica","esfera_administrativa":"Federal","tipo_relacao":"ponto CANIE dentro do polígono CNUC","metodo":"teste ponto–polígono sobre snapshots locais","fonte_cavidade":"CANIE/CECAV/ICMBio · snapshot local capturado em 10/08/2026","fonte_uc":"CNUC/MMA · snapshot local capturado em 10/08/2026","data_corte":"2026-08-10","natureza_resultado":"análise espacial derivada","limitacoes":"A relação cartográfica depende da precisão e atualização das bases CANIE e CNUC e não substitui validação institucional ou de campo."}},{"type":"Feature","geometry":{"type":"Point","coordinates":[-52.215961,-22.21097201]},"properties":{"ogc_fid":720,"num_canie":"006203.00003.35.28700","nome":"Sete Bocas 1","estado":"São Paulo","municipio":"Marabá Paulista","longitude":"-52.215961","latitude":"-22.210972","nvl_valida":"Nível 1","__atlas_fonte_oficial":"CANIE/CECAV/ICMBio","__atlas_metodo_captura":"WFS oficial ICMBio/INDE","__atlas_tipo_servico":"ICMBio:canie_052026_p","__atlas_capturado_em":"2026-08-10T12:53:17.009Z","__atlas_recorte":"Mato Grosso do Sul por atributo ou interseção com envelope estadual","__atlas_aviso":"Cadastro não representa todo o universo de cavernas e não substitui validação de campo ou autorização de visitação.","cnuc":"0000.00.0073","nome_uc":"ESTAÇÃO ECOLÓGICA MICO-LEÃO-PRETO","categoria_uc":"Estação Ecológica","esfera_administrativa":"Federal","tipo_relacao":"ponto CANIE dentro do polígono CNUC","metodo":"teste ponto–polígono sobre snapshots locais","fonte_cavidade":"CANIE/CECAV/ICMBio · snapshot local capturado em 10/08/2026","fonte_uc":"CNUC/MMA · snapshot local capturado em 10/08/2026","data_corte":"2026-08-10","natureza_resultado":"análise espacial derivada","limitacoes":"A relação cartográfica depende da precisão e atualização das bases CANIE e CNUC e não substitui validação institucional ou de campo."}},{"type":"Feature","geometry":{"type":"Point","coordinates":[-56.807051,-20.72704201]},"properties":{"ogc_fid":12641,"num_canie":"018458.00207.50.02159","nome":"Gruta da Mangueira","estado":"Mato Grosso do Sul","municipio":"Bodoquena","longitude":"-56.807051","latitude":"-20.727042","nvl_valida":"Nível 1","__atlas_fonte_oficial":"CANIE/CECAV/ICMBio","__atlas_metodo_captura":"WFS oficial ICMBio/INDE","__atlas_tipo_servico":"ICMBio:canie_052026_p","__atlas_capturado_em":"2026-08-10T12:53:17.009Z","__atlas_recorte":"Mato Grosso do Sul por atributo ou interseção com envelope estadual","__atlas_aviso":"Cadastro não representa todo o universo de cavernas e não substitui validação de campo ou autorização de visitação.","cnuc":"0000.00.0143","nome_uc":"PARQUE NACIONAL DA SERRA DA BODOQUENA","categoria_uc":"Parque Nacional","esfera_administrativa":"Federal","tipo_relacao":"ponto CANIE dentro do polígono CNUC","metodo":"teste ponto–polígono sobre snapshots locais","fonte_cavidade":"CANIE/CECAV/ICMBio · snapshot local capturado em 10/08/2026","fonte_uc":"CNUC/MMA · snapshot local capturado em 10/08/2026","data_corte":"2026-08-10","natureza_resultado":"análise espacial derivada","limitacoes":"A relação cartográfica depende da precisão e atualização das bases CANIE e CNUC e não substitui validação institucional ou de campo."}},{"type":"Feature","geometry":{"type":"Point","coordinates":[-56.636243,-21.10506001]},"properties":{"ogc_fid":15858,"num_canie":"021758.00227.50.02209","nome":"Buraco das Antas (Nascente do Taquaral)","estado":"Mato Grosso do Sul","municipio":"Bonito","longitude":"-56.636243","latitude":"-21.10506","nvl_valida":"Nível 1","__atlas_fonte_oficial":"CANIE/CECAV/ICMBio","__atlas_metodo_captura":"WFS oficial ICMBio/INDE","__atlas_tipo_servico":"ICMBio:canie_052026_p","__atlas_capturado_em":"2026-08-10T12:53:17.009Z","__atlas_recorte":"Mato Grosso do Sul por atributo ou interseção com envelope estadual","__atlas_aviso":"Cadastro não representa todo o universo de cavernas e não substitui validação de campo ou autorização de visitação.","cnuc":"0000.00.0143","nome_uc":"PARQUE NACIONAL DA SERRA DA BODOQUENA","categoria_uc":"Parque Nacional","esfera_administrativa":"Federal","tipo_relacao":"ponto CANIE dentro do polígono CNUC","metodo":"teste ponto–polígono sobre snapshots locais","fonte_cavidade":"CANIE/CECAV/ICMBio · snapshot local capturado em 10/08/2026","fonte_uc":"CNUC/MMA · snapshot local capturado em 10/08/2026","data_corte":"2026-08-10","natureza_resultado":"análise espacial derivada","limitacoes":"A relação cartográfica depende da precisão e atualização das bases CANIE e CNUC e não substitui validação institucional ou de campo."}},{"type":"Feature","geometry":{"type":"Point","coordinates":[-56.720271,-21.12197701]},"properties":{"ogc_fid":15869,"num_canie":"021769.00228.50.02209","nome":"Insurgência do Rio Perdido","estado":"Mato Grosso do Sul","municipio":"Bonito","longitude":"-56.720271","latitude":"-21.121977","nvl_valida":"Nível 1","__atlas_fonte_oficial":"CANIE/CECAV/ICMBio","__atlas_metodo_captura":"WFS oficial ICMBio/INDE","__atlas_tipo_servico":"ICMBio:canie_052026_p","__atlas_capturado_em":"2026-08-10T12:53:17.009Z","__atlas_recorte":"Mato Grosso do Sul por atributo ou interseção com envelope estadual","__atlas_aviso":"Cadastro não representa todo o universo de cavernas e não substitui validação de campo ou autorização de visitação.","cnuc":"0000.00.0143","nome_uc":"PARQUE NACIONAL DA SERRA DA BODOQUENA","categoria_uc":"Parque Nacional","esfera_administrativa":"Federal","tipo_relacao":"ponto CANIE dentro do polígono CNUC","metodo":"teste ponto–polígono sobre snapshots locais","fonte_cavidade":"CANIE/CECAV/ICMBio · snapshot local capturado em 10/08/2026","fonte_uc":"CNUC/MMA · snapshot local capturado em 10/08/2026","data_corte":"2026-08-10","natureza_resultado":"análise espacial derivada","limitacoes":"A relação cartográfica depende da precisão e atualização das bases CANIE e CNUC e não substitui validação institucional ou de campo."}},{"type":"Feature","geometry":{"type":"Point","coordinates":[-56.659076,-21.10303201]},"properties":{"ogc_fid":15870,"num_canie":"021771.00229.50.02209","nome":"Poção","estado":"Mato Grosso do Sul","municipio":"Bonito","longitude":"-56.659076","latitude":"-21.103032","nvl_valida":"Nível 1","__atlas_fonte_oficial":"CANIE/CECAV/ICMBio","__atlas_metodo_captura":"WFS oficial ICMBio/INDE","__atlas_tipo_servico":"ICMBio:canie_052026_p","__atlas_capturado_em":"2026-08-10T12:53:17.009Z","__atlas_recorte":"Mato Grosso do Sul por atributo ou interseção com envelope estadual","__atlas_aviso":"Cadastro não representa todo o universo de cavernas e não substitui validação de campo ou autorização de visitação.","cnuc":"0000.00.0143","nome_uc":"PARQUE NACIONAL DA SERRA DA BODOQUENA","categoria_uc":"Parque Nacional","esfera_administrativa":"Federal","tipo_relacao":"ponto CANIE dentro do polígono CNUC","metodo":"teste ponto–polígono sobre snapshots locais","fonte_cavidade":"CANIE/CECAV/ICMBio · snapshot local capturado em 10/08/2026","fonte_uc":"CNUC/MMA · snapshot local capturado em 10/08/2026","data_corte":"2026-08-10","natureza_resultado":"análise espacial derivada","limitacoes":"A relação cartográfica depende da precisão e atualização das bases CANIE e CNUC e não substitui validação institucional ou de campo."}}],"atlas_metadata":{"produto":"Cavidades registradas em unidades de conservação","data_corte":"2026-08-10","cavidades_base":341,"unidades_conservacao_base":8,"metodo":"ponto CANIE dentro de polígono CNUC","natureza":"análise derivada exploratória"}}