{"type":"FeatureCollection","name":"interacoes_rotas_unidades_conservacao","features":[{"type":"Feature","geometry":{"type":"Point","coordinates":[-53.3519,-22.4898]},"properties":{"id_relacao":"ROTA-UC-001","id_rota":"ROTA-EST-009","nome_rota":"Rota dos Pioneiros e das Memórias do Rio Paraná","cnuc":"0000.00.0025","nome_uc":"ÁREA DE PROTEÇÃO AMBIENTAL DAS ILHAS E VÁRZEAS DO RIO PARANÁ","categoria_uc":"Área de Proteção Ambiental","esfera_administrativa":"Federal","tipo_relacao":"interseção espacial exploratória","metodo":"segmento da rota esquemática intersecta ou possui vértice dentro do polígono CNUC","fonte_rota":"JOAJU MS · propostas metodológicas de rotas · corte 10/08/2026","fonte_uc":"CNUC/MMA · snapshot local capturado em 10/08/2026","data_corte":"2026-08-10","natureza_resultado":"análise espacial derivada","limitacoes":"A relação espacial não implica autorização de acesso, visitação, integração turística, compatibilidade com plano de manejo ou validação institucional."}},{"type":"Feature","geometry":{"type":"Point","coordinates":[-54.281,-23.9355]},"properties":{"id_relacao":"ROTA-UC-002","id_rota":"ROTA-EST-021","nome_rota":"Rota de Aviturismo nas Unidades de Conservação da Mata Atlântica","cnuc":"0000.00.0025","nome_uc":"ÁREA DE PROTEÇÃO AMBIENTAL DAS ILHAS E VÁRZEAS DO RIO PARANÁ","categoria_uc":"Área de Proteção Ambiental","esfera_administrativa":"Federal","tipo_relacao":"interseção espacial exploratória","metodo":"segmento da rota esquemática intersecta ou possui vértice dentro do polígono CNUC","fonte_rota":"JOAJU MS · propostas metodológicas de rotas · corte 10/08/2026","fonte_uc":"CNUC/MMA · snapshot local capturado em 10/08/2026","data_corte":"2026-08-10","natureza_resultado":"análise espacial derivada","limitacoes":"A relação espacial não implica autorização de acesso, visitação, integração turística, compatibilidade com plano de manejo ou validação institucional."}},{"type":"Feature","geometry":{"type":"Point","coordinates":[-56.61830133136976,-21.181135115388216]},"properties":{"id_relacao":"ROTA-UC-003","id_rota":"ROTA-EST-022","nome_rota":"Rota de Aviturismo da Rota Bioceânica","cnuc":"0000.00.0143","nome_uc":"PARQUE NACIONAL DA SERRA DA BODOQUENA","categoria_uc":"Parque Nacional","esfera_administrativa":"Federal","tipo_relacao":"interseção espacial exploratória","metodo":"segmento da rota esquemática intersecta ou possui vértice dentro do polígono CNUC","fonte_rota":"JOAJU MS · propostas metodológicas de rotas · corte 10/08/2026","fonte_uc":"CNUC/MMA · snapshot local capturado em 10/08/2026","data_corte":"2026-08-10","natureza_resultado":"análise espacial derivada","limitacoes":"A relação espacial não implica autorização de acesso, visitação, integração turística, compatibilidade com plano de manejo ou validação institucional."}},{"type":"Feature","geometry":{"type":"Point","coordinates":[-56.7964950154103,-20.620093682118803]},"properties":{"id_relacao":"ROTA-UC-004","id_rota":"ROTA-EST-027","nome_rota":"Rota do Artesanato e das Cerâmicas de Mato Grosso do Sul","cnuc":"0000.00.0143","nome_uc":"PARQUE NACIONAL DA SERRA DA BODOQUENA","categoria_uc":"Parque Nacional","esfera_administrativa":"Federal","tipo_relacao":"interseção espacial exploratória","metodo":"segmento da rota esquemática intersecta ou possui vértice dentro do polígono CNUC","fonte_rota":"JOAJU MS · propostas metodológicas de rotas · corte 10/08/2026","fonte_uc":"CNUC/MMA · snapshot local capturado em 10/08/2026","data_corte":"2026-08-10","natureza_resultado":"análise espacial derivada","limitacoes":"A relação espacial não implica autorização de acesso, visitação, integração turística, compatibilidade com plano de manejo ou validação institucional."}},{"type":"Feature","geometry":{"type":"Point","coordinates":[-53.3519,-22.4898]},"properties":{"id_relacao":"ROTA-UC-005","id_rota":"ROTA-EST-028","nome_rota":"Rota das Águas e Paisagens do Vale do Ivinhema","cnuc":"0000.00.0025","nome_uc":"ÁREA DE PROTEÇÃO AMBIENTAL DAS ILHAS E VÁRZEAS DO RIO PARANÁ","categoria_uc":"Área de Proteção Ambiental","esfera_administrativa":"Federal","tipo_relacao":"interseção espacial exploratória","metodo":"segmento da rota esquemática intersecta ou possui vértice dentro do polígono CNUC","fonte_rota":"JOAJU MS · propostas metodológicas de rotas · corte 10/08/2026","fonte_uc":"CNUC/MMA · snapshot local capturado em 10/08/2026","data_corte":"2026-08-10","natureza_resultado":"análise espacial derivada","limitacoes":"A relação espacial não implica autorização de acesso, visitação, integração turística, compatibilidade com plano de manejo ou validação institucional."}},{"type":"Feature","geometry":{"type":"Point","coordinates":[-54.281,-23.9355]},"properties":{"id_relacao":"ROTA-UC-006","id_rota":"ROTA-EST-031","nome_rota":"Rota dos Marcos e das Cidades de Fronteira","cnuc":"0000.00.0025","nome_uc":"ÁREA DE PROTEÇÃO AMBIENTAL DAS ILHAS E VÁRZEAS DO RIO PARANÁ","categoria_uc":"Área de Proteção Ambiental","esfera_administrativa":"Federal","tipo_relacao":"interseção espacial exploratória","metodo":"segmento da rota esquemática intersecta ou possui vértice dentro do polígono CNUC","fonte_rota":"JOAJU MS · propostas metodológicas de rotas · corte 10/08/2026","fonte_uc":"CNUC/MMA · snapshot local capturado em 10/08/2026","data_corte":"2026-08-10","natureza_resultado":"análise espacial derivada","limitacoes":"A relação espacial não implica autorização de acesso, visitação, integração turística, compatibilidade com plano de manejo ou validação institucional."}},{"type":"Feature","geometry":{"type":"Point","coordinates":[-54.247,-23.936]},"properties":{"id_relacao":"ROTA-UC-007","id_rota":"ROTA-EST-032","nome_rota":"Caminho para os Ervais","cnuc":"0000.00.0025","nome_uc":"ÁREA DE PROTEÇÃO AMBIENTAL DAS ILHAS E VÁRZEAS DO RIO PARANÁ","categoria_uc":"Área de Proteção Ambiental","esfera_administrativa":"Federal","tipo_relacao":"interseção espacial exploratória","metodo":"segmento da rota esquemática intersecta ou possui vértice dentro do polígono CNUC","fonte_rota":"JOAJU MS · propostas metodológicas de rotas · corte 10/08/2026","fonte_uc":"CNUC/MMA · snapshot local capturado em 10/08/2026","data_corte":"2026-08-10","natureza_resultado":"análise espacial derivada","limitacoes":"A relação espacial não implica autorização de acesso, visitação, integração turística, compatibilidade com plano de manejo ou validação institucional."}},{"type":"Feature","geometry":{"type":"Point","coordinates":[-53.865,-23.477]},"properties":{"id_relacao":"ROTA-UC-008","id_rota":"ROTA-EST-032","nome_rota":"Caminho para os Ervais","cnuc":"0000.00.0161","nome_uc":"PARQUE NACIONAL DE ILHA GRANDE","categoria_uc":"Parque Nacional","esfera_administrativa":"Federal","tipo_relacao":"interseção espacial exploratória","metodo":"segmento da rota esquemática intersecta ou possui vértice dentro do polígono CNUC","fonte_rota":"JOAJU MS · propostas metodológicas de rotas · corte 10/08/2026","fonte_uc":"CNUC/MMA · snapshot local capturado em 10/08/2026","data_corte":"2026-08-10","natureza_resultado":"análise espacial derivada","limitacoes":"A relação espacial não implica autorização de acesso, visitação, integração turística, compatibilidade com plano de manejo ou validação institucional."}}],"atlas_metadata":{"produto":"Interações exploratórias entre rotas e unidades de conservação","data_corte":"2026-08-10","rotas_base":32,"unidades_conservacao_base":8,"metodo":"interseção geométrica rota–polígono","natureza":"análise derivada exploratória"}}